,Rue,Adresse,Nombre,Lat,Long,Bureau,Voix LFI du bureau,Nombre d'électeurs du bureau,Voix estimées
0,ROUTE DE GENAS,  295B ROUTE DE GENAS ,1,45.7489661,4.9165421,75,200,1277,0.2822517613889099
1,ROUTE DE GENAS,"  295D, ROUTE DE GENAS ",2,45.7489661,4.9165421,75,200,1277,0.5645035227778198
2,ROUTE DE GENAS,"  295E, ROUTE DE GENAS ",1,45.7489661,4.9165421,75,200,1277,0.2822517613889099
3,ROUTE DE GENAS,"  295F, ROUTE DE GENAS ",4,45.7489661,4.9165421,75,200,1277,1.1290070455556396
4,ROUTE DE GENAS,"  295G, ROUTE DE GENAS ",1,45.7489661,4.9165421,75,200,1277,0.2822517613889099
5,ROUTE DE GENAS,"  295H, ROUTE DE GENAS ",2,45.7489661,4.9165421,75,200,1277,0.5645035227778198
6,ROUTE DE GENAS,279  ROUTE DE GENAS ,29,45.7500195,4.9122691,75,200,1277,8.185301080278386
7,ROUTE DE GENAS,161  ROUTE DE GENAS ,38,45.7542335,4.8915185,63,126,1151,6.593535162441225
8,ROUTE DE GENAS,  137 ROUTE DE GENAS ,21,45.754323,4.8890328,63,126,1151,3.6437957476648877
9,ROUTE DE GENAS,99  ROUTE DE GENAS ,9,45.7543533,4.8839397,62,148,1178,2.1390044876484198
10,ROUTE DE GENAS,101 ROUTE DE GENAS ,10,45.7543606,4.8841261,62,148,1178,2.376671652942689
11,ROUTE DE GENAS,  73 ROUTE DE GENAS ,12,45.7547116,4.88139,61,109,1127,2.5601069890057624
12,ROUTE DE GENAS,31 ROUTE DE GENAS ,27,45.7550782,4.8777958,60,119,1088,4.6495087314221
13,RUE RUE LOUIS TEILLON,6 RUE RUE LOUIS TEILLON ,1,45.750614,4.9152902,75,200,1277,0.2822517613889099
14,RUE RUE LOUIS TEILLON,8 RUE RUE LOUIS TEILLON ,1,45.750639,4.915412,75,200,1277,0.2822517613889099
15,RUE RUE LOUIS TEILLON,24 RUE RUE LOUIS TEILLON ,1,45.7506798,4.916507,75,200,1277,0.2822517613889099
16,RUE RUE LOUIS TEILLON,12 RUE RUE LOUIS TEILLON ,1,45.7506863,4.9156478,75,200,1277,0.2822517613889099
17,RUE RUE LOUIS TEILLON,22 RUE RUE LOUIS TEILLON ,1,45.7506916,4.9163466,75,200,1277,0.2822517613889099
18,RUE RUE LOUIS TEILLON,14 RUE RUE LOUIS TEILLON ,1,45.7507113,4.9157709,75,200,1277,0.2822517613889099
19,RUE RUE LOUIS TEILLON,16 RUE RUE LOUIS TEILLON ,1,45.7507223,4.9159192,75,200,1277,0.2822517613889099
20,RUE RUE HENRI LEGAY,113 RUE RUE HENRI LEGAY ,1,45.7508568,4.9159548,76,176,1037,0.28627152219740176
21,RUE RUE HENRI LEGAY,111 RUE RUE HENRI LEGAY ,1,45.7509206,4.9159634,76,176,1037,0.28627152219740176
22,RUE RUE HENRI LEGAY,107 RUE RUE HENRI LEGAY ,16,45.7511892,4.9162172,76,176,1037,4.580344355158428
23,RUE RUE HENRI LEGAY,116 RUE RUE HENRI LEGAY ,1,45.751261,4.9159134,75,200,1277,0.2822517613889099
24,RUE RUE HENRI LEGAY,105 RUE RUE HENRI LEGAY ,8,45.751328,4.9164266,76,176,1037,2.290172177579214
25,RUE RUE HENRI LEGAY,103 RUE RUE HENRI LEGAY ,8,45.7515428,4.916452,76,176,1037,2.290172177579214
26,RUE RUE HENRI LEGAY,101 RUE RUE HENRI LEGAY ,16,45.7516852,4.9162884,76,176,1037,4.580344355158428
27,RUE RUE HENRI LEGAY,106 RUE RUE HENRI LEGAY ,1,45.7517588,4.9159847,75,200,1277,0.2822517613889099
28,RUE RUE HENRI LEGAY,99 RUE RUE HENRI LEGAY ,1,45.7518999,4.916108,76,176,1037,0.28627152219740176
29,RUE RUE DU CAPORAL MORANGE,6 RUE RUE DU CAPORAL MORANGE ,1,45.7520433,4.9165775,76,176,1037,0.28627152219740176
30,RUE RUE DU CAPORAL MORANGE,4 RUE RUE DU CAPORAL MORANGE ,1,45.7520447,4.9164939,76,176,1037,0.28627152219740176
31,RUE HENRI LEGAY,  83 RUE HENRI LEGAY ,1,45.753318,4.916623,76,176,1037,0.28627152219740176
32,RUE HENRI LEGAY,  64 RUE HENRI LEGAY ,10,45.7547232,4.9157182,76,176,1037,2.862715221974018
33,RUE HENRI LEGAY,  62 RUE HENRI LEGAY ,10,45.7548805,4.9156876,76,176,1037,2.862715221974018
34,RUE HENRI LEGAY,  66 RUE HENRI LEGAY ,34,45.7549823,4.9162123,76,176,1037,9.73323175471166
35,RUE HENRI LEGAY,  60 RUE HENRI LEGAY ,10,45.7550405,4.9156546,76,176,1037,2.862715221974018
36,RUE HENRI LEGAY,  58 RUE HENRI LEGAY ,10,45.7551905,4.9156263,76,176,1037,2.862715221974018
37,RUE HENRI LEGAY,  56 RUE HENRI LEGAY ,10,45.7553845,4.9156601,76,176,1037,2.862715221974018
38,RUE HENRI LEGAY,  54 RUE HENRI LEGAY ,10,45.7554074,4.9158976,76,176,1037,2.862715221974018
39,RUE HENRI LEGAY,  52 RUE HENRI LEGAY ,10,45.7554304,4.9161352,76,176,1037,2.862715221974018
40,RUE SERGE RAVANEL,  34 RUE SERGE RAVANEL ,10,45.7525925,4.9194015,76,176,1037,2.862715221974018
41,RUE SERGE RAVANEL,  32 RUE SERGE RAVANEL ,10,45.7527741,4.9193641,76,176,1037,2.862715221974018
42,RUE SERGE RAVANEL,  26 RUE SERGE RAVANEL ,10,45.7527764,4.9183925,76,176,1037,2.862715221974018
43,RUE SERGE RAVANEL,  28 RUE SERGE RAVANEL ,10,45.7527824,4.9186696,76,176,1037,2.862715221974018
44,RUE SERGE RAVANEL,  30 RUE SERGE RAVANEL ,10,45.7528029,4.9188916,76,176,1037,2.862715221974018
45,RUE SERGE RAVANEL,  22 RUE SERGE RAVANEL ,10,45.7529106,4.9177489,76,176,1037,2.862715221974018
46,RUE SERGE RAVANEL,  24 RUE SERGE RAVANEL ,10,45.7529366,4.91802,76,176,1037,2.862715221974018
47,RUE SERGE RAVANEL,  20 RUE SERGE RAVANEL ,10,45.7529818,4.9184384,76,176,1037,2.862715221974018
48,RUE SERGE RAVANEL,  18 RUE SERGE RAVANEL ,10,45.753139,4.9184104,76,176,1037,2.862715221974018
49,RUE SERGE RAVANEL,  10 RUE SERGE RAVANEL ,10,45.7532767,4.9174618,76,176,1037,2.862715221974018
50,RUE SERGE RAVANEL,  16 RUE SERGE RAVANEL ,10,45.7532989,4.9183813,76,176,1037,2.862715221974018
51,RUE SERGE RAVANEL,  12 RUE SERGE RAVANEL ,10,45.753299,4.9176877,76,176,1037,2.862715221974018
52,RUE SERGE RAVANEL,  14 RUE SERGE RAVANEL ,10,45.7533213,4.9179111,76,176,1037,2.862715221974018
53,RUE SERGE RAVANEL,  8 RUE SERGE RAVANEL ,16,45.7535323,4.9178425,76,176,1037,4.580344355158428
54,RUE SERGE RAVANEL,  4 RUE SERGE RAVANEL ,9,45.7536853,4.9175326,76,176,1037,2.576443699776616
55,RUE SERGE RAVANEL,  6 RUE SERGE RAVANEL ,17,45.7536862,4.9178517,76,176,1037,4.86661587735583
56,RUE DU CAPORAL MORANGE,  17A RUE DU CAPORAL MORANGE ,10,45.7525848,4.9181813,76,176,1037,2.862715221974018
57,RUE DU CAPORAL MORANGE,  17B RUE DU CAPORAL MORANGE ,10,45.7525848,4.9181813,76,176,1037,2.862715221974018
58,RUE DU CAPORAL MORANGE,  15A RUE DU CAPORAL MORANGE ,10,45.7528346,4.9176528,76,176,1037,2.862715221974018
59,RUE DU CAPORAL MORANGE,  15B RUE DU CAPORAL MORANGE ,10,45.7528346,4.9176528,76,176,1037,2.862715221974018
60,RUE DU CAPORAL MORANGE,  15C RUE DU CAPORAL MORANGE ,10,45.7528346,4.9176528,76,176,1037,2.862715221974018
61,DE LA POUDRETTE, RUE DE LA POUDRETTE ,3,45.7529404,4.9187535,76,176,1037,0.8588145665922053
62,DE LA POUDRETTE, RUE DE LA POUDRETTE ,12,45.7538187,4.9200708,76,176,1037,3.4352582663688214
63,DE LA POUDRETTE, RUE DE LA POUDRETTE ,8,45.7538406,4.9187848,76,176,1037,2.290172177579214
64,RUE NICOLAS GARNIER,1 RUE NICOLAS GARNIER ,35,45.7536386,4.9106804,74,238,1237,11.663728737919353
65,RUE NICOLAS GARNIER,  62 RUE NICOLAS GARNIER ,10,45.7544623,4.916709,76,176,1037,2.862715221974018
66,RUE NICOLAS GARNIER,  69 RUE NICOLAS GARNIER ,10,45.7545742,4.9158456,76,176,1037,2.862715221974018
67,RUE NICOLAS GARNIER,  71 RUE NICOLAS GARNIER ,10,45.7545989,4.9161424,76,176,1037,2.862715221974018
68,RUE ALFRED DE MUSSET,  2 RUE ALFRED DE MUSSET ,35,45.7558753,4.9133802,74,238,1237,11.663728737919353
69,RUE ALFRED DE MUSSET,  4 RUE ALFRED DE MUSSET ,35,45.7560019,4.9136728,74,238,1237,11.663728737919353
70,RUE ALFRED DE MUSSET,  6 RUE ALFRED DE MUSSET ,35,45.7561317,4.9139849,74,238,1237,11.663728737919353
71,RUE ALFRED DE MUSSET,  8 RUE ALFRED DE MUSSET ,30,45.7563189,4.9145768,76,176,1037,8.588145665922053
72,AVENUE DE BEL AIR,"  34, AVENUE DE BEL AIR ",1,45.7554572,4.9125975,74,238,1237,0.33324939251198155
73,AVENUE DE BEL AIR,  30 AVENUE DE BEL AIR ,1,45.7559239,4.9122714,74,238,1237,0.33324939251198155
74,AVENUE DE BEL AIR,  30 AVENUE DE BEL AIR ,1,45.7559239,4.9122714,74,238,1237,0.33324939251198155
75,AVENUE DE BEL AIR,  28 AVENUE DE BEL AIR ,10,45.7561336,4.9121757,74,238,1237,3.332493925119815
76,AVENUE DE BEL AIR,  26 AVENUE DE BEL AIR ,10,45.7562951,4.9121054,74,238,1237,3.332493925119815
77,AVENUE DE BEL AIR,  18 AVENUE DE BEL AIR ,1,45.7569016,4.9115048,74,238,1237,0.33324939251198155
78,AVENUE BEL AIR,  20 AVENUE BEL AIR ,1,45.7567364,4.9115789,74,238,1237,0.33324939251198155
79,ALLEE DES CEDRES,"  11, ALLEE DES CEDRES ",1,45.7561071,4.9110295,74,238,1237,0.33324939251198155
80,ALLEE DES CEDRES,  9 ALLEE DES CEDRES ,1,45.7561352,4.9110164,74,238,1237,0.33324939251198155
81,ALLEE DES CEDRES,  7 ALLEE DES CEDRES ,1,45.7564193,4.9108898,74,238,1237,0.33324939251198155
82,ALLEE DES CEDRES,"  3, ALLEE DES CEDRES ",1,45.7566689,4.9107775,74,238,1237,0.33324939251198155
83,ALLEE ALLEE DES CEDRES,11 ALLEE ALLEE DES CEDRES ,1,45.7561071,4.9110295,74,238,1237,0.33324939251198155
84,RUE JEAN VOILLOT,  210 RUE JEAN VOILLOT ,14,45.7497395,4.9136865,75,200,1277,3.951524659444738
85,RUE JEAN VOILLOT,225 RUE JEAN VOILLOT ,20,45.7498545,4.9138189,75,200,1277,5.645035227778197
86,RUE JEAN VOILLOT,206 RUE JEAN VOILLOT ,42,45.7501511,4.9133763,75,200,1277,11.854573978334216
87,RUE JEAN VOILLOT,"  176BIS, RUE JEAN VOILLOT ",1,45.7520189,4.9117151,75,200,1277,0.2822517613889099
88,RUE JEAN VOILLOT,159  RUE JEAN VOILLOT ,39,45.7540592,4.9102195,74,238,1237,12.996726307967279
89,RUE JEAN VOILLOT,  151 RUE JEAN VOILLOT ,34,45.7543912,4.9100142,74,238,1237,11.330479345407372
90,RUE JEAN VOILLOT,  149 RUE JEAN VOILLOT ,24,45.7545077,4.9099423,74,238,1237,7.9979854202875575
91,RUE JEAN VOILLOT,  133 RUE JEAN VOILLOT ,1,45.7552618,4.9097727,74,238,1237,0.33324939251198155
92,RUE JEAN VOILLOT,  115 RUE JEAN VOILLOT ,1,45.7569696,4.9100428,73,140,1115,0.2375621432588666
93,RUE JEAN VOILLOT,  105 RUE JEAN VOILLOT ,1,45.7579972,4.90957,73,140,1115,0.2375621432588666
94,RUE RUE JEAN VOILLOT,113 RUE RUE JEAN VOILLOT ,1,45.7571675,4.9099518,73,140,1115,0.2375621432588666
95,RUE JEAN VOILOT,  105 RUE JEAN VOILOT ,1,45.7579972,4.90957,73,140,1115,0.2375621432588666
96,RUE YVONNE CHANU,  192 RUE YVONNE CHANU ,10,45.7517361,4.9102595,75,200,1277,2.8225176138890986
97,RUE YVONNE CHANU,  190 RUE YVONNE CHANU ,10,45.7519324,4.9102123,75,200,1277,2.8225176138890986
98,RUE YVONNE CHANU,  188 RUE YVONNE CHANU ,10,45.752088,4.9101739,75,200,1277,2.8225176138890986
99,RUE YVONNE CHANU,  186 RUE YVONNE CHANU ,10,45.7523168,4.9103825,75,200,1277,2.8225176138890986
100,RUE YVONNE CHANU,  196 RUE YVONNE CHANU ,14,45.7524338,4.9099487,75,200,1277,3.951524659444738
101,RUE YVONNE CHANU,  184 RUE YVONNE CHANU ,10,45.7525148,4.9103392,75,200,1277,2.8225176138890986
102,RUE YVONNE CHANU,  182 RUE YVONNE CHANU ,10,45.7526595,4.9103069,75,200,1277,2.8225176138890986
103,RUE YVONNE CHANU,  194 RUE YVONNE CHANU ,13,45.7527558,4.9098414,75,200,1277,3.6692728980558287
104,RUE YVONNE CHANU,  180 RUE YVONNE CHANU ,10,45.7528024,4.9102745,75,200,1277,2.8225176138890986
105,RUE YVONNE CHANU,  174 RUE YVONNE CHANU ,10,45.7530139,4.909807,75,200,1277,2.8225176138890986
106,RUE YVONNE CHANU,  176 RUE YVONNE CHANU ,10,45.7530302,4.909962,75,200,1277,2.8225176138890986
107,RUE YVONNE CHANU,  178 RUE YVONNE CHANU ,10,45.7530511,4.9101596,75,200,1277,2.8225176138890986
108,IMPASSE BACONNIER,29B IMPASSE BACONNIER ,6,45.7503714,4.9116612,75,200,1277,1.6935105683334593
109,IMPASSE BACONNIER,  36 IMPASSE BACONNIER ,1,45.7507099,4.9112855,75,200,1277,0.2822517613889099
110,IMPASSE BACONNIER,  34 IMPASSE BACONNIER ,1,45.750784,4.9112701,75,200,1277,0.2822517613889099
111,IMPASSE BACONNIER,27A IMPASSE BACONNIER ,5,45.7508367,4.9114107,75,200,1277,1.4112588069445493
112,IMPASSE BACONNIER,  32 IMPASSE BACONNIER ,1,45.7508446,4.9112567,75,200,1277,0.2822517613889099
113,IMPASSE BACONNIER,  30 IMPASSE BACONNIER ,1,45.7509197,4.91124,75,200,1277,0.2822517613889099
114,IMPASSE BACONNIER,  25 IMPASSE BACONNIER ,1,45.7509839,4.9113851,75,200,1277,0.2822517613889099
115,IMPASSE BACONNIER,  28 IMPASSE BACONNIER ,1,45.7509983,4.9112235,75,200,1277,0.2822517613889099
116,IMPASSE BACONNIER,  26 IMPASSE BACONNIER ,1,45.7510652,4.911209,75,200,1277,0.2822517613889099
117,IMPASSE BACONNIER,  23 IMPASSE BACONNIER ,1,45.7510679,4.9113674,75,200,1277,0.2822517613889099
118,IMPASSE BACONNIER,  21 IMPASSE BACONNIER ,1,45.7511312,4.9113541,75,200,1277,0.2822517613889099
119,IMPASSE BACONNIER,  24 IMPASSE BACONNIER ,1,45.7511638,4.9111867,75,200,1277,0.2822517613889099
120,IMPASSE BACONNIER,  19 IMPASSE BACONNIER ,1,45.7512207,4.9113354,75,200,1277,0.2822517613889099
121,ALLEE A ROUTE DE GENAS,  269T ALLEE A ROUTE DE GENAS ,10,45.75046,4.9109012,75,200,1277,2.8225176138890986
122,ALLEE B ROUTE DE GENAS,  269T ALLEE B ROUTE DE GENAS ,10,45.75046,4.9109012,75,200,1277,2.8225176138890986
123,ALLEE C ROUTE DE GENAS,  269T ALLEE C ROUTE DE GENAS ,10,45.75046,4.9109012,75,200,1277,2.8225176138890986
124,ALLEE D ROUTE DE GENAS,  269T ALLEE D ROUTE DE GENAS ,9,45.75046,4.9109012,75,200,1277,2.540265852500189
125,IMPASSE IMPASSE BACONNIER,31C IMPASSE IMPASSE BACONNIER ,4,45.7503968,4.9116347,75,200,1277,1.1290070455556396
126,IMPASSE IMPASSE BACONNIER,33D IMPASSE IMPASSE BACONNIER ,5,45.7503968,4.9116347,75,200,1277,1.4112588069445493
127,ROUTE DE GENAS BAT B1,  277 ROUTE DE GENAS BAT B1 ,8,45.7501107,4.9120115,75,200,1277,2.258014091111279
128,ROUTE DE GENAS BAT B2,  277 ROUTE DE GENAS BAT B2 ,8,45.7501107,4.9120115,75,200,1277,2.258014091111279
129,ROUTE DE GENAS BAT A,  277 ROUTE DE GENAS BAT A ,7,45.7501107,4.9120115,75,200,1277,1.975762329722369
130,RUE DU LUXEMBOURG,18 RUE DU LUXEMBOURG ,4,45.7500743,4.9142371,75,200,1277,1.1290070455556396
131,RUE DU LUXEMBOURG,"  16, RUE DU LUXEMBOURG ",27,45.7500908,4.914491,75,200,1277,7.620797557500566
132,RUE SEVERINE,  58 RUE SEVERINE ,21,45.7512309,4.914389,75,200,1277,5.927286989167108
133,RUE SEVERINE,  54 RUE SEVERINE ,23,45.751384,4.9145075,75,200,1277,6.491790511944926
134,RUE SEVERINE,  41 RUE SEVERINE ,1,45.7523974,4.9145002,75,200,1277,0.2822517613889099
135,PLACE DE LA PAIX,  12 PLACE DE LA PAIX ,7,45.7521869,4.9151787,75,200,1277,1.975762329722369
136,PLACE DE LA PAIX,  12 PLACE DE LA PAIX ,1,45.7521869,4.9151787,75,200,1277,0.2822517613889099
137,PLACE DE LA PAIX,  11 PLACE DE LA PAIX ,9,45.7521943,4.9148971,75,200,1277,2.540265852500189
138,PLACE DE LA PAIX,  10 PLACE DE LA PAIX ,10,45.7522012,4.9146542,75,200,1277,2.8225176138890986
139,PLACE DE LA PAIX,  9  PLACE DE LA PAIX ,8,45.7522079,4.9144151,75,200,1277,2.258014091111279
140,RUE BLASCO IBANEZ,  40 RUE BLASCO IBANEZ ,9,45.7523868,4.9153374,75,200,1277,2.540265852500189
141,RUE DES ROSES,  26 RUE DES ROSES ,6,45.7537434,4.906672,73,140,1115,1.4253728595531996
142,AVENUE PAUL KRUGER,  142 AVENUE PAUL KRUGER ,6,45.7539111,4.9061119,73,140,1115,1.4253728595531996
143,AVENUE PAUL KRUGER,  145 AVENUE PAUL KRUGER ,15,45.7540217,4.9063535,73,140,1115,3.563432148882999
144,AVENUE PAUL KRUGER,  143 AVENUE PAUL KRUGER ,10,45.7540557,4.9061501,73,140,1115,2.375621432588666
145,AVENUE PAUL KRUGER,  4 AVENUE PAUL KRUGER ,8,45.7555445,4.8917717,63,126,1151,1.3881126657771
146,RUE DE LA MARNE,  5 RUE DE LA MARNE ,1,45.75359,4.9061031,73,140,1115,0.2375621432588666
147,RUE DU MARECHAL FOCH,  15 RUE DU MARECHAL FOCH ,1,45.7533112,4.9052224,73,140,1115,0.2375621432588666
148,RUE PIERRE BRESSAT,  24 RUE PIERRE BRESSAT ,1,45.7530141,4.9044144,73,140,1115,0.2375621432588666
149,RUE DE L'ORANGER.,  19 RUE DE L'ORANGER. ,8,45.7529689,4.9037195,73,140,1115,1.9004971460709328
150,RUE DE L'ORANGER.,  21 RUE DE L'ORANGER. ,6,45.7529689,4.9037195,73,140,1115,1.4253728595531996
151,RUE DE L'ORANGER,  17 RUE DE L'ORANGER ,8,45.7531823,4.9036804,73,140,1115,1.9004971460709328
152,"12, IMPASSE PONCET","  10, 12, IMPASSE PONCET ",6,45.752508,4.9036055,73,140,1115,1.4253728595531996
153,RUE MARECHAL FOCH,  34 RUE MARECHAL FOCH ,1,45.752339,4.9052417,73,140,1115,0.2375621432588666
154,RUE PAUL KRUGER,  118 RUE PAUL KRUGER ,2,45.7544925,4.9027939,73,140,1115,0.4751242865177332
155,RUE JULES GUESDE,  25 RUE JULES GUESDE ,1,45.7555134,4.9042689,73,140,1115,0.2375621432588666
156,RUE RUE CYPRIAN,8 RUE RUE CYPRIAN ,1,45.7592063,4.901291,72,155,893,0.32032666339890264
157,RUE DE CYPRIAN,  3 RUE DE CYPRIAN ,31,45.7597985,4.9015208,72,155,893,9.930126565365981
158,RUE LEON BLUM,  108 RUE LEON BLUM ,15,45.7592206,4.8995839,71,156,1263,3.797508558417333
159,RUE LEON BLUM,  106 RUE LEON BLUM ,25,45.7595163,4.8996764,71,156,1263,6.329180930695555
160,RUE LEON BLUM,  70 RUE LEON BLUM ,10,45.759904,4.8967145,71,156,1263,2.5316723722782224
161,RUE LEON BLUM,  94D RUE LEON BLUM ,23,45.760067,4.8991748,71,156,1263,5.822846456239911
162,RUE LEON BLUM,"  81, RUE LEON BLUM ",22,45.7600892,4.8976988,65,137,1146,4.1917734105320426
163,RUE LEON BLUM,"  83, RUE LEON BLUM ",1,45.7601044,4.8978918,65,137,1146,0.19053515502418375
164,RUE LEON BLUM,"  83BIS, RUE LEON BLUM ",1,45.7601044,4.8978918,65,137,1146,0.19053515502418375
165,RUE LEON BLUM,"  85, RUE LEON BLUM ",21,45.7601282,4.8981071,65,137,1146,4.001238255507858
166,RUE LEON BLUM,118 RUE LEON BLUM ,15,45.7602102,4.9017595,72,155,893,4.804899950983539
167,RUE LEON BLUM,  89 RUE LEON BLUM ,16,45.7602115,4.8987735,69,186,1171,4.9722414300538595
168,RUE LEON BLUM,120 RUE LEON BLUM ,38,45.760257,4.902025,72,155,893,12.172413209158298
169,RUE LEON BLUM,  148 RUE LEON BLUM ,44,45.7604023,4.9053575,72,155,893,14.094373189551716
170,RUE LEON BLUM,  203 RUE LEON BLUM ,10,45.7622024,4.9104978,79,139,816,2.7910064900131455
171,RUE LEON BLUM,  205 RUE LEON BLUM ,10,45.7623549,4.9104297,79,139,816,2.7910064900131455
172,RUE LEON BLUM,  207 RUE LEON BLUM ,10,45.7624894,4.9103623,79,139,816,2.7910064900131455
173,RUE LEON BLUM,  209 RUE LEON BLUM ,10,45.7626567,4.910269,79,139,816,2.7910064900131455
174,RUE LEON BLUM,  211 RUE LEON BLUM ,10,45.7627902,4.9102015,79,139,816,2.7910064900131455
175,RUE LEON BLUM,  213 RUE LEON BLUM ,10,45.7629584,4.9101108,79,139,816,2.7910064900131455
176,RUE LEON BLUM,212 RUE LEON BLUM ,34,45.7632533,4.9145533,79,139,816,9.489422066044693
177,RUE LEON BLUM,214 RUE LEON BLUM ,9,45.7633122,4.9147445,79,139,816,2.511905841011831
178,RUE LEON BLUM,216 RUE LEON BLUM ,6,45.763378,4.9149565,79,139,816,1.674603894007887
179,RUE LEON BLUM,  224 RUE LEON BLUM ,19,45.763715,4.916078,80,140,891,4.624713228666611
180,RUE LEON BLUM,  271 RUE LEON BLUM ,1,45.7641117,4.9167323,80,140,891,0.24340595940350584
181,RUE LEON BLUM,  273 RUE LEON BLUM ,1,45.7641637,4.9169052,80,140,891,0.24340595940350584
182,RUE LEON BLUM,  275 RUE LEON BLUM ,1,45.7642081,4.9170483,80,140,891,0.24340595940350584
183,RUE LEON BLUM,"  281, RUE LEON BLUM ",1,45.7643807,4.9176528,80,140,891,0.24340595940350584
184,RUE LEON BLUM,  283 RUE LEON BLUM ,1,45.7644325,4.9178347,80,140,891,0.24340595940350584
185,RUE LEON BLUM,  289 RUE LEON BLUM ,1,45.7645717,4.9183389,80,140,891,0.24340595940350584
186,RUE LEON BLUM,  291 RUE LEON BLUM ,1,45.764604,4.918452,80,140,891,0.24340595940350584
187,B RUE LEON BLUM,  124 B RUE LEON BLUM ,10,45.7598333,4.9020784,72,155,893,3.203266633989026
188,B RUE LEON BLUM,124 B RUE LEON BLUM ,21,45.7598333,4.9020784,72,155,893,6.726859931376955
189,A RUE LEON BLUM,124 A RUE LEON BLUM ,41,45.7598333,4.9020784,72,155,893,13.133393199355007
190,RUE LÉON BLUM,  38-40 RUE LÉON BLUM ,30,45.7596649,4.8939812,71,156,1263,7.595017116834666
191,RUE LÉON BLUM,  139 RUE LÉON BLUM ,4,45.76051,4.9033022,78,150,1028,1.0508274721783044
192,RUE FREDERIC FAYS,  70 RUE FREDERIC FAYS ,12,45.7602739,4.9056555,72,155,893,3.843919960786832
193,RUE FREDERIC FAYS,  68 RUE FREDERIC FAYS ,1,45.7603776,4.9055671,72,155,893,0.32032666339890264
194,RUE FREDERIC FAYS,  58 RUE FREDERIC FAYS ,13,45.7611179,4.9052792,78,150,1028,3.415189284579489
195,RUE FREDERIC FAYS,  54 RUE FREDERIC FAYS ,15,45.7614128,4.9050799,78,150,1028,3.940603020668641
196,RUE FREDERIC FAYS,32 RUE FREDERIC FAYS ,1,45.7636155,4.9041585,78,150,1028,0.2627068680445761
197,RUE FREDERIC FAYS,14  RUE FREDERIC FAYS ,36,45.7643782,4.9035436,78,150,1028,9.457447249604739
198,RUE FR?D?RIC FA?S,60 RUE FR?D?RIC FA?S ,9,45.7610387,4.9053331,78,150,1028,2.3643618124011847
199,BIS RUE FREDERIC FAYS,  68 BIS RUE FREDERIC FAYS ,1,45.7603776,4.9055671,72,155,893,0.32032666339890264
200,RUE BURAIS,  6 RUE BURAIS ,30,45.7586223,4.8918796,70,182,1239,6.03158819070742
201,RUE BURAIS,  4A RUE BURAIS ,9,45.7591585,4.8914155,70,182,1239,1.809476457212226
202,RUE BURAIS,  4B RUE BURAIS ,2,45.7591585,4.8914155,70,182,1239,0.40210587938049464
203,RUE BURAIS,1 RUE BURAIS ,9,45.7610963,4.9079425,72,155,893,2.8829399705901237
204,RUE BURAIS,3 RUE BURAIS ,31,45.7610963,4.9079425,72,155,893,9.930126565365981
205,RUE BARAIS,5 RUE BARAIS ,10,45.7610963,4.9079425,72,155,893,3.203266633989026
206,BIS COURS EMILE ZOLA,  428 BIS COURS EMILE ZOLA ,10,45.7628797,4.9106666,79,139,816,2.7910064900131455
207,BIS COURS EMILE ZOLA,  434 BIS COURS EMILE ZOLA ,10,45.7631697,4.9116209,79,139,816,2.7910064900131455
208,BIS COURS EMILE ZOLA,  430 BIS COURS EMILE ZOLA ,10,45.7632396,4.9104741,79,139,816,2.7910064900131455
209,BIS COURS EMILE ZOLA,  432 BIS COURS EMILE ZOLA ,10,45.763365,4.9110844,79,139,816,2.7910064900131455
210,BIS COURS EMILE ZOLA,96 BIS COURS EMILE ZOLA ,1,45.7706188,4.8727281,34,163,1250,0.24997935649044042
211,COURS EMILE ZOLA,  428 COURS EMILE ZOLA ,10,45.7628797,4.9106666,79,139,816,2.7910064900131455
212,COURS EMILE ZOLA,  434 COURS EMILE ZOLA ,10,45.7631697,4.9116209,79,139,816,2.7910064900131455
213,COURS EMILE ZOLA,  430 COURS EMILE ZOLA ,10,45.7632396,4.9104741,79,139,816,2.7910064900131455
214,COURS EMILE ZOLA,  432 COURS EMILE ZOLA ,10,45.763365,4.9110844,79,139,816,2.7910064900131455
215,COURS EMILE ZOLA,  422 COURS EMILE ZOLA ,10,45.7633701,4.9098985,79,139,816,2.7910064900131455
216,COURS EMILE ZOLA,  420 COURS EMILE ZOLA ,10,45.7634764,4.9098417,79,139,816,2.7910064900131455
217,COURS EMILE ZOLA,  418 COURS EMILE ZOLA ,10,45.7636566,4.9097347,79,139,816,2.7910064900131455
218,COURS EMILE ZOLA,  416 COURS EMILE ZOLA ,10,45.7637665,4.9096767,79,139,816,2.7910064900131455
219,COURS EMILE ZOLA,  336 COURS EMILE ZOLA ,8,45.7659671,4.8981369,77,180,1240,2.1416832318774435
220,COURS EMILE ZOLA,323 COURS EMILE ZOLA ,1,45.7665786,4.896006,4,137,1055,0.30122739063486326
221,COURS EMILE ZOLA,323 COURS EMILE ZOLA ,1,45.7665786,4.896006,4,137,1055,0.30122739063486326
222,COURS EMILE ZOLA,323 COURS EMILE ZOLA ,36,45.7665786,4.896006,4,137,1055,10.844186062855076
223,COURS EMILE ZOLA,  285 COURS EMILE ZOLA ,27,45.7673687,4.8917106,10,169,1329,8.115930556690948
224,COURS EMILE ZOLA,  210 COURS EMILE ZOLA ,7,45.7683218,4.8855284,48,154,1222,1.7534326709868693
225,COURS EMILE ZOLA,  210 COURS EMILE ZOLA ,17,45.7683218,4.8855284,48,154,1222,4.2583364866823965
226,COURS EMILE ZOLA,  210BIS COURS EMILE ZOLA ,41,45.7683218,4.8855284,48,154,1222,10.270105644351663
227,COURS EMILE ZOLA,  210BIS COURS EMILE ZOLA ,2,45.7683218,4.8855284,48,154,1222,0.5009807631391056
228,COURS EMILE ZOLA,"  227, COURS EMILE ZOLA ",10,45.7684869,4.8856571,12,143,1156,2.6058324699040316
229,COURS EMILE ZOLA,"  181, COURS EMILE ZOLA ",3,45.7693841,4.8807493,14,96,1035,0.5991656838822405
230,COURS EMILE ZOLA,  148 COURS EMILE ZOLA ,1,45.7696515,4.8775677,45,118,926,0.2631496358660949
231,COURS EMILE ZOLA,  149 COURS EMILE ZOLA ,16,45.7700995,4.8773802,36,114,916,3.8980439886540688
232,COURS EMILE ZOLA,  147 COURS EMILE ZOLA ,20,45.7701098,4.8773145,36,114,916,4.872554985817586
233,COURS EMILE ZOLA,  145 COURS EMILE ZOLA ,21,45.7701228,4.8772434,36,114,916,5.116182735108465
234,COURS EMILE ZOLA,  143 COURS EMILE ZOLA ,16,45.7701331,4.8771738,36,114,916,3.8980439886540688
235,COURS EMILE ZOLA,  92 COURS EMILE ZOLA ,9,45.7707446,4.8721166,34,163,1250,2.249814208413964
236,COURS EMILE ZOLA,  90 COURS EMILE ZOLA ,6,45.7707638,4.8719358,34,163,1250,1.4998761389426425
237,TER COURS EMILE ZOLA,  434 TER COURS EMILE ZOLA ,10,45.7631697,4.9116209,79,139,816,2.7910064900131455
238,TER COURS EMILE ZOLA,  430 TER COURS EMILE ZOLA ,10,45.7632396,4.9104741,79,139,816,2.7910064900131455
239,TER COURS EMILE ZOLA,  432 TER COURS EMILE ZOLA ,10,45.763365,4.9110844,79,139,816,2.7910064900131455
240,RUE DU CIMETIERE,  24 RUE DU CIMETIERE ,4,45.7647,4.911974,80,140,891,0.9736238376140234
241,RUE DU CIMETIERE,  22 RUE DU CIMETIERE ,13,45.7647433,4.911728,80,140,891,3.164277472245576
242,COURS COURS EMILE ZOLA,395 COURS COURS EMILE ZOLA ,12,45.7650504,4.9065152,3,126,1020,3.0752633990861686
243,COURS COURS EMILE ZOLA,397 COURS COURS EMILE ZOLA ,12,45.76521,4.9063496,3,126,1020,3.0752633990861686
244,COURS COURS EMILE ZOLA,401 COURS COURS EMILE ZOLA ,12,45.7653042,4.9062954,3,126,1020,3.0752633990861686
245,COURS COURS EMILE ZOLA,399 COURS COURS EMILE ZOLA ,12,45.7653961,4.9061552,3,126,1020,3.0752633990861686
246,COURS COURS EMILE ZOLA,403 COURS COURS EMILE ZOLA ,12,45.7657262,4.9058127,3,126,1020,3.0752633990861686
247,COURS COURS EMILE ZOLA,331 COURS COURS EMILE ZOLA ,22,45.7663775,4.8969882,4,137,1055,6.627002593966991
248,COURS COURS EMILE ZOLA,327 COURS COURS EMILE ZOLA ,23,45.7664532,4.8966805,4,137,1055,6.928229984601854
249,COURS COURS EMILE ZOLA,327 COURS COURS EMILE ZOLA ,1,45.7664532,4.8966805,4,137,1055,0.30122739063486326
250,COURS COURS EMILE ZOLA,20 COURS COURS EMILE ZOLA ,9,45.7704933,4.8642285,33,169,1356,2.049747347465102
251,COURS COURS EMILE ZOLA,24 COURS COURS EMILE ZOLA ,2,45.7705291,4.8645721,33,169,1356,0.4554994105478004
252,IMPASSE BOURGHANIN,  12 IMPASSE BOURGHANIN ,1,45.7645214,4.9029148,78,150,1028,0.2627068680445761
253,RUE PIERRE BARATIN,  72 RUE PIERRE BARATIN ,3,45.7609557,4.9005914,69,186,1171,0.9322952681350987
254,RUE PIERRE BARATIN,  54 RUE PIERRE BARATIN ,1,45.7621828,4.9003562,69,186,1171,0.3107650893783662
255,RUE PIERRE BARATIN,  52 RUE PIERRE BARATIN ,1,45.7622696,4.9003373,69,186,1171,0.3107650893783662
256,RUE PIERRE BARATIN,  31 RUE PIERRE BARATIN ,54,45.7638197,4.9016261,77,180,1240,14.456361815172745
257,RUE PIERRE BARATIN,  33 RUE PIERRE BARATIN ,60,45.7639191,4.9020362,77,180,1240,16.06262423908083
258,RUE PIERRE BARATIN,  29 RUE PIERRE BARATIN ,22,45.7639877,4.9010649,77,180,1240,5.889628887662971
259,RUE PIERRE BARATIN,  29B RUE PIERRE BARATIN ,22,45.7639877,4.9010649,77,180,1240,5.889628887662971
260,RUE PIERRE BARATIN,  35 RUE PIERRE BARATIN ,40,45.7640572,4.902391,77,180,1240,10.708416159387218
261,RUE RUE CHEVREUL,36 RUE RUE CHEVREUL ,17,45.7632597,4.8999544,77,180,1240,4.551076867739567
262,RUE RUE CHEVREUL,32 RUE RUE CHEVREUL ,22,45.763416,4.8996058,77,180,1240,5.889628887662971
263,BOULEVARD BOULEVARD EUGENE REGUILLON,75 BOULEVARD BOULEVARD EUGENE REGUILLON ,22,45.7630334,4.9000199,69,186,1171,6.836831966324057
264,BD EUGENE REGUILLON,  43 BD EUGENE REGUILLON ,14,45.7618477,4.8970399,69,186,1171,4.350711251297127
265,BD EUGENE REGUILLON,  90 BD EUGENE REGUILLON ,20,45.7619015,4.8982321,69,186,1171,6.215301787567324
266,BD EUGENE REGUILLON,  88 BD EUGENE REGUILLON ,16,45.7619019,4.8982056,69,186,1171,4.9722414300538595
267,BD EUGENE REGUILLON,  104 BD EUGENE REGUILLON ,3,45.7626131,4.8995705,69,186,1171,0.9322952681350987
268,BOULEVARD EUGENE REGUILLON,"  96, BOULEVARD EUGENE REGUILLON ",45,45.7622498,4.8991603,69,186,1171,13.984429022026479
269,BOULEVARD EUG?NE R?GUILLON,  94 BOULEVARD EUG?NE R?GUILLON ,5,45.7620393,4.898827,69,186,1171,1.553825446891831
270,RUE F & I JOLIOT-CURIE,  62 RUE F & I JOLIOT-CURIE ,12,45.7620146,4.897025,69,186,1171,3.7291810725403947
271,RUE F & I JOLIOT-CURIE,  17 RUE F & I JOLIOT-CURIE ,18,45.7620275,4.8973465,69,186,1171,5.5937716088105915
272,RUE F & I JOLIOT-CURIE,  46 RUE F & I JOLIOT-CURIE ,3,45.7630141,4.8963463,69,186,1171,0.9322952681350987
273,RUE F & I JOLIOT-CURIE,  3  RUE F & I JOLIOT-CURIE ,8,45.7636673,4.8965554,69,186,1171,2.4861207150269298
274,RUE F. ET I. JOLIOT CURIE,"  15, RUE F. ET I. JOLIOT CURIE ",12,45.7622558,4.8973626,69,186,1171,3.7291810725403947
275,RUE F. ET I. JOLIOT CURIE,"  13, RUE F. ET I. JOLIOT CURIE ",17,45.7623912,4.8972348,69,186,1171,5.2830065194322255
276,RUE F. ET I. JOLIOT CURIE,"  9, RUE F. ET I. JOLIOT CURIE ",3,45.7628364,4.8968447,69,186,1171,0.9322952681350987
277,RUE F. ET I. JOLIOT CURIE,"  50, RUE F. ET I. JOLIOT CURIE ",3,45.7628409,4.8966312,69,186,1171,0.9322952681350987
278,RUE F. ET I. JOLIOT CURIE,"  40, RUE F. ET I. JOLIOT CURIE ",9,45.7630699,4.8961372,69,186,1171,2.7968858044052958
279,RUE F. ET I. JOLIOT CURIE,"  30, RUE F. ET I. JOLIOT CURIE ",12,45.763648,4.8963617,69,186,1171,3.7291810725403947
280,RUE FREDERIC ET IRENE JOLIOT CURIE,56  RUE FREDERIC ET IRENE JOLIOT CURIE ,9,45.7624539,4.8970401,69,186,1171,2.7968858044052958
281,RUE FREDERIC ET IRENE JOLIOT CURIE,52  RUE FREDERIC ET IRENE JOLIOT CURIE ,3,45.7627526,4.8967389,69,186,1171,0.9322952681350987
282,RUE FREDERIC ET IRENE JOLIOT CURIE,11  RUE FREDERIC ET IRENE JOLIOT CURIE ,2,45.762754,4.8969217,69,186,1171,0.6215301787567324
283,RUE FREDERIC ET IRENE JOLIOT CURIE,5  RUE FREDERIC ET IRENE JOLIOT CURIE ,3,45.7630598,4.8965242,69,186,1171,0.9322952681350987
284,RUE FREDERIC ET IRENE JOLIOT CURIE,5 RUE FREDERIC ET IRENE JOLIOT CURIE ,10,45.7630598,4.8965242,69,186,1171,3.107650893783662
285,RUE FREDERIC ET IRENE JOLIOT CURIE,36 RUE FREDERIC ET IRENE JOLIOT CURIE ,10,45.7634279,4.8961134,69,186,1171,3.107650893783662
286,RUE FREDERIC ET IRENE JOLIOT CURIE,34  RUE FREDERIC ET IRENE JOLIOT CURIE ,9,45.7634767,4.896101,69,186,1171,2.7968858044052958
287,RUE F.ET I J.CURIE,  54 RUE F.ET I J.CURIE ,8,45.762584,4.8969622,69,186,1171,2.4861207150269298
288,RUE F.ET I JOLIOT CURIE,  7 RUE F.ET I JOLIOT CURIE ,3,45.7629215,4.8967099,69,186,1171,0.9322952681350987
289,RUE F ET I JOLIOT CURIE,  48 RUE F ET I JOLIOT CURIE ,3,45.7629296,4.8964966,69,186,1171,0.9322952681350987
290,RUE F ET I JOLIOT CURIE,  38 RUE F ET I JOLIOT CURIE ,10,45.7631763,4.8961306,69,186,1171,3.107650893783662
291,RUE F ET I JOLIOT CURIE,  32 RUE F ET I JOLIOT CURIE ,10,45.7634619,4.8962871,69,186,1171,3.107650893783662
292,RUE F ET I JOLIOT CURIE,  28 RUE F ET I JOLIOT CURIE ,7,45.7639903,4.896412,69,186,1171,2.1753556256485633
293,RUE F ET I JOLIOT CURIE,  1 RUE F ET I JOLIOT CURIE ,8,45.7639991,4.8965848,69,186,1171,2.4861207150269298
294,RUE VICTOR BASCH,  22 RUE VICTOR BASCH ,6,45.7633425,4.8968016,69,186,1171,1.8645905362701973
295,RUE VICTOR BASCH,  20 RUE VICTOR BASCH ,6,45.7635746,4.8968147,69,186,1171,1.8645905362701973
296,RUE VICTOR BASCH,  18 RUE VICTOR BASCH ,6,45.7640632,4.8968457,68,166,1311,1.2387512567041923
297,RUE VICTOR BASCH,"  16, RUE VICTOR BASCH ",6,45.7642504,4.8968572,68,166,1311,1.2387512567041923
298,RUE BERGONIER,  6 RUE BERGONIER ,13,45.7648836,4.8976048,77,180,1240,3.4802352518008455
299,RUE CHARLES ROBIN,23 RUE CHARLES ROBIN ,1,45.7644046,4.8983953,77,180,1240,0.26771040398468043
300,IMPASSE CHEVREUL LE CLAIREFONTAINE,17 IMPASSE CHEVREUL LE CLAIREFONTAINE,1,45.765055,4.8994112,77,180,1240,0.26771040398468043
301,COURS E. ZOLA,"  322, COURS E. ZOLA ",24,45.7662445,4.8964299,77,180,1240,6.425049695632331
302,COURS E.ZOLA,  320 COURS E.ZOLA ,25,45.7662799,4.8962602,77,180,1240,6.692760099617011
303,RUE DU BOUCHERET,  15 RUE DU BOUCHERET ,10,45.7669446,4.8958352,4,137,1055,3.0122739063486326
304,RUE SUBIT,  11 RUE SUBIT ,1,45.7656192,4.8955915,77,180,1240,0.26771040398468043
305,RUE SUBIT,  9 RUE SUBIT ,1,45.7657534,4.8955884,77,180,1240,0.26771040398468043
306,RUE SUBIT,  4 RUE SUBIT ,2,45.7661299,4.8954275,67,119,1037,0.3828396384749004
307,RUE DU 4 AOUT 1789,  15 RUE DU 4 AOUT 1789 ,11,45.764058,4.8752371,44,113,1035,2.429762441361506
308,RUE DU 4 AOUT 1789,173 RUE DU 4 AOUT 1789 ,14,45.7646928,4.8921299,67,119,1037,2.6798774693243024
309,RUE DU 4 AOUT 1789,  217 RUE DU 4 AOUT 1789 ,2,45.765178,4.8950989,68,166,1311,0.4129170855680641
310,RUE DU 4 AOUT 1789,  217 RUE DU 4 AOUT 1789 ,1,45.765178,4.8950989,68,166,1311,0.20645854278403206
311,RUE DU 4 AOUT 1789,  264 RUE DU 4 AOUT 1789 ,2,45.7660275,4.9010341,3,126,1020,0.5125438998476948
312,RUE DU 4 AOUT 1789,  273 RUE DU 4 AOUT 1789 ,1,45.7663746,4.9018182,3,126,1020,0.2562719499238474
313,RUE DU 4 AOÛT 1789,  31A RUE DU 4 AOÛT 1789 ,10,45.7644469,4.8774467,44,113,1035,2.2088749466922786
314,RUE DU 4 AOÛT 1789,  155 RUE DU 4 AOÛT 1789 ,9,45.7646725,4.8906016,67,119,1037,1.7227783731370516
315,RUE DU 4 AOÛT 1789,225 RUE DU 4 AOÛT 1789 ,23,45.7655002,4.8963232,77,180,1240,6.15733929164765
316,RUE RUE DU 4 AOUT,18 RUE RUE DU 4 AOUT ,33,45.7639598,4.8757219,44,113,1035,7.289287324084519
317,RUE RUE DU 4 AOUT,183 RUE RUE DU 4 AOUT ,15,45.7647403,4.8927326,67,119,1037,2.871297288561753
318,RUE RUE DU 4 AOUT,185 RUE RUE DU 4 AOUT ,15,45.7647946,4.8928773,67,119,1037,2.871297288561753
319,RUE RUE DU 4 AOUT,187 RUE RUE DU 4 AOUT ,15,45.7649115,4.8935338,67,119,1037,2.871297288561753
320,RUE RUE DU 4 AOUT,189 RUE RUE DU 4 AOUT ,15,45.7649188,4.8937464,67,119,1037,2.871297288561753
321,RUE RUE PIERRE CACARD,22 RUE RUE PIERRE CACARD ,20,45.7653316,4.8930282,67,119,1037,3.828396384749004
322,RUE RUE PIERRE CACARD,17 RUE RUE PIERRE CACARD ,20,45.7653538,4.893213,67,119,1037,3.828396384749004
323,RUE RUE PIERRE CACARD,20 RUE RUE PIERRE CACARD ,10,45.7655408,4.8930161,67,119,1037,1.914198192374502
324,RUE RUE PIERRE CACARD,15 RUE RUE PIERRE CACARD ,10,45.765565,4.8931842,67,119,1037,1.914198192374502
325,RUE RUE PIERRE CACARD,16 RUE RUE PIERRE CACARD ,20,45.7658334,4.892595,67,119,1037,3.828396384749004
326,RUE RUE PIERRE CACARD,11 RUE RUE PIERRE CACARD ,20,45.7658941,4.8935443,67,119,1037,3.828396384749004
327,RUE RUE PIERRE CACARD,18 RUE RUE PIERRE CACARD ,20,45.7659309,4.8929587,67,119,1037,3.828396384749004
328,RUE RUE PIERRE CACARD,13 RUE RUE PIERRE CACARD ,20,45.765962,4.8931438,67,119,1037,3.828396384749004
329,RUE DU 4 AOUT,  150 RUE DU 4 AOUT ,2,45.7644759,4.8898053,66,98,1069,0.3808238426186153
330,RUE DU 4 AOUT,150  RUE DU 4 AOUT ,1,45.7644759,4.8898053,66,98,1069,0.19041192130930765
331,RUE DU 4 AOUT,156  RUE DU 4 AOUT ,1,45.7644977,4.8914102,66,98,1069,0.19041192130930765
332,RUE DU 4 AOUT,  166 RUE DU 4 AOUT ,5,45.7645191,4.8922784,66,98,1069,0.9520596065465382
333,RUE DU 4 AOUT,"  87, RUE DU 4 AOUT ",33,45.7648002,4.8832354,49,144,1237,0.7850813376828145
334,RUE DU 4 AOUT,266 RUE DU 4 AOUT ,9,45.7660529,4.9015575,3,126,1020,2.3064475493146266
335,RUE LOUIS GOUX,  37 RUE LOUIS GOUX ,4,45.7648835,4.8916075,67,119,1037,0.7656792769498008
336,RUE LOUIS GOUX,  35 RUE LOUIS GOUX ,3,45.7651328,4.8916716,67,119,1037,0.5742594577123505
337,RUE LOUIS GOUX,"  30, RUE LOUIS GOUX ",23,45.7652687,4.8915177,67,119,1037,4.402655842461354
338,RUE JULES KUMER,"  39, RUE JULES KUMER ",19,45.7650406,4.8905653,67,119,1037,3.6369765655115533
339,RUE JULES KUMER,36  RUE JULES KUMER ,79,45.7653261,4.8904605,11,116,1126,19.84935980582269
340,RUE JULES KUMER,30  RUE JULES KUMER ,81,45.7655653,4.8904828,11,116,1126,20.351875243944786
341,RUE JULES KUMER,30  RUE JULES KUMER ,1,45.7655653,4.8904828,11,116,1126,0.25125771906104677
342,RUE DU 1ER MARS,  81 RUE DU 1ER MARS ,2,45.7626978,4.8909039,66,98,1069,0.3808238426186153
343,RUE DU 1ER MARS,81  RUE DU 1ER MARS ,1,45.7626978,4.8909039,66,98,1069,0.19041192130930765
344,RUE DE LA BAISSE,40  RUE DE LA BAISSE ,1,45.762884,4.8919727,68,166,1311,0.20645854278403206
345,RUE DE LA BAISSE,  38 RUE DE LA BAISSE ,1,45.7633733,4.8920165,68,166,1311,0.20645854278403206
346,RUE DU PROGRES,  51 RUE DU PROGRES ,28,45.7623148,4.8948115,68,166,1311,5.780839197952898
347,RUE DU PROGRES,  49 RUE DU PROGRES ,21,45.7625146,4.8946613,68,166,1311,4.335629398464673
348,RUE DU PROGRES,  49 RUE DU PROGRES ,1,45.7625146,4.8946613,68,166,1311,0.20645854278403206
349,RUE DU PROGRES,  39 RUE DU PROGRES ,4,45.7630532,4.8942912,68,166,1311,0.8258341711361282
350,RUE DR FRAPPAZ,  81 RUE DR FRAPPAZ ,34,45.7618464,4.8958314,68,166,1311,7.01959045465709
351,RUE DR FRAPPAZ,  77 RUE DR FRAPPAZ ,32,45.7618587,4.8954239,68,166,1311,6.606673369089026
352,RUE DR FRAPPAZ,  75 RUE DR FRAPPAZ ,35,45.7618645,4.8951307,68,166,1311,7.226048997441122
353,RUE FAILLEBIN,44 RUE FAILLEBIN ,8,45.7629105,4.8952785,68,166,1311,1.6516683422722565
354,RUE F ET I J.CURIE,  60 RUE F ET I J.CURIE ,14,45.7621783,4.8969869,69,186,1171,4.350711251297127
355,RUE EMILE DECORPS,  91A RUE EMILE DECORPS ,16,45.7533716,4.8992001,71,156,1263,4.050675795645155
356,RUE EMILE DECORPS,  5 RUE EMILE DECORPS ,43,45.7589202,4.9002568,72,155,893,13.774046526152812
357,RUE EMILE DECORPS,  12 RUE EMILE DECORPS ,36,45.758949,4.8989208,71,156,1263,9.1140205402016
358,RUE EMILE DECORPS,8 RUE EMILE DECORPS ,3,45.7589947,4.8997443,71,156,1263,0.7595017116834666
359,RUE EMILE DECORPS,  7 RUE EMILE DECORPS ,1,45.7591087,4.9005765,72,155,893,0.32032666339890264
360,RUE EMILE DECORPS,  3 RUE EMILE DECORPS ,36,45.7591527,4.9003536,72,155,893,11.531759882360495
361,RUE EMILE DECORPS,  10 RUE EMILE DECORPS ,36,45.759161,4.8987955,71,156,1263,9.1140205402016
362,RUE EMILE DECORPS,  1 RUE EMILE DECORPS ,33,45.7593755,4.9004462,72,155,893,10.570779892163786
363,QUARTET BAT 1,  LE QUARTET BAT 1 ,4,45.7600588,4.9004684,71,156,1263,1.0126689489112888
364,QUARTET BAT 1,  LE QUARTET BAT 1 ,7,45.7600588,4.9004684,71,156,1263,1.7721706605947554
365,RUE ANTOINE PRIMAT,3 RUE ANTOINE PRIMAT ,1,45.7578113,4.8970467,71,156,1263,0.2531672372278222
366,RUE ANTOINE PRIMAT,1 RUE ANTOINE PRIMAT ,2,45.7578762,4.8931885,70,182,1239,0.40210587938049464
367,RUE ANTOINE PRIMAT,3 RUE ANTOINE PRIMAT ,1,45.7578762,4.8931885,70,182,1239,0.20105293969024732
368,RUE ANTOINE PRIMAT,1 RUE ANTOINE PRIMAT ,2,45.7578977,4.8919024,70,182,1239,0.40210587938049464
369,RUE ANTOINE PRIMAT,3 RUE ANTOINE PRIMAT ,3,45.7578977,4.8919024,70,182,1239,0.603158819070742
370,RUE ANTOINE PRIMAT,1 RUE ANTOINE PRIMAT ,2,45.7579193,4.8906163,64,132,1150,0.38955330723131554
371,RUE ANTOINE PRIMAT,3 RUE ANTOINE PRIMAT ,2,45.7579193,4.8906163,64,132,1150,0.38955330723131554
372,RUE ANTOINE PRIMAT,  6 RUE ANTOINE PRIMAT ,3,45.7580593,4.89166,70,182,1239,0.603158819070742
373,RUE ANTOINE PRIMAT,  14 RUE ANTOINE PRIMAT ,6,45.758107,4.8927434,70,182,1239,1.206317638141484
374,RUE ANTOINE PRIMAT,  14 RUE ANTOINE PRIMAT ,2,45.758107,4.8927434,70,182,1239,0.40210587938049464
375,RUE ANTOINE PRIMAT,1 RUE ANTOINE PRIMAT ,4,45.7587116,4.8970776,71,156,1263,1.0126689489112888
376,RUE ANTOINE PRIMAT,3 RUE ANTOINE PRIMAT ,3,45.7587116,4.8970776,71,156,1263,0.7595017116834666
377,RUE BERTHELOT,  5 RUE BERTHELOT ,5,45.7592092,4.8969863,71,156,1263,1.2658361861391112
378,RUE BERTHELOT,3 RUE BERTHELOT ,22,45.7595347,4.8969752,71,156,1263,5.569679219012089
379,RUE RUE LEON BLUM,44 RUE RUE LEON BLUM ,19,45.7597206,4.8943892,71,156,1263,4.810177507328622
380,RUE RUE LEON BLUM,35 RUE RUE LEON BLUM ,7,45.7597813,4.8939371,65,137,1146,1.3337460851692862
381,RUE RUE LEON BLUM,74 RUE RUE LEON BLUM ,19,45.7599446,4.8972588,71,156,1263,4.810177507328622
382,RUE RUE LEON BLUM,37 RUE RUE LEON BLUM ,1,45.760026,4.89402,65,137,1146,0.19053515502418375
383,RUE L?ON BLUM,  62 RUE L?ON BLUM ,4,45.7598509,4.8960139,71,156,1263,1.0126689489112888
384,RUE LOUIS DUCROIZE,  20 RUE LOUIS DUCROIZE ,14,45.7584834,4.8952229,71,156,1263,3.5443413211895107
385,RUE RUE POIZAT,3 RUE RUE POIZAT ,14,45.7592298,4.8932027,70,182,1239,2.8147411556634627
386,RUE GUILLOTE,9 RUE GUILLOTE ,5,45.7573561,4.8923,70,182,1239,1.0052646984512366
387,RUE ANTOINE PRIMAT ''GRANDCLEMENT'',9  RUE ANTOINE PRIMAT ''GRANDCLEMENT'' ,15,45.758186,4.8916884,70,182,1239,3.01579409535371
388,RUE BURAIS ''GRANDCLEMENT'',10  RUE BURAIS ''GRANDCLEMENT'' ,24,45.7583089,4.8919332,70,182,1239,4.825270552565936
389,RUE BURAIS ''GRANDCLEMENT'',8  RUE BURAIS ''GRANDCLEMENT'' ,36,45.7584516,4.8919085,70,182,1239,7.237905828848904
390,AVENUE G?N?RAL LECLERC,  3 AVENUE G?N?RAL LECLERC ,21,45.7591151,4.8908554,70,182,1239,4.222111733495193
391,AVENUE GENERAL LECLERC,63  AVENUE GENERAL LECLERC ,34,45.7545441,4.8914312,63,126,1151,5.899478829552675
392,AVENUE GENERAL LECLERC,61  AVENUE GENERAL LECLERC ,31,45.7547249,4.8914147,63,126,1151,5.378936579886263
393,AVENUE GENERAL LECLERC,  33 AVENUE GENERAL LECLERC ,7,45.7573476,4.8910857,70,182,1239,1.4073705778317314
394,RUE RUE GUILLOTTE,23 RUE RUE GUILLOTTE ,24,45.7568306,4.8914619,70,182,1239,4.825270552565936
395,RUE PANISSOD,  8 RUE PANISSOD ,25,45.7559952,4.8899385,64,132,1150,4.869416340391444
396,RUE CHIRAT,  36 RUE CHIRAT ,11,45.7568165,4.8892905,64,132,1150,2.142543189772235
397,D RUE RUE CHIRAT,36 D RUE RUE CHIRAT ,7,45.7568165,4.8892905,64,132,1150,1.3634365753096043
398,RUE BREVET,6  RUE BREVET ,12,45.7564409,4.8889122,64,132,1150,2.3373198433878932
399,RUE CHARRIN,5  RUE CHARRIN ,24,45.7561919,4.8881329,64,132,1150,4.6746396867757865
400,RUE CHARRIN,7  RUE CHARRIN ,25,45.7562223,4.8884541,64,132,1150,4.869416340391444
401,RUE CHARRIN,9  RUE CHARRIN ,23,45.756239,4.8888152,64,132,1150,4.479863033160129
402,RUE DE LA POSTE,29 RUE DE LA POSTE ,3,45.7568116,4.8878054,64,132,1150,0.5843299608469733
403,RUE DE LA POSTE,29 RUE DE LA POSTE ,4,45.7568116,4.8878054,64,132,1150,0.7791066144626311
404,RUE DE LA POSTE,23 RUE DE LA POSTE ,5,45.757151,4.8877642,64,132,1150,0.9738832680782888
405,RUE EUGENE FOURNIERE,  50 RUE EUGENE FOURNIERE ,6,45.7550879,4.887283,62,148,1178,1.4260029917656132
406,RUE EUGENE FOURNIERE,32 RUE EUGENE FOURNIERE ,1,45.7565436,4.8871346,62,148,1178,0.23766716529426887
407,RUE EUGENE FOURNIERE,7 RUE EUGENE FOURNIERE ,8,45.7581963,4.8870394,64,132,1150,1.5582132289252622
408,RUE DES DEUX FRERES,5 RUE DES DEUX FRERES ,1,45.7559074,4.8866679,62,148,1178,0.23766716529426887
409,RUE DES DEUX FR?RES,12 RUE DES DEUX FR?RES ,5,45.7558944,4.8865297,62,148,1178,1.1883358264713444
410,RUE RUE EUGENE FOURNIERE,47 RUE RUE EUGENE FOURNIERE ,19,45.7554889,4.8874038,64,132,1150,3.7007564186974973
411,RUE RUE EUGENE FOURNIERE,45 RUE RUE EUGENE FOURNIERE ,13,45.7556162,4.8873862,64,132,1150,2.532096497003551
412,RUE DE LA FRATERNITE,  1 RUE DE LA FRATERNITE ,9,45.7549792,4.8867996,62,148,1178,2.1390044876484198
413,RUE RUE GEORGE SAND,12 RUE RUE GEORGE SAND ,32,45.7547793,4.8860943,62,148,1178,7.605349289416604
414,RUE ANTONIN PERRIN,  78 RUE ANTONIN PERRIN ,1,45.7552178,4.8854103,62,148,1178,0.23766716529426887
415,RUE ANTONIN PERRIN,  74 RUE ANTONIN PERRIN ,1,45.7553731,4.8853835,62,148,1178,0.23766716529426887
416,RUE ANTONIN PERRIN,  76 RUE ANTONIN PERRIN ,18,45.7555538,4.8853288,62,148,1178,4.2780089752968395
417,RUE ANTONIN PERRIN,52  RUE ANTONIN PERRIN ,18,45.7564771,4.8852448,62,148,1178,4.2780089752968395
418,RUE ANTONIN PERRIN,50  RUE ANTONIN PERRIN ,50,45.7566648,4.8852217,62,148,1178,11.883358264713443
419,RUE ANTONIN PERRIN,"  20, RUE ANTONIN PERRIN ",28,45.7587712,4.8849432,54,162,1143,7.350993560465821
420,RUE RUE ANTONIN PERRIN,68 RUE RUE ANTONIN PERRIN ,5,45.755746,4.8853344,62,148,1178,1.1883358264713444
421,RUE RUE ANTONIN PERRIN,21 RUE RUE ANTONIN PERRIN ,37,45.7592258,4.8851546,53,162,1191,10.397758693293905
422,RUE RUE ANTONIN PERRIN,19 RUE RUE ANTONIN PERRIN ,31,45.7593206,4.8851437,53,162,1191,8.711635661948948
423,ARAGO,"  13,RUE ARAGO ",13,45.7567809,4.8842013,61,109,1127,2.7734492380895763
424,RUE ARAGO,37  RUE ARAGO ,6,45.754851,4.8835378,62,148,1178,1.4260029917656132
425,RUE ARAGO,  17 RUE ARAGO ,6,45.7564309,4.8842201,61,109,1127,1.2800534945028812
426,RUE ARAGO,  17B RUE ARAGO ,35,45.7564309,4.8842201,61,109,1127,7.466978717933475
427,RUE ARAGO,  17T RUE ARAGO ,12,45.7564309,4.8842201,61,109,1127,2.5601069890057624
428,RUE JEAN JAURES,  32 RUE JEAN JAURES ,25,45.7568034,4.8804794,60,119,1088,4.3051006772426845
429,RUE JEAN JAURES,  34 RUE JEAN JAURES ,26,45.7568213,4.8805674,60,119,1088,4.477304704332392
430,RUE JEAN JAURES,  36 RUE JEAN JAURES ,15,45.7568932,4.8808235,60,119,1088,2.583060406345611
431,RUE JEAN JAURES,  38 RUE JEAN JAURES ,16,45.7569433,4.881004,60,119,1088,2.7552644334353182
432,RUE JEAN JAURES,  44 RUE JEAN JAURES ,26,45.757164,4.8818107,61,109,1127,5.546898476179153
433,RUE JEAN JAURES,  48 RUE JEAN JAURES ,27,45.7573184,4.8823847,61,109,1127,5.760240725262966
434,RUE JEAN JAURES,"  51, RUE JEAN JAURES ",1,45.7574438,4.881779,54,162,1143,0.26253548430235074
435,RUE JEAN JAURES,"  53, RUE JEAN JAURES ",34,45.7574874,4.8819207,54,162,1143,8.926206466279925
436,RUE JEAN JAURES,"  55, RUE JEAN JAURES ",1,45.7575609,4.8822102,54,162,1143,0.26253548430235074
437,RUE JEAN JAURES,  69 RUE JEAN JAURES ,3,45.7578562,4.8835113,54,162,1143,0.7876064529070522
438,AVENUE ANTOINE ST EXUPERY,"  56, AVENUE ANTOINE ST EXUPERY ",28,45.7577962,4.8818746,54,162,1143,7.350993560465821
439,AV. ANTOINE DE ST EXUPERY,  53A AV. ANTOINE DE ST EXUPERY ,2,45.7581909,4.8819127,54,162,1143,0.5250709686047015
440,AV. ANTOINE DE ST EXUPERY,  53B AV. ANTOINE DE ST EXUPERY ,10,45.7581909,4.8819127,54,162,1143,2.6253548430235076
441,AV. ANTOINE DE ST EXUPERY,  53E AV. ANTOINE DE ST EXUPERY ,7,45.7581909,4.8819127,54,162,1143,1.8377483901164553
442,RUE LOUIS BRAILLE,19 RUE LOUIS BRAILLE ,1,45.7593876,4.8824243,54,162,1143,0.26253548430235074
443,RUE LOUIS BRAILLE,11  RUE LOUIS BRAILLE ,23,45.7604931,4.8824766,55,143,1254,4.221375401187037
444,RUE LOUIS BRAILLE,11B  RUE LOUIS BRAILLE ,27,45.7604931,4.8824766,55,143,1254,4.955527644871739
445,RUE LOUIS BRAILLE,9  RUE LOUIS BRAILLE ,23,45.7606082,4.8824157,55,143,1254,4.221375401187037
446,RUE LOUIS BRAILLE,9BIS  RUE LOUIS BRAILLE ,22,45.7606082,4.8824157,55,143,1254,4.037837340265861
447,RUE LAFONTAINE,  60 RUE LAFONTAINE ,44,45.759605,4.8819221,54,162,1143,11.551561309303434
448,RUE LAFONTAINE,  58 RUE LAFONTAINE ,44,45.7597262,4.8815157,54,162,1143,11.551561309303434
449,RUE LAFONTAINE,  47 RUE LAFONTAINE ,44,45.7602666,4.8803309,59,192,1324,10.963685676128234
450,RUE LAFONTAINE,  45 RUE LAFONTAINE ,44,45.7603898,4.8799066,59,192,1324,10.963685676128234
451,RUE LAFONTAINE,  43 RUE LAFONTAINE ,44,45.7605047,4.8794987,59,192,1324,10.963685676128234
452,RUE FLORIAN,  46 RUE FLORIAN ,8,45.7588009,4.8801781,59,192,1324,1.993397395659679
453,RUE FLORIAN,  44 RUE FLORIAN ,8,45.7590837,4.8803434,59,192,1324,1.993397395659679
454,RUE FLORIAN,  33 RUE FLORIAN ,20,45.7595076,4.8814134,54,162,1143,5.250709686047015
455,RUE FLORIAN,  10 RUE FLORIAN ,13,45.7607902,4.8806923,56,130,1118,3.461651893142422
456,RUE FLORIAN,10 RUE FLORIAN ,1,45.7607902,4.8806923,56,130,1118,0.2662809148571094
457,RUE FLORIAN,  8 RUE FLORIAN ,12,45.7609741,4.8806986,56,130,1118,3.195370978285313
458,RUE FLORIAN,8 RUE FLORIAN ,1,45.7609741,4.8806986,56,130,1118,0.2662809148571094
459,AVENUE SAINT EXUPERY,  47 AVENUE SAINT EXUPERY ,12,45.7585419,4.8802053,59,192,1324,2.9900960934895187
460,AVENUE SAINT EXUPERY,  45 AVENUE SAINT EXUPERY ,6,45.7586269,4.8798646,59,192,1324,1.4950480467447593
461,AVENUE SAINT EXUPERY,  28 AVENUE SAINT EXUPERY ,10,45.7586295,4.8783565,59,192,1324,2.491746744574599
462,AVENUE SAINT EXUPERY,  43 AVENUE SAINT EXUPERY ,6,45.7586451,4.8797996,59,192,1324,1.4950480467447593
463,AVENUE SAINT EXUPERY,  26 AVENUE SAINT EXUPERY ,10,45.758685,4.8781577,59,192,1324,2.491746744574599
464,AVENUE SAINT EXUPERY,  41 AVENUE SAINT EXUPERY ,7,45.758735,4.8794809,59,192,1324,1.7442227212022192
465,AVENUE SAINT EXUPERY,  24 AVENUE SAINT EXUPERY ,10,45.7587425,4.8779537,59,192,1324,2.491746744574599
466,AVENUE SAINT EXUPERY,  22 AVENUE SAINT EXUPERY ,10,45.7588028,4.8777357,59,192,1324,2.491746744574599
467,AVENUE SAINT EXUPERY,  39 AVENUE SAINT EXUPERY ,6,45.7588145,4.8792507,59,192,1324,1.4950480467447593
468,AVENUE SAINT EXUPERY,  37 AVENUE SAINT EXUPERY ,28,45.7588519,4.8791169,59,192,1324,6.976890884808877
469,AVENUE SAINT EXUPERY,  20 AVENUE SAINT EXUPERY ,10,45.758867,4.8775063,59,192,1324,2.491746744574599
470,AVENUE SAINT EXUPERY,  35 AVENUE SAINT EXUPERY ,30,45.7588844,4.8790022,59,192,1324,7.475240233723796
471,RUE RICHELIEU,  37 RUE RICHELIEU ,23,45.758755,4.8770379,59,192,1324,5.731017512521577
472,RUE RICHELIEU,  35 RUE RICHELIEU ,22,45.7590075,4.8771829,59,192,1324,5.481842838064117
473,RUE RICHELIEU,  34 RUE RICHELIEU ,17,45.7597794,4.8771237,58,119,1229,3.229673010203278
474,RUE RICHELIEU,11 RUE RICHELIEU ,1,45.7613887,4.8787782,56,130,1118,0.2662809148571094
475,AVENUE MARC SANGNIER,  49 AVENUE MARC SANGNIER ,5,45.7589687,4.8763207,58,119,1229,0.9499038265303759
476,AVENUE MARC SANGNIER,"  46, AVENUE MARC SANGNIER ",8,45.7603066,4.8750753,58,119,1229,1.5198461224486013
477,AVENUE MARC SANGNIER,  13 AVENUE MARC SANGNIER ,33,45.7624649,4.8740934,57,136,1254,6.586521228355845
478,AVENUE MARC SANGNIER,  11 AVENUE MARC SANGNIER ,1,45.7625295,4.8740891,57,136,1254,0.19959155237441956
479,AVENUE MARC SANGNIER,  9  AVENUE MARC SANGNIER ,30,45.7626211,4.8740979,57,136,1254,5.987746571232586
480,AVENUE MARC SANGNIER,"  7, AVENUE MARC SANGNIER ",7,45.7628318,4.8741084,57,136,1254,1.3971408666209368
481,AVENUE AVENUE MARC SANGNIER,60 AVENUE AVENUE MARC SANGNIER ,17,45.7586874,4.8762275,58,119,1229,3.229673010203278
482,AVENUE AVENUE MARC SANGNIER,58 AVENUE AVENUE MARC SANGNIER ,26,45.7588124,4.8761309,58,119,1229,4.939499897957955
483,RUE E. AYNARD,  37 RUE E. AYNARD ,1,45.7591517,4.8755535,58,119,1229,0.18998076530607516
484,RUE RUE FRANCOIS GILLET,19 RUE RUE FRANCOIS GILLET ,1,45.759517,4.8745269,58,119,1229,0.18998076530607516
485,RUE RUE FRANCOIS GILLET,20 RUE RUE FRANCOIS GILLET ,18,45.7597157,4.874789,58,119,1229,3.4196537755093526
486,RUE RUE PASCAL,23 RUE RUE PASCAL ,21,45.7598943,4.8745582,58,119,1229,3.989596071427578
487,RUE EDOUARD AYNARD,  11 RUE EDOUARD AYNARD ,4,45.7615421,4.8768109,56,130,1118,1.0651236594284377
488,RUE AYNARD,"  7, RUE AYNARD ",6,45.7620147,4.8770431,56,130,1118,1.5976854891426564
489,RUE AYNARD,"  7, RUE AYNARD ",3,45.7620147,4.8770431,56,130,1118,0.7988427445713282
490,COURS TOLSTOI,  148 COURS TOLSTOI ,12,45.7605834,4.8858482,53,162,1191,3.372246062689915
491,COURS TOLSTOI,  101 COURS TOLSTOI ,20,45.7620909,4.8809618,51,135,1194,4.743931277736732
492,COURS TOLSTOI,"  95, COURS TOLSTOI ",13,45.7623028,4.880219,50,135,1278,2.991890417967038
493,COURS TOLSTOI,  80 COURS TOLSTOI ,13,45.7624461,4.8773915,56,130,1118,3.461651893142422
494,COURS TOLSTOI,  47 COURS TOLSTOI ,4,45.7635326,4.8751977,44,113,1035,0.8835499786769114
495,COURS TOLSTOI,  46 COURS TOLSTOI ,6,45.7635399,4.8738345,57,136,1254,1.1975493142465172
496,COURS TOLSTOI,2 COURS TOLSTOI ,3,45.7636611,4.8701122,41,118,1033,0.8031765632405816
497,COURS TOLSTOI,2 COURS TOLSTOI ,1,45.7636611,4.8701122,41,118,1033,0.2677255210801939
498,COURS TOLSTOI,  21 COURS TOLSTOI ,11,45.7638516,4.8725266,41,118,1033,2.9449807318821333
499,RUE RUE RICHELIEU,11 RUE RUE RICHELIEU ,1,45.7613887,4.8787782,56,130,1118,0.2662809148571094
500,RUE RUE RICHELIEU,3 RUE RUE RICHELIEU ,13,45.7622384,4.8786478,56,130,1118,3.461651893142422
501,COURS COURS TOLSTOI,134 COURS COURS TOLSTOI ,16,45.7611094,4.8835858,55,143,1254,2.9366089747388084
502,COURS COURS TOLSTOI,102 COURS COURS TOLSTOI ,14,45.7622548,4.8795569,56,130,1118,3.7279328079995313
503,COURS COURS TOLSTOI,98 COURS COURS TOLSTOI ,19,45.7622867,4.8791552,56,130,1118,5.0593373822850785
504,COURS COURS TOLSTOI,100 COURS COURS TOLSTOI ,10,45.7623154,4.8793273,56,130,1118,2.662809148571094
505,COURS COURS TOLSTOI,96 COURS COURS TOLSTOI ,21,45.7623443,4.8789409,56,130,1118,5.591899211999297
506,RUE BAUDELAIRE,  18 RUE BAUDELAIRE ,13,45.7627659,4.8794147,50,135,1278,2.991890417967038
507,RUE BAUDELAIRE,  16 RUE BAUDELAIRE ,12,45.7629191,4.8793857,50,135,1278,2.761745001200343
508,RUE BAUDELAIRE,  16BIS RUE BAUDELAIRE ,1,45.7629191,4.8793857,50,135,1278,0.23014541676669523
509,RUE BAUDELAIRE,  14 RUE BAUDELAIRE ,9,45.7630549,4.8793782,50,135,1278,2.0713087509002572
510,RUE BAUDELAIRE,  12BIS RUE BAUDELAIRE ,11,45.7632584,4.8792526,50,135,1278,2.5315995844336476
511,COURS TOLSTO?,  128 COURS TOLSTO? ,16,45.7614577,4.8825759,55,143,1254,2.9366089747388084
512,COURS TOLSTO?,"  85, COURS TOLSTO? ",8,45.7625912,4.8789607,50,135,1278,1.8411633341335618
513,RUE RUE LOUIS BRAILLE,8 RUE RUE LOUIS BRAILLE ,1,45.7612358,4.8816756,55,143,1254,0.18353806092117553
514,INCONNUE COURS TOLSTOI,111 INCONNUE COURS TOLSTOI ,17,45.7618065,4.8817564,51,135,1194,4.032341586076223
515,INCONNUE COURS TOLSTOI,111 INCONNUE COURS TOLSTOI ,1,45.7618065,4.8817564,51,135,1194,0.2371965638868366
516,COURS JEAN DAMIDOT,  1 COURS JEAN DAMIDOT ,7,45.761784,4.8821327,51,135,1194,1.6603759472078563
517,COURS JEAN DAMIDOT,  1 COURS JEAN DAMIDOT ,4,45.761784,4.8821327,51,135,1194,0.9487862555473464
518,COURS DOCTEUR JEAN DAMIDOT,"  14, COURS DOCTEUR JEAN DAMIDOT ",17,45.7617251,4.8839864,55,143,1254,3.120147035659984
519,AVENUE AUGUSTE BLANQUI,  44 AVENUE AUGUSTE BLANQUI ,9,45.7612925,4.884646,55,143,1254,1.6518425482905799
520,COURS DR JEAN DAMIDOT,  23 COURS DR JEAN DAMIDOT ,15,45.7619973,4.8852157,52,126,1027,3.3759597313371654
521,COURS DR JEAN DAMIDOT,  25 COURS DR JEAN DAMIDOT ,15,45.7620082,4.8855854,52,126,1027,3.3759597313371654
522,COURS DR JEAN DAMIDOT,  37 COURS DR JEAN DAMIDOT ,20,45.7620435,4.8865505,52,126,1027,4.5012796417828875
523,COURS DR JEAN DAMIDOT,  27 COURS DR JEAN DAMIDOT ,10,45.7622137,4.8860132,52,126,1027,2.2506398208914438
524,COURS DR JEAN DAMIDOT,  29 COURS DR JEAN DAMIDOT ,10,45.7622255,4.8864358,52,126,1027,2.2506398208914438
525,COURS DR JEAN DAMIDOT,  33 COURS DR JEAN DAMIDOT ,14,45.7623205,4.8867316,52,126,1027,3.1508957492480207
526,COURS DR JEAN DAMIDOT,  31 COURS DR JEAN DAMIDOT ,13,45.7625778,4.8861621,52,126,1027,2.925831767158877
527,COURS DR JEAN DAMIDOT,  35 COURS DR JEAN DAMIDOT ,14,45.7625977,4.8867483,52,126,1027,3.1508957492480207
528,AV AUGUSTE BLANQUI,  37 AV AUGUSTE BLANQUI ,10,45.7621664,4.8849062,52,126,1027,2.2506398208914438
529,AV AUGUSTE BLANQUI,  35 AV AUGUSTE BLANQUI ,10,45.7624482,4.8851294,52,126,1027,2.2506398208914438
530,AV AUGUSTE BLANQUI,  31 AV AUGUSTE BLANQUI ,28,45.762551,4.8853954,52,126,1027,6.3017914984960415
531,AV AUGUSTE BLANQUI,  29 AV AUGUSTE BLANQUI ,21,45.7625673,4.8858722,52,126,1027,4.726343623872031
532,AV AUGUSTE BLANQUI,  33 AV AUGUSTE BLANQUI ,50,45.7626176,4.8864736,52,126,1027,11.253199104457218
533,AV AUGUSTE BLANQUI,  26 AV AUGUSTE BLANQUI ,18,45.7628254,4.8845503,51,135,1194,4.269538149963059
534,AV AUGUSTE BLANQUI,  24 AV AUGUSTE BLANQUI ,25,45.762866,4.8845465,51,135,1194,5.929914097170915
535,AV AUGUSTE BLANQUI,  24 AV AUGUSTE BLANQUI ,1,45.762866,4.8845465,51,135,1194,0.2371965638868366
536,AV AUGUSTE BLANQUI,  18 AV AUGUSTE BLANQUI ,8,45.763187,4.8845253,51,135,1194,1.8975725110946928
537,AV AUGUSTE BLANQUI,  16 AV AUGUSTE BLANQUI ,8,45.7633737,4.8845124,51,135,1194,1.8975725110946928
538,AV AUGUSTE BLANQUI,  14 AV AUGUSTE BLANQUI ,8,45.7635685,4.8844997,51,135,1194,1.8975725110946928
539,RUE DU NORD,  2 RUE DU NORD ,15,45.7636765,4.8807875,51,135,1194,3.557948458302549
540,RUE DU NORD,  26 RUE DU NORD ,17,45.7637808,4.8835443,51,135,1194,4.032341586076223
541,RUE DU NORD,  28 RUE DU NORD ,17,45.7637878,4.8837736,51,135,1194,4.032341586076223
542,RUE DU NORD,  30 RUE DU NORD ,17,45.7637941,4.88399,51,135,1194,4.032341586076223
543,RUE DU NORD,  32 RUE DU NORD ,17,45.7638011,4.8842168,51,135,1194,4.032341586076223
544,RUE DOCTEUR PAPILLON,  25 RUE DOCTEUR PAPILLON ,10,45.7628785,4.8833154,51,135,1194,2.371965638868366
545,RUE DOCTEUR PAPILLON,  23 RUE DOCTEUR PAPILLON ,10,45.7630236,4.8833062,51,135,1194,2.371965638868366
546,RUE DOCTEUR PAPILLON,  21 RUE DOCTEUR PAPILLON ,10,45.7633041,4.8832861,51,135,1194,2.371965638868366
547,RUE RUE DU DOCTEUR PAPILLON,2 RUE RUE DU DOCTEUR PAPILLON ,19,45.7646154,4.8830031,51,135,1194,4.506734713849895
548,RUE RUE DU DOCTEUR OLLIER,51 RUE RUE DU DOCTEUR OLLIER ,17,45.7651893,4.8830762,49,144,1237,0.4044358406244802
549,RUE LAFARGUE,  62 RUE LAFARGUE ,28,45.7651024,4.8836923,48,154,1222,7.013730683947477
550,49 RUE PAUL LAFARGUE,  47- 49 RUE PAUL LAFARGUE ,3,45.765661,4.8837937,48,154,1222,0.7514711447086583
551,RUE PAUL LAFARGUE,  33 RUE PAUL LAFARGUE ,4,45.7665543,4.8837508,48,154,1222,1.0019615262782111
552,RUE DOCTEUR OLLIER,36 RUE DOCTEUR OLLIER ,26,45.766406,4.8828706,49,144,1237,0.6185489327197932
553,RUE DOCTEUR OLLIER,35 RUE DOCTEUR OLLIER ,31,45.7665846,4.8830183,48,154,1222,7.765201828656136
554,RUE DOCTEUR OLLIER,"  34, RUE DOCTEUR OLLIER ",1,45.7666142,4.882861,49,144,1237,0.023790343566145893
555,RUE DOCTEUR OLLIER,34 RUE DOCTEUR OLLIER ,1,45.7666142,4.882861,49,144,1237,0.023790343566145893
556,RUE DOCTEUR OLLIER,34 RUE DOCTEUR OLLIER ,2,45.7666142,4.882861,49,144,1237,0.047580687132291785
557,RUE DOCTEUR OLLIER,34 RUE DOCTEUR OLLIER ,1,45.7666142,4.882861,49,144,1237,0.023790343566145893
558,RUE DOCTEUR OLLIER,34 RUE DOCTEUR OLLIER ,2,45.7666142,4.882861,49,144,1237,0.047580687132291785
559,RUE DOCTEUR OLLIER,34 RUE DOCTEUR OLLIER ,1,45.7666142,4.882861,49,144,1237,0.023790343566145893
560,RUE DOCTEUR OLLIER,34 RUE DOCTEUR OLLIER ,1,45.7666142,4.882861,49,144,1237,0.023790343566145893
561,RUE DOCTEUR OLLIER,34 RUE DOCTEUR OLLIER ,2,45.7666142,4.882861,49,144,1237,0.047580687132291785
562,RUE DOCTEUR OLLIER,34 RUE DOCTEUR OLLIER ,2,45.7666142,4.882861,49,144,1237,0.047580687132291785
563,RUE DOCTEUR OLLIER,34 RUE DOCTEUR OLLIER ,2,45.7666142,4.882861,49,144,1237,0.047580687132291785
564,RUE DOCTEUR OLLIER,34 RUE DOCTEUR OLLIER ,2,45.7666142,4.882861,49,144,1237,0.047580687132291785
565,RUE DOCTEUR OLLIER,34 RUE DOCTEUR OLLIER ,51,45.7666142,4.882861,49,144,1237,1.2133075218734404
566,RUE DOCTEUR OLLIER,32 RUE DOCTEUR OLLIER ,34,45.7668188,4.8828525,49,144,1237,0.8088716812489604
567,RUE DOCTEUR OLLIER,  20 RUE DOCTEUR OLLIER ,14,45.7676734,4.8828147,46,150,1197,4.40961188912729
568,RUE DOCTEUR OLLIER,  16 RUE DOCTEUR OLLIER ,16,45.7677969,4.8828099,46,150,1197,5.039556444716903
569,RUE DOCTEUR OLLIER,  12 RUE DOCTEUR OLLIER ,14,45.7679077,4.8828072,46,150,1197,4.40961188912729
570,RUE RUE PAUL LAFARGUE,20 RUE RUE PAUL LAFARGUE ,2,45.7676995,4.8835698,48,154,1222,0.5009807631391056
571,RUE DOCTEUR ROLLET,  31 RUE DOCTEUR ROLLET ,3,45.7668768,4.8844542,48,154,1222,0.7514711447086583
572,RUE DU DOCTEUR ROLLET,  39 RUE DU DOCTEUR ROLLET ,45,45.7657084,4.8847297,11,116,1126,11.306597357747103
573,RUE DE FRANCE,10 RUE DE FRANCE ,19,45.7668317,4.8871503,11,116,1126,4.773896662159888
574,RUE DE FRANCE,22 RUE DE FRANCE ,62,45.7668677,4.8880653,11,116,1126,15.577978581784897
575,RUE DE FRANCE,20 RUE DE FRANCE ,43,45.7669562,4.8881095,11,116,1126,10.804081919625009
576,RUE DE FRANCE,12 RUE DE FRANCE ,22,45.7669967,4.8871945,11,116,1126,5.5276698193430285
577,RUE DE FRANCE,18 RUE DE FRANCE ,14,45.7671594,4.8878616,11,116,1126,3.5176080668546548
578,RUE DE FRANCE,16 RUE DE FRANCE ,12,45.7671834,4.887663,11,116,1126,3.015092628732561
579,RUE DE FRANCE,14 RUE DE FRANCE ,16,45.7671886,4.8872436,11,116,1126,4.020123504976748
580,RUE RUE CAMILLE KOECHLIN,1 RUE RUE CAMILLE KOECHLIN ,8,45.7620579,4.88752,52,126,1027,1.8005118567131548
581,RUE RUE CAMILLE KOECHLIN,3 RUE RUE CAMILLE KOECHLIN ,8,45.7622158,4.8874997,52,126,1027,1.8005118567131548
582,RUE RUE CAMILLE KOECHLIN,5 RUE RUE CAMILLE KOECHLIN ,8,45.7624578,4.8874668,52,126,1027,1.8005118567131548
583,RUE RUE CAMILLE KOECHLIN,7 RUE RUE CAMILLE KOECHLIN ,8,45.7626113,4.8874463,52,126,1027,1.8005118567131548
584,RUE RUE CAMILLE KOECHLIN,9 RUE RUE CAMILLE KOECHLIN ,8,45.7628631,4.8874137,52,126,1027,1.8005118567131548
585,RUE RUE CAMILLE KOECHLIN,11 RUE RUE CAMILLE KOECHLIN ,7,45.7629985,4.8873952,52,126,1027,1.5754478746240104
586,RUE RUE CAMILLE KOECHLIN,13 RUE RUE CAMILLE KOECHLIN ,7,45.7632603,4.8873616,52,126,1027,1.5754478746240104
587,RUE RUE CAMILLE KOECHLIN,15 RUE RUE CAMILLE KOECHLIN ,8,45.7634038,4.8873421,52,126,1027,1.8005118567131548
588,RUE RUE CAMILLE KOECHLIN,17 RUE RUE CAMILLE KOECHLIN ,8,45.7636548,4.8873082,52,126,1027,1.8005118567131548
589,RUE RUE CAMILLE KOECHLIN,19 RUE RUE CAMILLE KOECHLIN ,7,45.7638002,4.8872887,52,126,1027,1.5754478746240104
590,RUE RUE CAMILLE KOECHLIN,21 RUE RUE CAMILLE KOECHLIN ,8,45.7640602,4.8872538,52,126,1027,1.8005118567131548
591,RUE RUE CAMILLE KOECHLIN,23 RUE RUE CAMILLE KOECHLIN ,8,45.7641956,4.887234,52,126,1027,1.8005118567131548
592,RUE RUE CAMILLE KOECHLIN,25 RUE RUE CAMILLE KOECHLIN ,8,45.7644493,4.8871989,52,126,1027,1.8005118567131548
593,RUE RUE CAMILLE KOECHLIN,27 RUE RUE CAMILLE KOECHLIN ,5,45.7645892,4.8871805,52,126,1027,1.1253199104457219
594,COURS DU DOCTEUR JEAN DAMIDOT,56 COURS DU DOCTEUR JEAN DAMIDOT ,1,45.7618273,4.8872484,53,162,1191,0.2810205052241596
595,RUE PERSOZ,  3 RUE PERSOZ ,16,45.7607129,4.8869902,53,162,1191,4.496328083586554
596,RUE PERSOZ,  5 RUE PERSOZ ,14,45.7608182,4.8870479,53,162,1191,3.9342870731382344
597,PETITE RUE DE LA RIZE,5  PETITE RUE DE LA RIZE ,30,45.7599958,4.88576,53,162,1191,8.43061515672479
598,PL GRANDCLEMENT,19 PL GRANDCLEMENT ,3,45.7586667,4.8863462,53,162,1191,0.8430615156724788
599,PLACE GRAND CLEMENT,33 PLACE GRAND CLEMENT ,1,45.75893,4.8872671,53,162,1191,0.2810205052241596
600,PLACE PLACE JULES GRANDCLEMENT,45 PLACE PLACE JULES GRANDCLEMENT ,14,45.7591806,4.8880219,53,162,1191,3.9342870731382344
601,CHIRAT,"  26,RUE CHIRAT ",2,45.7574949,4.8891558,64,132,1150,0.38955330723131554
602,D - 26 RUE GEORGES SAND,  ALLEE D - 26 RUE GEORGES SAND ,6,45.7550268,4.8879953,63,126,1151,1.041084499332825
603,IMPASSE AMBLARD,6 IMPASSE AMBLARD ,1,45.7549656,4.8878839,63,126,1151,0.1735140832221375
604,ROUTE ROUTE DE GENAS,131B ROUTE ROUTE DE GENAS ,37,45.7543499,4.8885062,63,126,1151,6.4200210792190875
605,ROUTE ROUTE DE GENAS,133 ROUTE ROUTE DE GENAS ,38,45.7547431,4.8883691,63,126,1151,6.593535162441225
606,B - 129 ROUTE DE GENAS,  ALLEE B - 129 ROUTE DE GENAS ,11,45.754323,4.8881238,63,126,1151,1.9086549154435124
607,A - 127 ROUTE DE GENAS,  ALLEE A - 127 ROUTE DE GENAS ,9,45.754296,4.8877413,63,126,1151,1.5616267489992375
608,BD HONORE DE BALZAC,  5 BD HONORE DE BALZAC ,14,45.7546481,4.8849457,62,148,1178,3.327340314119764
609,BD HONORE DE BALZAC,  7 BD HONORE DE BALZAC ,14,45.7547197,4.8850832,62,148,1178,3.327340314119764
610,RUE ARAGO / ROUTE DE GENAS,41 RUE ARAGO / ROUTE DE GENAS ,15,45.7545827,4.8835139,62,148,1178,3.565007479414033
611,RUE ARAGO / ROUTE DE GENAS,41 RUE ARAGO / ROUTE DE GENAS ,12,45.7545827,4.8835139,62,148,1178,2.8520059835312264
612,RUE DU PROFESSEUR PIERRE GALTIER,11 RUE DU PROFESSEUR PIERRE GALTIER ,3,45.7553013,4.8824224,61,109,1127,0.6400267472514406
613,RUE PROFESSEUR GALTIER,"  9, RUE PROFESSEUR GALTIER ",2,45.7555307,4.8824203,61,109,1127,0.4266844981676271
614,RUE DU PROFESSEUR VICTOR GALTIER,7 RUE DU PROFESSEUR VICTOR GALTIER ,3,45.7556742,4.8824599,61,109,1127,0.6400267472514406
615,RUE RUE PROFESSEUR GALTIER,8 RUE RUE PROFESSEUR GALTIER ,14,45.7554534,4.8822491,61,109,1127,2.98679148717339
616,RUE RUE PROFESSEUR GALTIER,6 RUE RUE PROFESSEUR GALTIER ,9,45.7556351,4.8822676,61,109,1127,1.920080241754322
617,RUE RUE PROFESSEUR GALTIER,4 RUE RUE PROFESSEUR GALTIER ,12,45.7557985,4.8823496,61,109,1127,2.5601069890057624
618,RUE RAYMOND TERRACHER,  7 RUE RAYMOND TERRACHER ,23,45.7566999,4.8790598,59,192,1324,5.731017512521577
619,RUE RAYMOND TERRACHER,  9 RUE RAYMOND TERRACHER ,8,45.7568777,4.8789526,59,192,1324,1.993397395659679
620,RUE RUE JEAN JAURES,3 RUE RUE JEAN JAURES ,210,45.7565137,4.878455,59,192,1324,52.32668163606658
621,PLACE DES MAISONNEUVES,  44 PLACE DES MAISONNEUVES ,4,45.7563099,4.8782602,60,119,1088,0.6888161083588296
622,RUE RHONAT,  17 RUE RHONAT ,30,45.7550798,4.8784533,60,119,1088,5.166120812691222
623,RUE RHONAT,  15 RUE RHONAT ,5,45.7552271,4.8783708,60,119,1088,0.861020135448537
624,RUE RHONAT,  13 RUE RHONAT ,5,45.7553224,4.8783278,60,119,1088,0.861020135448537
625,RUE RHONAT,  11 RUE RHONAT ,5,45.7553806,4.8782963,60,119,1088,0.861020135448537
626,RUE RHONAT,  9 RUE RHONAT ,5,45.755445,4.8782663,60,119,1088,0.861020135448537
627,RUE RHONAT,  5  RUE RHONAT ,22,45.7556792,4.8781585,60,119,1088,3.7884885959735626
628,RUE RUE RHONAT,20 RUE RUE RHONAT ,21,45.7551816,4.878238,60,119,1088,3.6162845688838545
629,RTE DE GENAS,21 RTE DE GENAS ,10,45.7549905,4.8771409,60,119,1088,1.722040270897074
630,A - 8 RUE MEUNIER,  ALLEE A - 8 RUE MEUNIER ,22,45.7552355,4.8771159,60,119,1088,3.7884885959735626
631,B - 6 RUE MEUNIER,  ALLEE B - 6 RUE MEUNIER ,6,45.7553893,4.8770663,60,119,1088,1.0332241625382443
632,RUE PAUL PECHOUX,  1 RUE PAUL PECHOUX ,6,45.755414,4.8767752,60,119,1088,1.0332241625382443
633,RUE PAUL PECHOUX,2 RUE PAUL PECHOUX ,2,45.755439,4.8766808,60,119,1088,0.3444080541794148
634,PLACE DES MAISONS NEUVES,  7 PLACE DES MAISONS NEUVES ,4,45.7559812,4.8766323,59,192,1324,0.9966986978298396
635,PLACE DES MAISONS NEUVES,  9 PLACE DES MAISONS NEUVES ,6,45.7560111,4.8767311,59,192,1324,1.4950480467447593
636,PLACE DES MAISONS NEUVES,  13 PLACE DES MAISONS NEUVES ,5,45.7561333,4.8770853,59,192,1324,1.2458733722872994
637,PLACE DES MAISONS NEUVES,13 PLACE DES MAISONS NEUVES ,1,45.7561333,4.8770853,59,192,1324,0.2491746744574599
638,PLACE DES MAISONS NEUVES,  15 PLACE DES MAISONS NEUVES ,12,45.7561608,4.8772612,59,192,1324,2.9900960934895187
639,RUE JEAN LOUIS MAUBANT,  5 RUE JEAN LOUIS MAUBANT ,13,45.757666,4.8776894,59,192,1324,3.2392707679469783
640,RUE JEAN LOUIS MAUBANT,  3 RUE JEAN LOUIS MAUBANT ,17,45.7578165,4.8776645,59,192,1324,4.235969465776818
641,RUE JEAN LOUIS MAUBANT,  8 RUE JEAN LOUIS MAUBANT ,8,45.7578574,4.8773708,59,192,1324,1.993397395659679
642,R CLOS PONCET,10 R CLOS PONCET ,8,45.7626623,4.8753136,57,136,1254,1.5967324189953565
643,R CLOS PONCET,10 R CLOS PONCET ,2,45.7626623,4.8753136,57,136,1254,0.3991831047488391
644,R CLOS PONCET,10 R CLOS PONCET ,5,45.7626623,4.8753136,57,136,1254,0.9979577618720978
645,R CLOS PONCET,10 R CLOS PONCET ,7,45.7626623,4.8753136,57,136,1254,1.3971408666209368
646,RUE RUE CLOS PONCET,11 RUE RUE CLOS PONCET ,14,45.7627212,4.875391,57,136,1254,2.7942817332418737
647,COURS DE LA REPUBLIQUE,  83/85 COURS DE LA REPUBLIQUE ,99,45.7643158,4.8744637,44,113,1035,21.867861972253557
648,COURS DE LA REPUBLIQUE,  65 COURS DE LA REPUBLIQUE ,27,45.7655632,4.8741418,40,118,1169,4.820601698154823
649,COURS DE LA REPUBLIQUE,  63 COURS DE LA REPUBLIQUE ,27,45.7658959,4.8741222,40,118,1169,4.820601698154823
650,COURS DE LA REPUBLIQUE,  39 COURS DE LA REPUBLIQUE ,20,45.7683994,4.8738867,39,179,1490,4.626137178452606
651,B AVENUE MARC SANGNIER,  13 B AVENUE MARC SANGNIER ,1,45.7624649,4.8740934,57,136,1254,0.19959155237441956
652,B AVENUE MARC SANGNIER,  9 B AVENUE MARC SANGNIER ,1,45.7626211,4.8740979,57,136,1254,0.19959155237441956
653,RUE CLOS PONCET,  2  RUE CLOS PONCET ,1,45.7626209,4.8742315,57,136,1254,0.19959155237441956
654,RUE CLOS PONCET,"  1, RUE CLOS PONCET ",4,45.7627963,4.8744781,57,136,1254,0.7983662094976782
655,RUE RUE DE LA CONVENTION,18 RUE RUE DE LA CONVENTION ,12,45.7635817,4.8727272,57,136,1254,2.3950986284930345
656,RUE RUE DU DOCTEUR DOLARD,1A RUE RUE DU DOCTEUR DOLARD ,16,45.7633606,4.8723722,57,136,1254,3.193464837990713
657,R DOCTEUR DOLARD,5 R DOCTEUR DOLARD ,3,45.763104,4.8725671,57,136,1254,0.5987746571232586
658,RUE RUE MAGENTA,78 RUE RUE MAGENTA ,13,45.7648611,4.8715634,41,118,1033,3.4804317740425206
659,RUE RUE MAGENTA,73 RUE RUE MAGENTA ,1,45.7665412,4.8715353,40,118,1169,0.1785408036353638
660,RUE MAGENTA,  76 RUE MAGENTA ,16,45.765011,4.871544,41,118,1033,4.283608337283102
661,RUE MAGENTA,  70 RUE MAGENTA ,5,45.7657601,4.871451,40,118,1169,0.892704018176819
662,RUE MAGENTA,57 RUE MAGENTA ,17,45.7676087,4.871381,39,179,1490,3.932216601684716
663,RUE MAGENTA,35  RUE MAGENTA ,28,45.7687612,4.871245,39,179,1490,6.476592049833649
664,RUE MAGENTA,"  19, RUE MAGENTA ",5,45.7695635,4.8712091,39,179,1490,1.1565342946131516
665,RUE ANATOLE FRANCE,37 RUE ANATOLE FRANCE ,2,45.7671498,4.8715688,39,179,1490,0.4626137178452607
666,RUE ANATOLE FRANCE,  60 RUE ANATOLE FRANCE ,3,45.7673204,4.8742104,40,118,1169,0.5356224109060913
667,RUE ANATOLE FRANCE,  62 RUE ANATOLE FRANCE ,3,45.767344,4.8744652,40,118,1169,0.5356224109060913
668,RUE ANATOLE FRANCE,"  78, RUE ANATOLE FRANCE ",10,45.7675356,4.8763272,43,75,1080,1.3474478624153279
669,RUE ANATOLE FRANCE,  71 RUE ANATOLE FRANCE ,20,45.7676982,4.8758749,36,114,916,4.872554985817586
670,RUE ANATOLE FRANCE,79 RUE ANATOLE FRANCE ,1,45.7677224,4.8766862,36,114,916,0.2436277492908793
671,RUE ANATOLE FRANCE,  61 RUE ANATOLE FRANCE ,12,45.7677454,4.8744826,39,179,1490,2.7756823070715644
672,RUE ANATOLE FRANCE,102  RUE ANATOLE FRANCE ,33,45.7680181,4.879103,42,139,1044,-2.8597653433062287
673,RUE ANATOLE FRANCE,112  RUE ANATOLE FRANCE ,55,45.7681708,4.8799371,42,139,1044,-4.766275572177048
674,RUE ANATOLE FRANCE,  113 RUE ANATOLE FRANCE ,16,45.7684682,4.88074,46,150,1197,5.039556444716903
675,RUE ANATOLE FRANCE,  115 RUE ANATOLE FRANCE ,15,45.7685146,4.8809823,46,150,1197,4.724584166922097
676,RUE ANATOLE FRANCE,  126 RUE ANATOLE FRANCE ,15,45.7685208,4.881801,46,150,1197,4.724584166922097
677,RUE LOUIS ADAM,34 RUE LOUIS ADAM ,2,45.7674315,4.8719632,39,179,1490,0.4626137178452607
678,RUE LOUIS ADAM,  22 RUE LOUIS ADAM ,1,45.7680241,4.8718176,39,179,1490,0.23130685892263034
679,RUE LOUIS ADAM,39 RUE LOUIS ADAM ,2,45.7681436,4.8716604,39,179,1490,0.4626137178452607
680,RUE LOUIS ADAM,  16 RUE LOUIS ADAM ,1,45.7681514,4.8718536,39,179,1490,0.23130685892263034
681,RUE LOUIS ADAM,  18 RUE LOUIS ADAM ,2,45.7683123,4.8717319,39,179,1490,0.4626137178452607
682,RUE LOUIS ADAM,39 RUE LOUIS ADAM ,3,45.7690439,4.8716909,39,179,1490,0.6939205767678911
683,RUE LOUIS ADAM,39 RUE LOUIS ADAM ,1,45.7699441,4.8717214,37,141,1265,0.21895303155217927
684,B  RUE LOUIS ADAM,10 B  RUE LOUIS ADAM ,10,45.7688956,4.8717715,39,179,1490,2.313068589226303
685,RUE DE LA BASTILLE,  1 RUE DE LA BASTILLE ,3,45.7705782,4.8718873,34,163,1250,0.7499380694713212
686,RUE FRANCIS DE PRESSENSE,"  52, RUE FRANCIS DE PRESSENSE ",34,45.771781,4.8720848,34,163,1250,8.499298120674974
687,RUE FRANCIS DE PRESSENSE,71 RUE FRANCIS DE PRESSENSE ,1,45.7719969,4.8738362,35,136,1166,0.3008150294231875
688,RUE FRANCIS DE PRESSENSE,  7  RUE FRANCIS DE PRESSENSE ,1,45.7728798,4.8668272,30,189,1146,0.3591514107590173
689,RUE MARIA CASAR?S,"  10, RUE MARIA CASAR?S ",16,45.7724278,4.8709596,22,141,1153,4.3293262232889065
690,RUE MARIA CASAR?S,"  12, RUE MARIA CASAR?S ",15,45.7725193,4.8709617,22,141,1153,4.05874333433335
691,RUE MARIA CASARES,  4 RUE MARIA CASARES ,19,45.7728581,4.8709382,22,141,1153,5.1410748901555765
692,RUE ISABELLE SADOYAN,  11 RUE ISABELLE SADOYAN ,23,45.7731403,4.871654,22,141,1153,6.223406445977803
693,RUE DESCARTES,  40 RUE DESCARTES ,4,45.7734862,4.8718319,22,141,1153,1.0823315558222266
694,LES METEORES,  RESIDENCE LES METEORES ,25,45.7730845,4.8724572,22,141,1153,6.7645722238889165
695,LES METEORES,  RESIDENCE LES METEORES ,35,45.773118,4.8724995,22,141,1153,9.470401113444483
696,RUE JEAN OTTAVI,  2 RUE JEAN OTTAVI ,25,45.7731447,4.8729467,22,141,1153,6.7645722238889165
697,RUE JEAN OTTAVI,  4 RUE JEAN OTTAVI ,27,45.7731562,4.8731843,22,141,1153,7.30573800180003
698,RUE COLIN,49 RUE COLIN ,1,45.7721607,4.8738469,35,136,1166,0.3008150294231875
699,RUE COLIN,"  37, RUE COLIN ",41,45.7736749,4.8742214,23,149,1198,11.772274105172116
700,RUE COLIN,"  35, RUE COLIN ",43,45.77391,4.8742224,23,149,1198,12.346531378595145
701,RUE COLIN,"  33, RUE COLIN ",38,45.7740626,4.8741985,23,149,1198,10.910888195037572
702,RUE COLIN,  28 RUE COLIN ,4,45.7741234,4.8740654,23,149,1198,1.14851454684606
703,RUE COLIN,24 RUE COLIN ,31,45.7743362,4.8740443,23,149,1198,8.900987738056966
704,RUE COLIN,  9  RUE COLIN ,1,45.7749949,4.8741235,16,151,1134,0.29403774125556265
705,E RUE COLIN,  9 E RUE COLIN ,10,45.7749949,4.8741235,16,151,1134,2.9403774125556263
706,F RUE COLIN,  9 F RUE COLIN ,10,45.7749949,4.8741235,16,151,1134,2.9403774125556263
707,G RUE COLIN,  9 G RUE COLIN ,9,45.7749949,4.8741235,16,151,1134,2.6463396713000638
708,H RUE COLIN,  9 H RUE COLIN ,8,45.7749949,4.8741235,16,151,1134,2.352301930044501
709,A RUE COLIN,  7 A RUE COLIN ,9,45.7757261,4.8740894,16,151,1134,2.6463396713000638
710,B RUE COLIN,  7 B RUE COLIN ,9,45.7757261,4.8740894,16,151,1134,2.6463396713000638
711,C RUE COLIN,  7 C RUE COLIN ,10,45.7757261,4.8740894,16,151,1134,2.9403774125556263
712,D RUE COLIN,  7 D RUE COLIN ,10,45.7757261,4.8740894,16,151,1134,2.9403774125556263
713,RUE RUE PAUL CAMBON,11 RUE RUE PAUL CAMBON ,22,45.7755416,4.8731712,23,149,1198,6.316830007653331
714,RUE RUE PAUL CAMBON,9 RUE RUE PAUL CAMBON ,17,45.7757173,4.8731807,23,149,1198,4.881186824095756
715,AVENUE ROGER SALENGRO,  26 AVENUE ROGER SALENGRO ,22,45.7754458,4.8702589,25,163,1241,6.725217834056852
716,AVENUE ROGER SALENGRO,  25 AVENUE ROGER SALENGRO ,133,45.7755194,4.8698353,24,169,1165,40.99368450984456
717,AVENUE ROGER SALENGRO,  28 AVENUE ROGER SALENGRO ,17,45.7755258,4.8703774,25,163,1241,5.1967592354075665
718,AVENUE ROGER SALENGRO,  52 AVENUE ROGER SALENGRO ,10,45.7762625,4.8726602,23,149,1198,2.8712863671151503
719,AVENUE ROGER SALENGRO,  127 AVENUE ROGER SALENGRO ,28,45.7789159,4.880259,16,151,1134,8.233056755155754
720,AVENUE ROGER SALENGRO,"  135, AVENUE ROGER SALENGRO ",28,45.7792714,4.880925,16,151,1134,8.233056755155754
721,AVENUE ROGER SALENGRO,"  133BIS, AVENUE ROGER SALENGRO ",1,45.779331,4.8808084,16,151,1134,0.29403774125556265
722,AVENUE ROGER SALENGRO,"  137, AVENUE ROGER SALENGRO ",1,45.7794909,4.8808816,16,151,1134,0.29403774125556265
723,AVENUE ROGER SALENGRO,  181A AVENUE ROGER SALENGRO ,6,45.7820316,4.8855414,19,106,1035,1.29496757530229
724,AVENUE ROGER SALENGRO,  181B AVENUE ROGER SALENGRO ,8,45.7820316,4.8855414,19,106,1035,1.7266234337363866
725,AVENUE ROGER SALENGRO,  181C AVENUE ROGER SALENGRO ,9,45.7820316,4.8855414,19,106,1035,1.9424513629534348
726,AVENUE ROGER SALENGRO,  200 AVENUE ROGER SALENGRO ,22,45.7820471,4.8883582,18,182,1114,7.305575447755173
727,AVENUE ROGER SALENGRO,  183A AVENUE ROGER SALENGRO ,7,45.7822281,4.8856635,19,106,1035,1.5107955045193384
728,AVENUE ROGER SALENGRO,  183B AVENUE ROGER SALENGRO ,5,45.7822281,4.8856635,19,106,1035,1.0791396460852416
729,AVENUE ROGER SALENGRO,209 AVENUE ROGER SALENGRO ,6,45.7822721,4.8883987,18,182,1114,1.9924296675695925
730,AVENUE ROGER SALENGRO,  185A AVENUE ROGER SALENGRO ,8,45.7824461,4.8856684,19,106,1035,1.7266234337363866
731,AVENUE ROGER SALENGRO,  185B AVENUE ROGER SALENGRO ,8,45.7824461,4.8856684,19,106,1035,1.7266234337363866
732,AVENUE ROGER SALENGRO,  187A AVENUE ROGER SALENGRO ,9,45.7826176,4.8856725,19,106,1035,1.9424513629534348
733,AVENUE ROGER SALENGRO,  187B AVENUE ROGER SALENGRO ,8,45.7826176,4.8856725,19,106,1035,1.7266234337363866
734,AVENUE ROGER SALENGRO,  187C AVENUE ROGER SALENGRO ,7,45.7826176,4.8856725,19,106,1035,1.5107955045193384
735,AV ROGER SALENGRO,48 AV ROGER SALENGRO ,13,45.7762264,4.8723989,23,149,1198,3.732672277249695
736,AV ROGER SALENGRO,214 AV ROGER SALENGRO ,17,45.7824372,4.8899995,18,182,1114,5.645217391447179
737,AVENUE SALENGRO,  45 AVENUE SALENGRO ,31,45.7764892,4.8728429,25,163,1241,9.476443311625564
738,RUE SPREAFICO,  24 RUE SPREAFICO ,18,45.7766471,4.8729332,25,163,1241,5.502450955137424
739,RUE RUE DE BRUXELLES,50 RUE RUE DE BRUXELLES ,15,45.7771273,4.8724398,25,163,1241,4.585375795947853
740,RUE LEON FABRE,4 RUE LEON FABRE ,10,45.7789894,4.872696,25,163,1241,3.056917197298569
741,RUE L?ON FABRE,6 RUE L?ON FABRE ,9,45.7788065,4.8734609,25,163,1241,2.751225477568712
742,AVENUE AVENUE ALBERT EINSTEIN,7 AVENUE AVENUE ALBERT EINSTEIN ,205,45.7810119,4.877338,21,141,1188,54.84135679461529
743,AVENUE AVENUE ALBERT EINSTEIN,3 AVENUE AVENUE ALBERT EINSTEIN ,1,45.7811014,4.8762295,21,141,1188,0.2675188136322697
744,AVENUE AVENUE ALBERT EINSTEIN,3 AVENUE AVENUE ALBERT EINSTEIN ,235,45.7811014,4.8762295,21,141,1188,62.86692120358337
745,AVENUE AVENUE ALBERT EINSTEIN,3 AVENUE AVENUE ALBERT EINSTEIN ,166,45.7811014,4.8762295,21,141,1188,44.40812306295677
746,AVENUE AVENUE ALBERT EINSTEIN,3 AVENUE AVENUE ALBERT EINSTEIN ,151,45.7811014,4.8762295,21,141,1188,40.39534085847272
747,AVENUE AVENUE ALBERT EINSTEIN,3 AVENUE AVENUE ALBERT EINSTEIN ,223,45.7811014,4.8762295,21,141,1188,59.656695439996135
748,AVENUE AVENUE ALBERT EINSTEIN,3 AVENUE AVENUE ALBERT EINSTEIN ,185,45.7811014,4.8762295,21,141,1188,49.49098052196989
749,AVENUE AVENUE ALBERT EINSTEIN,3 AVENUE AVENUE ALBERT EINSTEIN ,184,45.7811014,4.8762295,21,141,1188,49.22346170833762
750,AVENUE AVENUE EINSTEIN,3 AVENUE AVENUE EINSTEIN ,128,45.7811014,4.8762295,21,141,1188,34.24240814493052
751,AVENUE ALBERT EINSTEIN,5  AVENUE ALBERT EINSTEIN ,162,45.7817598,4.8775411,21,141,1188,43.33804780842769
752,AVENUE ALBERT EINSTEIN,"  20, AVENUE ALBERT EINSTEIN ",105,45.7825654,4.8782759,20,157,1197,28.91898933494964
753,AVENUE ALBERT EINSTEIN,  31 AVENUE ALBERT EINSTEIN ,10,45.7839503,4.8853251,19,106,1035,2.158279292170483
754,AV ALBERT EINSTEIN,  20 AV ALBERT EINSTEIN ,22,45.7825654,4.8782759,20,157,1197,6.059216813037067
755,RUE ANTONINS,17 RUE ANTONINS ,1,45.7811886,4.8787336,21,141,1188,0.2675188136322697
756,IMPASSE DES TILLEULS,  15 IMPASSE DES TILLEULS ,7,45.7799891,4.8801783,20,157,1197,1.927932622329976
757,IMPASSE DES TILLEULS,  14 IMPASSE DES TILLEULS ,10,45.7805926,4.8796999,20,157,1197,2.754189460471394
758,RUE COURTELINE,  47 RUE COURTELINE ,12,45.7794817,4.8795432,20,157,1197,3.305027352565673
759,RUE COURTELINE,  47 RUE COURTELINE ,2,45.7794817,4.8795432,20,157,1197,0.5508378920942788
760,RUE COURTELINE,  55 RUE COURTELINE ,12,45.7797342,4.8805018,20,157,1197,3.305027352565673
761,RUE COURTELINE,  57 RUE COURTELINE ,10,45.7797542,4.880814,20,157,1197,2.754189460471394
762,RUE COURTELINE,  59 RUE COURTELINE ,10,45.7797588,4.8809197,20,157,1197,2.754189460471394
763,RUE GEORGES COURTELINE,  23 RUE GEORGES COURTELINE ,4,45.7783553,4.8775211,21,141,1188,1.0700752545290788
764,RUE GEORGES COURTELINE,  40 RUE GEORGES COURTELINE ,30,45.7790033,4.8789038,16,151,1134,8.82113223766688
765,RUE GEORGES COURTELINE,"  60, RUE GEORGES COURTELINE ",20,45.7796429,4.8807381,16,151,1134,5.880754825111253
766,AVENUE AVENUE ROGER SALENGRO,16 AVENUE AVENUE ROGER SALENGRO ,15,45.7748258,4.8693712,24,169,1165,4.623347877050138
767,AVENUE AVENUE ROGER SALENGRO,18 AVENUE AVENUE ROGER SALENGRO ,2,45.7748804,4.8694907,24,169,1165,0.6164463836066851
768,AVENUE AVENUE ROGER SALENGRO,17 AVENUE AVENUE ROGER SALENGRO ,1,45.7751061,4.8694166,24,169,1165,0.30822319180334257
769,AVENUE AVENUE ROGER SALENGRO,29 AVENUE AVENUE ROGER SALENGRO ,24,45.7757521,4.8702867,24,169,1165,7.397356603280221
770,AVENUE AVENUE ROGER SALENGRO,35 AVENUE AVENUE ROGER SALENGRO ,21,45.7758644,4.8704745,24,169,1165,6.472687027870194
771,AVENUE AVENUE ROGER SALENGRO,87 AVENUE AVENUE ROGER SALENGRO ,8,45.7774015,4.8774038,16,151,1134,2.352301930044501
772,AVENUE AVENUE ROGER SALENGRO,118 AVENUE AVENUE ROGER SALENGRO ,44,45.7788085,4.8804774,16,151,1134,12.937660615244756
773,RUE DES ANTONINS,"  43, RUE DES ANTONINS ",9,45.7795834,4.879172,21,141,1188,2.407669322690427
774,RUE DES ANTONINS,"  43, RUE DES ANTONINS ",1,45.7795834,4.879172,21,141,1188,0.2675188136322697
775,RUE DES ANTONINS,  39 RUE DES ANTONINS ,30,45.7798831,4.8791005,21,141,1188,8.02556440896809
776,RUE DES ANTONINS,  37BIS RUE DES ANTONINS ,1,45.7799181,4.8792762,21,141,1188,0.2675188136322697
777,RUE MARCEL DUTARTRE,  27 RUE MARCEL DUTARTRE ,6,45.779721,4.8783181,21,141,1188,1.605112881793618
778,AV. ROGER SALENGRO,  104 AV. ROGER SALENGRO ,1,45.7781547,4.8792315,16,151,1134,0.29403774125556265
779,RUE EDOUARD VAILLANT,  51 RUE EDOUARD VAILLANT ,18,45.7749947,4.8803817,15,141,1159,4.359029273376188
780,RUE EDOUARD VAILLANT,  9 RUE EDOUARD VAILLANT ,5,45.7778206,4.879663,16,151,1134,1.4701887062778132
781,RUE DE LA FILATURE,  35 RUE DE LA FILATURE ,19,45.7777485,4.8809199,16,151,1134,5.58671708385569
782,RUE DE LA FILATURE,55 RUE DE LA FILATURE ,13,45.7781861,4.882837,17,120,1035,3.142708440252517
783,RUE DES ALLIES,37 RUE DES ALLIES ,7,45.776703,4.8818609,17,120,1035,1.6922276216744323
784,RUE DES ALLIES,  15 RUE DES ALLIES ,1,45.7780581,4.8815158,16,151,1134,0.29403774125556265
785,RUE HENRI,6 RUE HENRI ,8,45.7789194,4.8819892,16,151,1134,2.352301930044501
786,RUE HENRI,  7 RUE HENRI ,1,45.7790022,4.8821133,19,106,1035,0.21582792921704833
787,RUE HENRI,  7 RUE HENRI ,1,45.7790022,4.8821133,19,106,1035,0.21582792921704833
788,RUE HENRI,  7 RUE HENRI ,1,45.7790022,4.8821133,19,106,1035,0.21582792921704833
789,RUE HENRI,  7 RUE HENRI ,1,45.7790022,4.8821133,19,106,1035,0.21582792921704833
790,RUE HENRI,  7 RUE HENRI ,1,45.7790022,4.8821133,19,106,1035,0.21582792921704833
791,RUE HENRI,  7 RUE HENRI ,1,45.7790022,4.8821133,19,106,1035,0.21582792921704833
792,RUE HENRI,  7 RUE HENRI ,15,45.7790022,4.8821133,19,106,1035,3.237418938255725
793,RUE HENRI,  5 RUE HENRI ,1,45.7791032,4.8820985,19,106,1035,0.21582792921704833
794,RUE HENRI,  5 RUE HENRI ,1,45.7791032,4.8820985,19,106,1035,0.21582792921704833
795,RUE HENRI,  5 RUE HENRI ,1,45.7791032,4.8820985,19,106,1035,0.21582792921704833
796,RUE HENRI,  5 RUE HENRI ,9,45.7791032,4.8820985,19,106,1035,1.9424513629534348
797,RUE GEORGES CL?MENCEAU,5 RUE GEORGES CL?MENCEAU ,8,45.7771526,4.8827181,17,120,1035,1.9339744247707795
798,RUE RUE DES FONTANIERES,17 RUE RUE DES FONTANIERES ,11,45.7767727,4.8830852,17,120,1035,2.659214834059822
799,RUE RUE DES FONTANIERES,15 RUE RUE DES FONTANIERES ,12,45.7768667,4.8830096,17,120,1035,2.9009616371561697
800,"D, RUE DE FONTANNI?RES","  21 D, RUE DE FONTANNI?RES ",4,45.7764234,4.8835811,17,120,1035,0.9669872123853898
801,RUE DE FONTANI?RES,  21 RUE DE FONTANI?RES ,24,45.7764234,4.8835811,17,120,1035,5.8019232743123395
802,RUE RUE DES BIENVENUS,94 RUE RUE DES BIENVENUS ,2,45.7726355,4.884921,13,108,1056,0.3855889021876519
803,RUE RUE DES BIENVENUS,20 RUE RUE DES BIENVENUS ,13,45.7769053,4.8840433,17,120,1035,3.142708440252517
804,RUE RUE DES BIENVENUS,18 RUE RUE DES BIENVENUS ,13,45.7770011,4.8840234,17,120,1035,3.142708440252517
805,RUE DES BIENVENUS,  62 RUE DES BIENVENUS ,47,45.7746579,4.8844802,13,108,1056,9.06133920140982
806,RUE DES BIENVENUS,  9 RUE DES BIENVENUS ,14,45.7773266,4.8841143,17,120,1035,3.3844552433488646
807,IMPASSE FRAN?OIS CHANTEUR,  1 IMPASSE FRAN?OIS CHANTEUR ,14,45.7775848,4.8851964,7,164,1109,3.495783354859573
808,RUE RUE ARMAND,13 RUE RUE ARMAND ,10,45.7789767,4.8853588,19,106,1035,2.158279292170483
809,RUE RUE ARMAND,15 RUE RUE ARMAND ,10,45.7790333,4.8855255,19,106,1035,2.158279292170483
810,RUE RUE ARMAND,17 RUE RUE ARMAND ,10,45.7791202,4.8857717,19,106,1035,2.158279292170483
811,RUE RUE ARMAND,19 RUE RUE ARMAND ,10,45.7791941,4.8859879,19,106,1035,2.158279292170483
812,RUE RUE ARMAND,21 RUE RUE ARMAND ,10,45.779451,4.886137,19,106,1035,2.158279292170483
813,RUE RUE ARMAND,23 RUE RUE ARMAND ,10,45.7795419,4.8864079,19,106,1035,2.158279292170483
814,RUE RUE EMILE DUNIERE,17 RUE RUE EMILE DUNIERE ,10,45.7790097,4.8851604,19,106,1035,2.158279292170483
815,RUE RUE EMILE DUNIERE,15 RUE RUE EMILE DUNIERE ,10,45.7792311,4.8850083,19,106,1035,2.158279292170483
816,AVENUE ROGER SALENGRO RESID.P.JEAN DE BERANGER,155  AVENUE ROGER SALENGRO RESID.P.JEAN DE BERANGER ,13,45.780331,4.882847,20,157,1197,3.5804462986128125
817,PLACE DE CROIX LUIZET RESID. P.JEAN DE BERANGER,5  PLACE DE CROIX LUIZET RESID. P.JEAN DE BERANGER ,21,45.7805161,4.8829319,20,157,1197,5.783797866989928
818,PLACE DE CROIX LUIZET RESID. P.JEAN DE BERANGER,4  PLACE DE CROIX LUIZET RESID. P.JEAN DE BERANGER ,42,45.7806395,4.8827662,20,157,1197,11.567595733979855
819,RUE DE L'ESPOIR,  15 RUE DE L'ESPOIR ,7,45.7821741,4.8823524,20,157,1197,1.927932622329976
820,RUE DE L'ESPOIR,  33 RUE DE L'ESPOIR ,1,45.7822965,4.8818185,20,157,1197,0.2754189460471394
821,RUE DE L'ESPOIR,  31 RUE DE L'ESPOIR ,1,45.7823127,4.8818744,20,157,1197,0.2754189460471394
822,RUE DE L'ESPOIR,  17 RUE DE L'ESPOIR ,1,45.7823424,4.8823569,20,157,1197,0.2754189460471394
823,RUE DE L'ESPOIR,  27 RUE DE L'ESPOIR ,1,45.7823428,4.8820093,20,157,1197,0.2754189460471394
824,RUE DE L'ESPOIR,  29 RUE DE L'ESPOIR ,1,45.7823559,4.8820593,20,157,1197,0.2754189460471394
825,RUE DE L'ESPOIR,  25 RUE DE L'ESPOIR ,1,45.7823587,4.8820845,20,157,1197,0.2754189460471394
826,RUE DE L'ESPOIR,  23 RUE DE L'ESPOIR ,1,45.7823747,4.8821533,20,157,1197,0.2754189460471394
827,RUE DE L'ESPOIR,  21 RUE DE L'ESPOIR ,1,45.7823897,4.8822233,20,157,1197,0.2754189460471394
828,RUE DE L'ESPOIR,  19 RUE DE L'ESPOIR ,1,45.7824039,4.8822895,20,157,1197,0.2754189460471394
829,RUE JEAN BAPTISTE CLEMENT,  27 RUE JEAN BAPTISTE CLEMENT ,5,45.7815168,4.8813976,20,157,1197,1.377094730235697
830,RUE JEAN-BAPTISTE CLEMENT,  17-19 RUE JEAN-BAPTISTE CLEMENT ,2,45.7818082,4.8807449,20,157,1197,0.5508378920942788
831,RUE VIRET,  37 RUE VIRET ,25,45.7722261,4.8756537,35,136,1166,7.520375735579687
832,RUE VIRET,  1 RUE VIRET ,6,45.7746068,4.8755994,35,136,1166,1.804890176539125
833,RUE RUE HIPPOLYTE KAHN,8 RUE RUE HIPPOLYTE KAHN ,10,45.7715531,4.8751765,35,136,1166,3.0081502942318754
834,RUE RUE HIPPOLYTE KAHN,8 RUE RUE HIPPOLYTE KAHN ,5,45.7715531,4.8751765,35,136,1166,1.5040751471159377
835,INCONNUE COURS EMILE ZOLA,123 INCONNUE COURS EMILE ZOLA ,26,45.7704488,4.8750211,35,136,1166,7.821190765002875
836,INCONNUE COURS EMILE ZOLA,121 INCONNUE COURS EMILE ZOLA ,18,45.7704821,4.8747978,35,136,1166,5.414670529617375
837,RUE RUE DEDIEU,41 RUE RUE DEDIEU ,10,45.7695012,4.8663251,33,169,1356,2.2774970527390024
838,RUE RUE DEDIEU,43 RUE RUE DEDIEU ,12,45.7695021,4.8664333,33,169,1356,2.7329964632868022
839,RUE RUE DEDIEU,45 RUE RUE DEDIEU ,12,45.7695314,4.8670559,33,169,1356,2.7329964632868022
840,RUE RUE DEDIEU,124 RUE RUE DEDIEU ,9,45.7696786,4.8745273,39,179,1490,2.0817617303036733
841,A RUE RUE SONGIEU,18 A RUE RUE SONGIEU ,1,45.7685668,4.8747179,39,179,1490,0.23130685892263034
842,B RUE RUE SONGIEU,18 B RUE RUE SONGIEU ,1,45.7685668,4.8747179,39,179,1490,0.23130685892263034
843,C RUE RUE SONGIEU,18 C RUE RUE SONGIEU ,13,45.7685668,4.8747179,39,179,1490,3.0069891659941947
844,D RUE RUE SONGIEU,18 D RUE RUE SONGIEU ,1,45.7685668,4.8747179,39,179,1490,0.23130685892263034
845,E RUE RUE SONGIEU,18 E RUE RUE SONGIEU ,8,45.7685668,4.8747179,39,179,1490,1.8504548713810427
846,F RUE RUE SONGIEU,18 F RUE RUE SONGIEU ,8,45.7685668,4.8747179,39,179,1490,1.8504548713810427
847,G RUE RUE SONGIEU,18 G RUE RUE SONGIEU ,8,45.7685668,4.8747179,39,179,1490,1.8504548713810427
848,H RUE RUE SONGIEU,18 H RUE RUE SONGIEU ,11,45.7685668,4.8747179,39,179,1490,2.544375448148934
849,COURS COURS DE LA REPUBLIQUE,43 COURS COURS DE LA REPUBLIQUE ,21,45.7681415,4.8740095,39,179,1490,4.857444037375237
850,COURS COURS DE LA REPUBLIQUE,32 COURS COURS DE LA REPUBLIQUE ,45,45.7682794,4.8737397,39,179,1490,10.408808651518365
851,B COURS COURS DE LA REPUBLIQUE,45 B COURS COURS DE LA REPUBLIQUE ,24,45.7678609,4.8740249,39,179,1490,5.551364614143129
852,RUE RUE MANSARD,23 RUE RUE MANSARD ,8,45.7683246,4.8728609,39,179,1490,1.8504548713810427
853,RUE MANSARD,"  29, RUE MANSARD ",1,45.7680602,4.8728906,39,179,1490,0.23130685892263034
854,RUE LOUIS BECKER,57  RUE LOUIS BECKER ,21,45.7652797,4.8694077,38,151,1413,4.111291239096035
855,RUE LOUIS BECKER,59  RUE LOUIS BECKER ,43,45.7652834,4.8696742,38,151,1413,8.418358251482356
856,RUE LOUIS BECKER,  99 RUE LOUIS BECKER ,18,45.7653259,4.874332,40,118,1169,3.2137344654365485
857,RUE LOUIS BECKER,  101 RUE LOUIS BECKER ,17,45.7653292,4.8746217,40,118,1169,3.035193661801184
858,RUE LOUIS BECKER,  103 RUE LOUIS BECKER ,18,45.7653315,4.8749718,40,118,1169,3.2137344654365485
859,RUE LOUIS BECKER,145  RUE LOUIS BECKER ,26,45.7653671,4.878785,42,139,1044,-2.2531484523018777
860,RUE H. KAHN BAT B,  67 RUE H. KAHN BAT B ,3,45.7670193,4.8762139,43,75,1080,0.40423435872459834
861,RUE H. KAHN BAT C,  67 RUE H. KAHN BAT C ,4,45.7670193,4.8762139,43,75,1080,0.5389791449661311
862,RUE HIPPOLYTE KAHN,67  RUE HIPPOLYTE KAHN ,4,45.7670193,4.8762139,43,75,1080,0.5389791449661311
863,RUE HIPPOLYTE KAHN,68 RUE HIPPOLYTE KAHN ,2,45.7678203,4.8757255,36,114,916,0.4872554985817586
864,ESPLANADE AGNES VARDA,  10 ESPLANADE AGNES VARDA ,33,45.7706138,4.8774974,36,114,916,8.039715726599017
865,AVENUE HENRI BARBUSSE,41  AVENUE HENRI BARBUSSE ,47,45.7671697,4.8797485,42,139,1044,-4.072999125314933
866,AVENUE HENRI BARBUSSE,41  AVENUE HENRI BARBUSSE ,1,45.7671697,4.8797485,42,139,1044,-0.08665955585776451
867,AVENUE HENRI BARBUSSE,40  AVENUE HENRI BARBUSSE ,46,45.7672433,4.8793817,42,139,1044,-3.9863395694571677
868,AVENUE HENRI BARBUSSE,37  AVENUE HENRI BARBUSSE ,44,45.7673392,4.8797389,42,139,1044,-3.8130204577416382
869,AVENUE HENRI BARBUSSE,36  AVENUE HENRI BARBUSSE ,49,45.7674146,4.8793733,42,139,1044,-4.2463182370304615
870,AVENUE HENRI BARBUSSE,33  AVENUE HENRI BARBUSSE ,46,45.7675249,4.8797285,42,139,1044,-3.9863395694571677
871,AVENUE HENRI BARBUSSE,32  AVENUE HENRI BARBUSSE ,51,45.7676112,4.879362,42,139,1044,-4.41963734874599
872,AVENUE HENRI BARBUSSE,29  AVENUE HENRI BARBUSSE ,50,45.767716,4.8797169,42,139,1044,-4.332977792888226
873,AVENUE HENRI BARBUSSE,28  AVENUE HENRI BARBUSSE ,48,45.7677978,4.8793516,42,139,1044,-4.159658681172697
874,AVENUE HENRI BARBUSSE,28  AVENUE HENRI BARBUSSE ,1,45.7677978,4.8793516,42,139,1044,-0.08665955585776451
875,AVENUE HENRI BARBUSSE,25  AVENUE HENRI BARBUSSE ,48,45.7678973,4.8797064,42,139,1044,-4.159658681172697
876,AVENUE HENRI BARBUSSE,22  AVENUE HENRI BARBUSSE ,45,45.7683486,4.8793215,45,118,926,11.84173361397427
877,AVENUE HENRI BARBUSSE,22  AVENUE HENRI BARBUSSE ,2,45.7683486,4.8793215,45,118,926,0.5262992717321898
878,AVENUE HENRI BARBUSSE,15  AVENUE HENRI BARBUSSE ,78,45.7685238,4.8796775,45,118,926,20.5256715975554
879,AVENUE HENRI BARBUSSE,15  AVENUE HENRI BARBUSSE ,1,45.7685238,4.8796775,45,118,926,0.2631496358660949
880,AVENUE HENRI BARBUSSE,18  AVENUE HENRI BARBUSSE ,18,45.7685389,4.8793073,45,118,926,4.736693445589708
881,AVENUE HENRI BARBUSSE,14  AVENUE HENRI BARBUSSE ,17,45.7687229,4.8792943,45,118,926,4.473543809723614
882,AVENUE HENRI BARBUSSE,11  AVENUE HENRI BARBUSSE ,20,45.7687258,4.8796586,45,118,926,5.262992717321898
883,AVENUE HENRI BARBUSSE,6  AVENUE HENRI BARBUSSE ,38,45.7687749,4.8791954,45,118,926,9.999686162911607
884,AVENUE HENRI BARBUSSE,10  AVENUE HENRI BARBUSSE ,14,45.7688896,4.8792922,45,118,926,3.684094902125329
885,AVENUE HENRI BARBUSSE,7  AVENUE HENRI BARBUSSE ,21,45.7689206,4.8796472,45,118,926,5.526142353187993
886,AVENUE HENRI BARBUSSE,3  AVENUE HENRI BARBUSSE ,47,45.7691198,4.879636,45,118,926,12.368032885706462
887,AVENUE ARISTIDE BRIAND,3  AVENUE ARISTIDE BRIAND ,29,45.7669315,4.8799876,42,139,1044,-2.513127119875171
888,RUE PAUL VERLAINE,  68 RUE PAUL VERLAINE ,1,45.7626386,4.8805789,50,135,1278,0.23014541676669523
889,RUE PAUL VERLAINE,  68 RUE PAUL VERLAINE ,8,45.7626386,4.8805789,50,135,1278,1.8411633341335618
890,RUE PAUL VERLAINE,  53 RUE PAUL VERLAINE ,14,45.7652955,4.8804312,46,150,1197,4.40961188912729
891,RUE PAUL VERLAINE,  19 RUE PAUL VERLAINE ,25,45.7681148,4.8804371,46,150,1197,7.87430694487016
892,RUE PAUL VERLAINE,  12 RUE PAUL VERLAINE ,14,45.7686777,4.8801152,45,118,926,3.684094902125329
893,RUE PAUL VERLAINE,10  RUE PAUL VERLAINE ,14,45.7688019,4.8801194,45,118,926,3.684094902125329
894,RUE PAUL VERLAINE,4 RUE PAUL VERLAINE ,1,45.7691485,4.8801299,45,118,926,0.2631496358660949
895,ET 3 RUE CLEMENT MICHUT,  1 ET 3 RUE CLEMENT MICHUT ,20,45.7682984,4.8816854,46,150,1197,6.299445555896129
896,ET 7 RUE CLEMENT MICHUT,  5 ET 7 RUE CLEMENT MICHUT ,20,45.7681429,4.8816646,46,150,1197,6.299445555896129
897,RUE CLEMENT MICHUT,"  33, RUE CLEMENT MICHUT ",22,45.7663624,4.8814341,49,144,1237,0.5233875584552097
898,RUE CLEMENT MICHUT,"  29, RUE CLEMENT MICHUT ",11,45.7666069,4.8814656,49,144,1237,0.26169377922760484
899,RUE CLEMENT MICHUT,  26 RUE CLEMENT MICHUT ,17,45.7668539,4.8813427,46,150,1197,5.354528722511709
900,RUE CLEMENT MICHUT,  22 RUE CLEMENT MICHUT ,16,45.7671119,4.8813747,46,150,1197,5.039556444716903
901,RUE CLEMENT MICHUT,  22 RUE CLEMENT MICHUT ,1,45.7671119,4.8813747,46,150,1197,0.3149722777948064
902,RUE CLEMENT MICHUT,  15 RUE CLEMENT MICHUT ,20,45.7676127,4.8815938,46,150,1197,6.299445555896129
903,RUE CLEMENT MICHUT,  11 RUE CLEMENT MICHUT ,12,45.7678527,4.8816238,46,150,1197,3.7796673335376774
904,RUE CLÉMENT MICHUT,"  34, RUE CLÉMENT MICHUT ",17,45.7663232,4.8812602,46,150,1197,5.354528722511709
905,RUE RUE DU QUATRE-AOUT,65 RUE RUE DU QUATRE-AOUT ,40,45.7648758,4.8806486,50,135,1278,9.20581667066781
906,RUE RUE PAUL VERLAINE,67 RUE RUE PAUL VERLAINE ,22,45.764028,4.8806043,50,135,1278,5.063199168867295
907,RUE DES MURIERS,  4 RUE DES MURIERS ,17,45.7625077,4.8809168,51,135,1194,4.032341586076223
908,RUE CHARLES MONTALAND,1 RUE CHARLES MONTALAND ,21,45.7645921,4.881832,51,135,1194,4.981127841623569
909,R CHARLES MONTALAND,3 R CHARLES MONTALAND ,7,45.7643978,4.8821207,51,135,1194,1.6603759472078563
910,RUE MICHEL SERVET,44  RUE MICHEL SERVET ,46,45.7655652,4.8788999,42,139,1044,-3.9863395694571677
911,RUE MICHEL SERVET,42  RUE MICHEL SERVET ,43,45.7657391,4.8788916,42,139,1044,-3.726360901883874
912,RUE MICHEL SERVET,40  RUE MICHEL SERVET ,45,45.7659276,4.8788775,42,139,1044,-3.8996800135994034
913,RUE MICHEL SERVET,38  RUE MICHEL SERVET ,45,45.7664391,4.8788489,42,139,1044,-3.8996800135994034
914,RUE MICHEL SERVET,36  RUE MICHEL SERVET ,45,45.7666083,4.878844,42,139,1044,-3.8996800135994034
915,RUE MICHEL SERVET,34  RUE MICHEL SERVET ,45,45.7667687,4.8788391,42,139,1044,-3.8996800135994034
916,RUE MICHEL SERVET,34  RUE MICHEL SERVET ,1,45.7667687,4.8788391,42,139,1044,-0.08665955585776451
917,RUE MICHEL SERVET,32  RUE MICHEL SERVET ,42,45.7669382,4.8788295,42,139,1044,-3.6397013460261096
918,RUE MICHEL SERVET,32  RUE MICHEL SERVET ,1,45.7669382,4.8788295,42,139,1044,-0.08665955585776451
919,RUE MICHEL SERVET,  30 RUE MICHEL SERVET ,12,45.7673483,4.8788099,42,139,1044,-1.0399146702931743
920,RUE MICHEL SERVET,  28 RUE MICHEL SERVET ,17,45.7674538,4.8788045,42,139,1044,-1.473212449581997
921,RUE MICHEL SERVET,  26 RUE MICHEL SERVET ,1,45.7675999,4.8787966,42,139,1044,-0.08665955585776451
922,RUE MICHEL SERVET,  24 RUE MICHEL SERVET ,17,45.7677486,4.8787901,42,139,1044,-1.473212449581997
923,RUE MICHEL SERVET,  22 RUE MICHEL SERVET ,10,45.7678505,4.8787845,42,139,1044,-0.8665955585776451
924,RUE SULLY PRUDHOMME,6  RUE SULLY PRUDHOMME ,34,45.766133,4.8787171,42,139,1044,-2.946424899163994
925,RUE SULLY PRUDHOMME,5  RUE SULLY PRUDHOMME ,27,45.7662314,4.8787025,42,139,1044,-2.339808008159642
926,RUE MALHERBE,6  RUE MALHERBE ,35,45.7671381,4.8786664,42,139,1044,-3.033084455021758
927,RUE MALHERBE,6  RUE MALHERBE ,1,45.7671381,4.8786664,42,139,1044,-0.08665955585776451
928,RUE MALHERBE,6  RUE MALHERBE ,1,45.7671381,4.8786664,42,139,1044,-0.08665955585776451
929,RUE JEAN BOURGEY,"  31, RUE JEAN BOURGEY ",4,45.7696768,4.8803744,14,96,1035,0.7988875785096541
930,RUE JEAN BOURGEY,  28 RUE JEAN BOURGEY ,1,45.7700935,4.8802856,14,96,1035,0.19972189462741352
931,RUE JEAN BOURGEY,28 RUE JEAN BOURGEY ,1,45.7700935,4.8802856,14,96,1035,0.19972189462741352
932,RUE RUE FRANCIS DE PRESSENSE,182 RUE RUE FRANCIS DE PRESSENSE ,1,45.7709153,4.8854492,12,143,1156,0.26058324699040314
933,RUE RUE FRANCIS DE PRESSENSE,147 RUE RUE FRANCIS DE PRESSENSE ,4,45.7716373,4.8817476,14,96,1035,0.7988875785096541
934,RUE RUE FRANCIS DE PRESSENSE,145 RUE RUE FRANCIS DE PRESSENSE ,8,45.7718898,4.8816223,14,96,1035,1.5977751570193082
935,RUE RUE EDOUARD VAILLANT,82 RUE RUE EDOUARD VAILLANT ,9,45.7727471,4.8807737,14,96,1035,1.7974970516467215
936,RUE RUE ROBERT DESNOS,1 RUE RUE ROBERT DESNOS ,14,45.772634,4.8803193,14,96,1035,2.7961065247837893
937,RUE GEOFFRAY,14 RUE GEOFFRAY ,27,45.774058,4.8819446,15,141,1159,6.5385439100642815
938,RUE COLONEL KLOBB,  8 RUE COLONEL KLOBB ,4,45.7746435,4.8812939,15,141,1159,0.9686731718613751
939,RUE ALEXIS PERRONCEL,104 RUE ALEXIS PERRONCEL ,16,45.7754678,4.8811263,15,141,1159,3.8746926874455005
940,RUE ALEXIS PERRONCEL,"  106, RUE ALEXIS PERRONCEL ",17,45.7755131,4.8813261,15,141,1159,4.116860980410845
941,RUE ALEXIS PERRONCEL,"  108, RUE ALEXIS PERRONCEL ",16,45.7755833,4.8816529,15,141,1159,3.8746926874455005
942,RUE ALEXIS PERRONCEL,139A  RUE ALEXIS PERRONCEL ,13,45.7756657,4.8838571,17,120,1035,3.142708440252517
943,RUE ALEXIS PERRONCEL,139B  RUE ALEXIS PERRONCEL ,9,45.7756657,4.8838571,17,120,1035,2.175721227867127
944,RUE ALEXIS PERRONCEL,139C  RUE ALEXIS PERRONCEL ,5,45.7756657,4.8838571,17,120,1035,1.2087340154817372
945,RUE ALEXIS PERRONCEL,"  110, RUE ALEXIS PERRONCEL ",20,45.7757028,4.8818874,15,141,1159,4.843365859306875
946,RUE ALEXIS PERRONCEL,153 RUE ALEXIS PERRONCEL ,16,45.7761619,4.8847737,8,175,1214,4.627050426721396
947,RUE DES ALLI?S,48 RUE DES ALLI?S ,10,45.7759667,4.8818873,17,120,1035,2.4174680309634744
948,RUE FONTANIERE,31  RUE FONTANIERE ,4,45.7757011,4.8833934,17,120,1035,0.9669872123853898
949,IMPASSE FONTANIERES,  21 IMPASSE FONTANIERES ,18,45.7737831,4.8841132,13,108,1056,3.4703001196888676
950,RUE DES FONTANI?RES,77 RUE DES FONTANI?RES ,8,45.7729163,4.8840231,13,108,1056,1.5423556087506076
951,RUE DES FONTANI?RES,75 RUE DES FONTANI?RES ,6,45.7730257,4.8839985,13,108,1056,1.1567667065629559
952,RUE DES FONTANIERES,  89 RUE DES FONTANIERES ,10,45.7723204,4.8841598,13,108,1056,1.9279445109382596
953,RUE DES FONTANIERES,  87 RUE DES FONTANIERES ,7,45.7724262,4.8841351,13,108,1056,1.3495611576567816
954,RUE FRANCIS DE PRESSENSÉ,  183A RUE FRANCIS DE PRESSENSÉ ,12,45.7712956,4.8859243,13,108,1056,2.3135334131259118
955,RUE FRANCIS DE PRESSENSÉ,  183B RUE FRANCIS DE PRESSENSÉ ,11,45.7712956,4.8859243,13,108,1056,2.120738962032086
956,RUE FRANCIS DE PRESSENS?,  189 RUE FRANCIS DE PRESSENS? ,8,45.7712865,4.8867876,9,117,1126,1.9016681766738046
957,RUE FRANCIS DE PRESSENS?,  191 RUE FRANCIS DE PRESSENS? ,2,45.7713364,4.8868429,9,117,1126,0.47541704416845115
958,RUE FRANCIS DE PRESSENS?,"  3, RUE FRANCIS DE PRESSENS? ",7,45.7728251,4.8667463,30,189,1146,2.514059875313121
959,RUE ROGER LENOIR,  1 RUE ROGER LENOIR ,11,45.7695938,4.8891148,12,143,1156,2.866415716894435
960,RUE FLACHET,"  30, RUE FLACHET ",18,45.7692016,4.8897329,10,169,1329,5.410620371127298
961,RUE RUE FLACHET,1 RUE RUE FLACHET ,20,45.7714596,4.8901182,10,169,1329,6.011800412363665
962,RUE CHATEAU GAILLARD,  129 RUE CHATEAU GAILLARD ,11,45.77209,4.8898553,9,117,1126,2.6147937429264814
963,RUE PIERRE-JOSEPH PROUDHON,  22 RUE PIERRE-JOSEPH PROUDHON ,20,45.7736603,4.8911833,8,175,1214,5.783813033401745
964,RUE PIERRE-JOSEPH PROUDHON,  24 RUE PIERRE-JOSEPH PROUDHON ,20,45.7737222,4.8915703,8,175,1214,5.783813033401745
965,RUE PIERRE-JOSEPH PROUDHON,  26 RUE PIERRE-JOSEPH PROUDHON ,20,45.7737867,4.8919728,8,175,1214,5.783813033401745
966,RUE PIERRE-JOSEPH PROUDHON,  28 RUE PIERRE-JOSEPH PROUDHON ,20,45.773847,4.8923508,8,175,1214,5.783813033401745
967,RUE PIERRE-JOSEPH PROUDHON,  19 RUE PIERRE-JOSEPH PROUDHON ,20,45.7742372,4.892014,8,175,1214,5.783813033401745
968,RUE PIERRE-JOSEPH PROUDHON,  21 RUE PIERRE-JOSEPH PROUDHON ,20,45.7743016,4.8924191,8,175,1214,5.783813033401745
969,RUE PIERRE-JOSEPH PROUDHON,  23 RUE PIERRE-JOSEPH PROUDHON ,20,45.7743676,4.8928358,8,175,1214,5.783813033401745
970,A RUE PIERRE-JOSEPH PROUDHON,  15 A RUE PIERRE-JOSEPH PROUDHON ,10,45.7743828,4.8908658,8,175,1214,2.8919065167008724
971,A RUE PIERRE-JOSEPH PROUDHON,  25 A RUE PIERRE-JOSEPH PROUDHON ,10,45.7748609,4.8926024,8,175,1214,2.8919065167008724
972,A RUE PIERRE-JOSEPH PROUDHON,  17 A RUE PIERRE-JOSEPH PROUDHON ,20,45.7749113,4.8916413,8,175,1214,5.783813033401745
973,B RUE PIERRE-JOSEPH PROUDHON,  15 B RUE PIERRE-JOSEPH PROUDHON ,10,45.7743828,4.8908658,8,175,1214,2.8919065167008724
974,B RUE PIERRE-JOSEPH PROUDHON,  25 B RUE PIERRE-JOSEPH PROUDHON ,10,45.7748609,4.8926024,8,175,1214,2.8919065167008724
975,B RUE PIERRE-JOSEPH PROUDHON,  17 B RUE PIERRE-JOSEPH PROUDHON ,20,45.7749113,4.8916413,8,175,1214,5.783813033401745
976,C RUE PIERRE-JOSEPH PROUDHON,  15 C RUE PIERRE-JOSEPH PROUDHON ,10,45.7743828,4.8908658,8,175,1214,2.8919065167008724
977,C RUE PIERRE-JOSEPH PROUDHON,  25 C RUE PIERRE-JOSEPH PROUDHON ,10,45.7748609,4.8926024,8,175,1214,2.8919065167008724
978,C RUE PIERRE-JOSEPH PROUDHON,  17 C RUE PIERRE-JOSEPH PROUDHON ,20,45.7749113,4.8916413,8,175,1214,5.783813033401745
979,D RUE PIERRE-JOSEPH PROUDHON,  15 D RUE PIERRE-JOSEPH PROUDHON ,10,45.7743828,4.8908658,8,175,1214,2.8919065167008724
980,D RUE PIERRE-JOSEPH PROUDHON,  25 D RUE PIERRE-JOSEPH PROUDHON ,10,45.7748609,4.8926024,8,175,1214,2.8919065167008724
981,D RUE PIERRE-JOSEPH PROUDHON,  17 D RUE PIERRE-JOSEPH PROUDHON ,20,45.7749113,4.8916413,8,175,1214,5.783813033401745
982,RUE DU 8 MAI 1945,  191 RUE DU 8 MAI 1945 ,1,45.769699,4.8965874,3,126,1020,0.2562719499238474
983,RUE DU 8 MAI 1945,  189 RUE DU 8 MAI 1945 ,1,45.769785,4.896562,3,126,1020,0.2562719499238474
984,RUE DU 8 MAI 1945,  104 RUE DU 8 MAI 1945 ,18,45.7744736,4.8933904,5,94,1007,3.5618235966350356
985,RUE DU 8 MAI 1945,  102 RUE DU 8 MAI 1945 ,19,45.7746411,4.8933344,5,94,1007,3.7597026853369817
986,RUE DU 8 MAI 1945,  100 RUE DU 8 MAI 1945 ,15,45.7748431,4.8932679,5,94,1007,2.9681863305291962
987,RUE DU 8 MAI 1945,  98 RUE DU 8 MAI 1945 ,18,45.774998,4.8932179,5,94,1007,3.5618235966350356
988,RUE DU 8 MAI 1945,  96 RUE DU 8 MAI 1945 ,15,45.7751838,4.8931509,5,94,1007,2.9681863305291962
989,RUE DU 8 MAI 1945,  94 RUE DU 8 MAI 1945 ,19,45.7753957,4.8930796,5,94,1007,3.7597026853369817
990,RUE DU 8 MAI 1945,  51 RUE DU 8 MAI 1945 ,10,45.7792068,4.8930019,6,166,1098,3.5838806263035625
991,RUE DU 8 MAI 1945,  53 RUE DU 8 MAI 1945 ,20,45.7792106,4.893452,6,166,1098,7.167761252607125
992,RUE DU 8 MAI 1945,  50 RUE DU 8 MAI 1945 ,6,45.7792329,4.8916818,7,164,1109,1.4981928663683886
993,RUE DU 8 MAI 1945,  55 RUE DU 8 MAI 1945 ,20,45.7792592,4.8938972,6,166,1098,7.167761252607125
994,RUE DU 8 MAI 1945,  57 RUE DU 8 MAI 1945 ,20,45.7793041,4.8943479,6,166,1098,7.167761252607125
995,RUE DU 8 MAI 1945,  49 RUE DU 8 MAI 1945 ,20,45.7796693,4.8931102,6,166,1098,7.167761252607125
996,RUE DU 8 MAI 1945,  47 RUE DU 8 MAI 1945 ,20,45.7797156,4.8935593,6,166,1098,7.167761252607125
997,RUE DU 8 MAI 1945,  44 RUE DU 8 MAI 1945 ,8,45.7797323,4.8915534,7,164,1109,1.9975904884911848
998,RUE DU 8 MAI 1945,  45 RUE DU 8 MAI 1945 ,20,45.7797568,4.8940099,6,166,1098,7.167761252607125
999,RUE DU 8 MAI 1945,  33 RUE DU 8 MAI 1945 ,15,45.7798617,4.8918938,6,166,1098,5.375820939455345
1000,RUE DU 8 MAI 1945,  33 RUE DU 8 MAI 1945 ,1,45.7798617,4.8918938,6,166,1098,0.3583880626303563
1001,RUE DU 8 MAI 1945,  41 RUE DU 8 MAI 1945 ,20,45.780158,4.8930793,6,166,1098,7.167761252607125
1002,RUE DU 8 MAI 1945,  41 RUE DU 8 MAI 1945 ,21,45.780158,4.8930793,6,166,1098,7.526149315237482
1003,RUE DU 8 MAI 1945,  43 RUE DU 8 MAI 1945 ,20,45.7802095,4.8936291,6,166,1098,7.167761252607125
1004,RUE DU 8 MAI 1945,28  RUE DU 8 MAI 1945 ,20,45.7807348,4.8913606,7,164,1109,4.993976221227962
1005,RUE DU 8 MAI 1945,  31 RUE DU 8 MAI 1945 ,15,45.7808502,4.8916335,18,182,1114,4.981074168923981
1006,RUE DU 8 MAI 1945,  29 RUE DU 8 MAI 1945 ,14,45.7810392,4.8915718,18,182,1114,4.649002557662382
1007,RUE DU 8 MAI 1945,  27 RUE DU 8 MAI 1945 ,15,45.7811608,4.8915503,18,182,1114,4.981074168923981
1008,RUE RUE DU 8 MAI 1945,71 RUE RUE DU 8 MAI 1945 ,4,45.7780339,4.8922303,6,166,1098,1.433552250521425
1009,RUE RENE PROLONGEE,"  22, RUE RENE PROLONGEE ",3,45.7785703,4.8940818,6,166,1098,1.075164187891069
1010,RUE RENE PROLONGEE,1 RUE RENE PROLONGEE ,1,45.7786805,4.892982,6,166,1098,0.3583880626303563
1011,RUE RENE PROLONGEE,1 RUE RENE PROLONGEE ,1,45.7786805,4.892982,6,166,1098,0.3583880626303563
1012,CHEMIN DE LA BOUBE,  6  CHEMIN DE LA BOUBE ,20,45.780159,4.8939197,6,166,1098,7.167761252607125
1013,CHEMIN DE LA BOUBE,  8  CHEMIN DE LA BOUBE ,20,45.7806785,4.8932465,7,164,1109,4.993976221227962
1014,RUE DE LA BOUBE,  9  RUE DE LA BOUBE ,14,45.7809298,4.8925509,18,182,1114,4.649002557662382
1015,RUE DE LA BOUBE,  7  RUE DE LA BOUBE ,13,45.7811117,4.8924979,18,182,1114,4.316930946400784
1016,RUE DE LA BOUBE,  1  RUE DE LA BOUBE ,12,45.7812227,4.8918941,18,182,1114,3.984859335139185
1017,RUE DE LA BOUBE,  3  RUE DE LA BOUBE ,13,45.7812711,4.8922356,18,182,1114,4.316930946400784
1018,RUE DE LA BOUBE,  5  RUE DE LA BOUBE ,12,45.7812982,4.8924438,18,182,1114,3.984859335139185
1019,A RUE DU 8 MAI 1945,  39 A RUE DU 8 MAI 1945 ,20,45.7797494,4.892096,6,166,1098,7.167761252607125
1020,A RUE DU 8 MAI 1945,  37 A RUE DU 8 MAI 1945 ,19,45.7799737,4.8920332,6,166,1098,6.809373189976769
1021,A RUE DU 8 MAI 1945,  35 A RUE DU 8 MAI 1945 ,20,45.780179,4.8919262,6,166,1098,7.167761252607125
1022,B RUE DU 8 MAI 1945,  39 B RUE DU 8 MAI 1945 ,20,45.7797494,4.892096,6,166,1098,7.167761252607125
1023,B RUE DU 8 MAI 1945,  37 B RUE DU 8 MAI 1945 ,20,45.7799737,4.8920332,6,166,1098,7.167761252607125
1024,B RUE DU 8 MAI 1945,  35 B RUE DU 8 MAI 1945 ,18,45.780179,4.8919262,6,166,1098,6.450985127346413
1025,RUE PROF EMILE BOUVIER,  11 RUE PROF EMILE BOUVIER ,20,45.7791654,4.8896378,7,164,1109,4.993976221227962
1026,RUE PROF EMILE BOUVIER,  9 RUE PROF EMILE BOUVIER ,20,45.7791893,4.8899308,7,164,1109,4.993976221227962
1027,RUE PROF EMILE BOUVIER,  5/7 RUE PROF EMILE BOUVIER ,20,45.7792395,4.8904822,7,164,1109,4.993976221227962
1028,RUE PROF EMILE BOUVIER,  12 RUE PROF EMILE BOUVIER ,20,45.7792865,4.8896175,7,164,1109,4.993976221227962
1029,RUE PROF EMILE BOUVIER,  10 RUE PROF EMILE BOUVIER ,20,45.7793486,4.8899414,7,164,1109,4.993976221227962
1030,RUE PROF EMILE BOUVIER,  6/8 RUE PROF EMILE BOUVIER ,20,45.7794143,4.8904277,7,164,1109,4.993976221227962
1031,RUE PROF EMILE BOUVIER,  2/4 RUE PROF EMILE BOUVIER ,20,45.779509,4.8912278,7,164,1109,4.993976221227962
1032,IMPASSE DES SOEURS,  10 IMPASSE DES SOEURS ,7,45.7800345,4.8906703,7,164,1109,1.7478916774297866
1033,E-11 RUE FRANCOISE GIROUD,  ALLEE E-11 RUE FRANCOISE GIROUD ,18,45.7818666,4.8898258,18,182,1114,5.977289002708777
1034,RUE DE LA FEYSSINE AL A,  38 RUE DE LA FEYSSINE AL A ,24,45.7832727,4.8895972,18,182,1114,7.96971867027837
1035,RUE DE LA FEYSSINE AL B,  38 RUE DE LA FEYSSINE AL B ,18,45.7832727,4.8895972,18,182,1114,5.977289002708777
1036,RUE DE LA FEYSSINE AL C,  38 RUE DE LA FEYSSINE AL C ,17,45.7832727,4.8895972,18,182,1114,5.645217391447179
1037,RUE DE LA FEYSSINE AL D,  38 RUE DE LA FEYSSINE AL D ,13,45.7832727,4.8895972,18,182,1114,4.316930946400784
1038,RUE DE LA FEYSSINE AL E,  38 RUE DE LA FEYSSINE AL E ,16,45.7832727,4.8895972,18,182,1114,5.31314578018558
1039,B 1 RUE FRANCOISE GIROUD,  ALLEE B 1 RUE FRANCOISE GIROUD ,19,45.782112,4.88891,18,182,1114,6.309360613970377
1040,RUE FRANCOISE GIROUD,  4 RUE FRANCOISE GIROUD ,29,45.7820845,4.8886801,18,182,1114,9.630076726586363
1041,IMP GUILLET,1 IMP GUILLET ,1,45.7819201,4.8867749,18,182,1114,0.33207161126159873
1042,IMP GUILLET,1 IMP GUILLET ,1,45.7819201,4.8867749,18,182,1114,0.33207161126159873
1043,IMP GUILLET,5 IMP GUILLET ,1,45.7819242,4.8867043,18,182,1114,0.33207161126159873
1044,IMP GUILLET,5 IMP GUILLET ,1,45.7819242,4.8867043,18,182,1114,0.33207161126159873
1045,IMP GUILLET,3 IMP GUILLET ,1,45.7819951,4.8867569,18,182,1114,0.33207161126159873
1046,RUE J.P. BREDY,  25 RUE J.P. BREDY ,6,45.7835582,4.8856645,19,106,1035,1.29496757530229
1047,RUE RUE OCTAVIE,60 RUE RUE OCTAVIE ,1,45.7779575,4.8893171,7,164,1109,0.2496988110613981
1048,RUE OCTAVIE,  68 RUE OCTAVIE ,2,45.7773643,4.8896135,8,175,1214,0.5783813033401745
1049,RUE MARCEL SEMBAT,15 RUE MARCEL SEMBAT ,16,45.7774076,4.8907413,7,164,1109,3.9951809769823696
1050,RUE MARCEL SEMBAT,17 RUE MARCEL SEMBAT ,22,45.7774824,4.8911951,7,164,1109,5.493373843350757
1051,RUE DE VERDUN,  102 RUE DE VERDUN ,11,45.7777597,4.8990615,2,162,1079,4.248527213799828
1052,RUE DE VERDUN,  100 RUE DE VERDUN ,14,45.777955,4.8989627,2,162,1079,5.407216453927053
1053,RUE DE VERDUN,  98 RUE DE VERDUN ,12,45.7781,4.8989071,2,162,1079,4.634756960508903
1054,RUE DE VERDUN,  90 RUE DE VERDUN ,37,45.7787362,4.8988209,2,162,1079,14.290500628235783
1055,PETITE RUE DU ROULET,  5 PETITE RUE DU ROULET ,11,45.7786908,4.8996638,2,162,1079,4.248527213799828
1056,PETITE RUE DU ROULET,  3 PETITE RUE DU ROULET ,14,45.7788899,4.8995535,2,162,1079,5.407216453927053
1057,PETITE RUE DU ROULET,  1  PETITE RUE DU ROULET ,13,45.7788924,4.8991944,2,162,1079,5.020986707217978
1058,RUE ST JEAN,  20 RUE ST JEAN ,1,45.7760692,4.9012704,1,206,1020,0.5254344565817
1059,RUE ST JEAN,  30 RUE ST JEAN ,6,45.7763962,4.9013599,1,206,1020,3.1526067394901998
1060,RUE ST JEAN,  28 RUE ST JEAN ,6,45.7763965,4.9013096,1,206,1020,3.1526067394901998
1061,RUE ST JEAN,  22 RUE ST JEAN ,7,45.7764134,4.9011501,1,206,1020,3.6780411960719
1062,RUE ST JEAN,  22 RUE ST JEAN ,1,45.7764134,4.9011501,1,206,1020,0.5254344565817
1063,RUE ST JEAN,  12 RUE ST JEAN ,6,45.7765311,4.9004789,1,206,1020,3.1526067394901998
1064,RUE ST JEAN,  12 RUE ST JEAN ,1,45.7765311,4.9004789,1,206,1020,0.5254344565817
1065,RUE ST JEAN,  12 RUE ST JEAN ,1,45.7765311,4.9004789,1,206,1020,0.5254344565817
1066,RUE ST JEAN,  2 RUE ST JEAN ,56,45.7765318,4.8998245,1,206,1020,29.4243295685752
1067,RUE ST JEAN,  15 RUE ST JEAN ,16,45.7765754,4.901046,1,206,1020,8.4069513053072
1068,RUE ST JEAN,  17 RUE ST JEAN ,16,45.7765755,4.9010944,1,206,1020,8.4069513053072
1069,RUE ST JEAN,  9 RUE ST JEAN ,16,45.7765766,4.9009023,1,206,1020,8.4069513053072
1070,RUE ST JEAN,  11 RUE ST JEAN ,16,45.7765767,4.9009508,1,206,1020,8.4069513053072
1071,RUE ST JEAN,  7 RUE ST JEAN ,16,45.7765786,4.9005399,1,206,1020,8.4069513053072
1072,RUE ST JEAN,  3 RUE ST JEAN ,16,45.7765803,4.9000913,1,206,1020,8.4069513053072
1073,RUE ST JEAN,  1 RUE ST JEAN ,16,45.7765943,4.8999309,1,206,1020,8.4069513053072
1074,RUE ST JEAN,  13 RUE ST JEAN ,16,45.7765947,4.9009993,1,206,1020,8.4069513053072
1075,RUE ST JEAN,  19 RUE ST JEAN ,16,45.7766357,4.9011197,1,206,1020,8.4069513053072
1076,RUE ST JEAN,  5 RUE ST JEAN ,16,45.7766554,4.9002867,1,206,1020,8.4069513053072
1077,RUE DU CANAL,  52 RUE DU CANAL ,56,45.7746967,4.9015435,1,206,1020,29.4243295685752
1078,RUE DU CANAL,  51 RUE DU CANAL ,56,45.7752521,4.9010864,1,206,1020,29.4243295685752
1079,RUE DU CANAL,  50 RUE DU CANAL ,54,45.7757992,4.9006392,1,206,1020,28.3734606554118
1080,RUE DU CANAL,  50 RUE DU CANAL ,1,45.7757992,4.9006392,1,206,1020,0.5254344565817
1081,RUE DES JARDINS,  87 RUE DES JARDINS ,3,45.7745922,4.9026688,1,206,1020,1.5763033697450999
1082,RUE DES JARDINS,  87 RUE DES JARDINS ,1,45.7745922,4.9026688,1,206,1020,0.5254344565817
1083,RUE DES JARDINS,  88 RUE DES JARDINS ,10,45.7746355,4.9023421,1,206,1020,5.254344565817
1084,RUE DES JARDINS,  89 RUE DES JARDINS ,3,45.7747604,4.9030825,1,206,1020,1.5763033697450999
1085,RUE DES JARDINS,  91 RUE DES JARDINS ,5,45.7747626,4.9034586,1,206,1020,2.6271722829085
1086,RUE DES JARDINS,  86 RUE DES JARDINS ,10,45.7747941,4.9023398,1,206,1020,5.254344565817
1087,RUE DES JARDINS,  93 RUE DES JARDINS ,6,45.7748568,4.9037446,1,206,1020,3.1526067394901998
1088,RUE DES JARDINS,  84 RUE DES JARDINS ,10,45.7750113,4.9023357,1,206,1020,5.254344565817
1089,RUE DES JARDINS,  82 RUE DES JARDINS ,8,45.7751974,4.9020898,1,206,1020,4.2034756526536
1090,RUE DES JARDINS,  80 RUE DES JARDINS ,8,45.7754054,4.9020931,1,206,1020,4.2034756526536
1091,RUE DES JARDINS,  78 RUE DES JARDINS ,10,45.7756131,4.9023294,1,206,1020,5.254344565817
1092,RUE DES JARDINS,  76 RUE DES JARDINS ,10,45.7757861,4.9023263,1,206,1020,5.254344565817
1093,RUE DES JARDINS,  66 RUE DES JARDINS ,2,45.7759009,4.9033691,1,206,1020,1.0508689131634
1094,RUE DES JARDINS,  68 RUE DES JARDINS ,2,45.7759417,4.9030895,1,206,1020,1.0508689131634
1095,RUE DES JARDINS,  74 RUE DES JARDINS ,10,45.775978,4.9023239,1,206,1020,5.254344565817
1096,RUE DES JARDINS,  8 RUE DES JARDINS ,10,45.7796347,4.9032766,1,206,1020,5.254344565817
1097,RUE DES JARDINS,  2 RUE DES JARDINS ,15,45.7798613,4.9032725,1,206,1020,7.8815168487255
1098,B RUE DES JARDINS,  89 B RUE DES JARDINS ,3,45.7747604,4.9030825,1,206,1020,1.5763033697450999
1099,B RUE DES JARDINS,  93 B RUE DES JARDINS ,8,45.7748568,4.9037446,1,206,1020,4.2034756526536
1100,RUE LEON PIAT,  25 RUE LEON PIAT ,1,45.7743254,4.9034808,1,206,1020,0.5254344565817
1101,RUE LEON PIAT,  27 RUE LEON PIAT ,1,45.7743694,4.9034862,1,206,1020,0.5254344565817
1102,RUE LEON PIAT,  31 RUE LEON PIAT ,1,45.7743717,4.9035622,1,206,1020,0.5254344565817
1103,RUE LEON PIAT,  29 RUE LEON PIAT ,1,45.7744347,4.9036777,1,206,1020,0.5254344565817
1104,RUE DU CLOS MON DESIR,2  RUE DU CLOS MON DESIR ,10,45.7782861,4.9041168,1,206,1020,5.254344565817
1105,RUE DU CLOS MON DESIR,  4/6 RUE DU CLOS MON DESIR ,2,45.7782995,4.9043889,1,206,1020,1.0508689131634
1106,RUE DU CLOS MON DESIR,  6 RUE DU CLOS MON DESIR ,1,45.7783111,4.9046094,1,206,1020,0.5254344565817
1107,ALLEE DU MENS,"  2, ALLEE DU MENS ",3,45.7799759,4.9021372,1,206,1020,1.5763033697450999
1108,RUE DOUAUMONT,29 RUE DOUAUMONT ,14,45.7827411,4.9013624,2,162,1079,5.407216453927053
1109,RUE DU MARAIS,44A  RUE DU MARAIS ,18,45.7827384,4.9005953,2,162,1079,6.952135440763354
1110,RUE DU MARAIS,44B  RUE DU MARAIS ,19,45.7827384,4.9005953,2,162,1079,7.33836518747243
1111,RUE DU MARAIS,42  RUE DU MARAIS ,21,45.7827638,4.901117,2,162,1079,8.11082468089058
1112,RUE DES MARAIS,  7 RUE DES MARAIS ,2,45.7848478,4.9014093,2,162,1079,0.7724594934181505
1113,RUE DU VERT BUISSON,  7C RUE DU VERT BUISSON ,2,45.7842011,4.9024004,2,162,1079,0.7724594934181505
1114,RUE RUE MIMI PINSON,10 RUE RUE MIMI PINSON ,24,45.7864666,4.9002422,2,162,1079,9.269513921017806
1115,ALLEE ALLEE DU MENS,78 ALLEE ALLEE DU MENS ,1,45.7793534,4.9067334,1,206,1020,0.5254344565817
1116,ALLEE ALLEE DU MENS,76 ALLEE ALLEE DU MENS ,1,45.7793619,4.9068701,1,206,1020,0.5254344565817
1117,ALLEE ALLEE DU MENS,74 ALLEE ALLEE DU MENS ,1,45.7793738,4.9070173,1,206,1020,0.5254344565817
1118,ALLEE ALLEE DU MENS,72 ALLEE ALLEE DU MENS ,1,45.7793979,4.9071404,1,206,1020,0.5254344565817
1119,ALLEE ALLEE DU MENS,80 ALLEE ALLEE DU MENS ,1,45.7795228,4.9065693,1,206,1020,0.5254344565817
1120,ALLEE ALLEE DU MENS,70 ALLEE ALLEE DU MENS ,1,45.7795971,4.9071846,1,206,1020,0.5254344565817
1121,ALLEE ALLEE DU MENS,82 ALLEE ALLEE DU MENS ,1,45.7796025,4.9065991,1,206,1020,0.5254344565817
1122,ALLEE ALLEE DU MENS,68 ALLEE ALLEE DU MENS ,1,45.7796948,4.9071584,1,206,1020,0.5254344565817
1123,ALLEE ALLEE DU MENS,84 ALLEE ALLEE DU MENS ,1,45.7797118,4.906581,1,206,1020,0.5254344565817
1124,ALLEE ALLEE DU MENS,66 ALLEE ALLEE DU MENS ,1,45.7797978,4.9071414,1,206,1020,0.5254344565817
1125,ALLEE ALLEE DU MENS,86 ALLEE ALLEE DU MENS ,1,45.7798012,4.9065673,1,206,1020,0.5254344565817
1126,ALLEE ALLEE DU MENS,64 ALLEE ALLEE DU MENS ,1,45.7798756,4.9070681,1,206,1020,0.5254344565817
1127,ALLEE ALLEE DU MENS,88 ALLEE ALLEE DU MENS ,1,45.7799785,4.9064138,1,206,1020,0.5254344565817
1128,ALLEE ALLEE DU MENS,54 ALLEE ALLEE DU MENS ,1,45.7799973,4.9071701,1,206,1020,0.5254344565817
1129,ALLEE ALLEE DU MENS,62 ALLEE ALLEE DU MENS ,1,45.779998,4.9070182,1,206,1020,0.5254344565817
1130,ALLEE ALLEE DU MENS,60 ALLEE ALLEE DU MENS ,1,45.7800576,4.9070139,1,206,1020,0.5254344565817
1131,ALLEE ALLEE DU MENS,90 ALLEE ALLEE DU MENS ,1,45.7800743,4.9063978,1,206,1020,0.5254344565817
1132,ALLEE ALLEE DU MENS,52 ALLEE ALLEE DU MENS ,1,45.7800914,4.9071965,1,206,1020,0.5254344565817
1133,ALLEE ALLEE DU MENS,92 ALLEE ALLEE DU MENS ,1,45.7801197,4.9063762,1,206,1020,0.5254344565817
1134,ALLEE ALLEE DU MENS,58 ALLEE ALLEE DU MENS ,1,45.7801198,4.907007,1,206,1020,0.5254344565817
1135,ALLEE ALLEE DU MENS,56 ALLEE ALLEE DU MENS ,1,45.7801803,4.9070001,1,206,1020,0.5254344565817
1136,ALLEE ALLEE DU MENS,50 ALLEE ALLEE DU MENS ,1,45.7801957,4.9071564,1,206,1020,0.5254344565817
1137,ALLEE ALLEE DU MENS,94 ALLEE ALLEE DU MENS ,1,45.7802199,4.9063591,1,206,1020,0.5254344565817
1138,ALLEE ALLEE DU MENS,48 ALLEE ALLEE DU MENS ,1,45.7802579,4.9071508,1,206,1020,0.5254344565817
1139,ALLEE ALLEE DU MENS,46 ALLEE ALLEE DU MENS ,1,45.7803343,4.9072127,1,206,1020,0.5254344565817
1140,ALLEE ALLEE DU MENS,44 ALLEE ALLEE DU MENS ,1,45.780408,4.9071727,1,206,1020,0.5254344565817
1141,RUE DE TURIN,  4 RUE DE TURIN ,1,45.774486,4.8987044,5,94,1007,0.19787908870194643
1142,RUE DE LA JEUNESSE,  6  RUE DE LA JEUNESSE ,1,45.7740573,4.8976303,5,94,1007,0.19787908870194643
1143,RUE GEORGES PICOT,  28 RUE GEORGES PICOT ,8,45.77372,4.8970704,5,94,1007,1.5830327096155714
1144,RUE GEORGES PICOT,  26 RUE GEORGES PICOT ,8,45.7738894,4.8970659,5,94,1007,1.5830327096155714
1145,RUE DE MULHOUSE,  17 RUE DE MULHOUSE ,15,45.7735902,4.8967506,5,94,1007,2.9681863305291962
1146,PASSAGE DU TÉNOR,  8 PASSAGE DU TÉNOR ,6,45.7718033,4.8969569,5,94,1007,1.1872745322116784
1147,ALLEE DES ENFANTS,  25 ALLEE DES ENFANTS ,1,45.7702326,4.8975324,3,126,1020,0.2562719499238474
1148,ALLEE DES ENFANTS,  27 ALLEE DES ENFANTS ,1,45.7702383,4.8976201,3,126,1020,0.2562719499238474
1149,ALLEE DES ENFANTS,  29 ALLEE DES ENFANTS ,1,45.7702466,4.8977182,3,126,1020,0.2562719499238474
1150,ALLEE DES ENFANTS,  5 ALLEE DES ENFANTS ,1,45.7704483,4.8968139,3,126,1020,0.2562719499238474
1151,ALLEE DES ENFANTS,  17 ALLEE DES ENFANTS ,1,45.7704531,4.8974383,3,126,1020,0.2562719499238474
1152,ALLEE DES ENFANTS,  19 ALLEE DES ENFANTS ,1,45.7704595,4.8975351,3,126,1020,0.2562719499238474
1153,ALLEE DES ENFANTS,  13 ALLEE DES ENFANTS ,1,45.7704714,4.8971506,3,126,1020,0.2562719499238474
1154,RUE DE LA SERENITE,  8 RUE DE LA SERENITE ,1,45.7699055,4.8971646,3,126,1020,0.2562719499238474
1155,RUE DE LA SERENITE,  16 RUE DE LA SERENITE ,1,45.769945,4.8977079,3,126,1020,0.2562719499238474
1156,RUE DE LA SERENITE,  1 RUE DE LA SERENITE ,3,45.7699686,4.8966803,3,126,1020,0.7688158497715422
1157,RUE DE LA SERENITE,  22 RUE DE LA SERENITE ,1,45.7699809,4.8981956,3,126,1020,0.2562719499238474
1158,RUE DE LA SERENITE,  5 RUE DE LA SERENITE ,3,45.7700066,4.897208,3,126,1020,0.7688158497715422
1159,RUE LANCON,  24 RUE LANCON ,7,45.7712048,4.8946723,5,94,1007,1.3851536209136248
1160,RUE LANCON,28 RUE LANCON ,13,45.7712563,4.8951269,5,94,1007,2.5724281531253035
1161,RUE DE PRESSENSE,268 RUE DE PRESSENSE ,5,45.7695473,4.8938265,4,137,1055,1.5061369531743163
1162,RUE GREUZE,"  70, RUE GREUZE ",25,45.768925,4.893549,10,169,1329,7.514750515454582
1163,RUE GREUZE,69 RUE GREUZE ,5,45.7690309,4.8936762,4,137,1055,1.5061369531743163
1164,IMPASSE DU PROGRES,"  3, IMPASSE DU PROGRES ",6,45.7691874,4.8929943,10,169,1329,1.8035401237090998
1165,RUE FRANCIS PRESSENSE,264 RUE FRANCIS PRESSENSE ,15,45.7695956,4.8932026,10,169,1329,4.5088503092727485
1166,RUE F. DE PRESSENSE,276 RUE F. DE PRESSENSE ,21,45.7685679,4.894273,4,137,1055,6.325775203332129
1167,RUE F. DE PRESSENSE,274 RUE F. DE PRESSENSE ,21,45.768774,4.8942801,4,137,1055,6.325775203332129
1168,RUE F. DE PRESSENSE,272 RUE F. DE PRESSENSE ,20,45.7690234,4.8942873,4,137,1055,6.024547812697265
1169,RUE F. DE PRESSENSE,"  22, RUE F. DE PRESSENSE ",1,45.7721458,4.8684958,32,198,1308,0.3004330927364261
1170,RUE F. DE PRESSENSE,"  20, RUE F. DE PRESSENSE ",15,45.7722283,4.868357,32,198,1308,4.506496391046392
1171,RUE F. DE PRESSENSE,"  18, RUE F. DE PRESSENSE ",1,45.7722629,4.8681741,32,198,1308,0.3004330927364261
1172,IMPASSE MILLION,  23 IMPASSE MILLION ,10,45.7681927,4.8948355,4,137,1055,3.0122739063486326
1173,BIS RUE DE FONTANIÈRES,78 BIS RUE DE FONTANIÈRES ,1,45.7725173,4.8829148,13,108,1056,0.19279445109382595
1174,RUE RUE GEOFFRAY,24 RUE RUE GEOFFRAY ,11,45.7742099,4.883125,15,141,1159,2.663851222618782
1175,- 55 RUE EDOUARD VAILLANT,  53 - 55 RUE EDOUARD VAILLANT ,8,45.7748454,4.8804216,15,141,1159,1.9373463437227503
1176,RUE LOUIS FORT,  7  RUE LOUIS FORT ,15,45.7747048,4.8860355,8,175,1214,4.337859775051308
1177,RUE LOUIS FORT,  9  RUE LOUIS FORT ,11,45.7747185,4.8861904,8,175,1214,3.1810971683709597
1178,RUE LOUIS FORT,  11 RUE LOUIS FORT ,11,45.774738,4.886417,8,175,1214,3.1810971683709597
1179,RUE LOUIS FORT,  11 RUE LOUIS FORT ,2,45.774738,4.886417,8,175,1214,0.5783813033401745
1180,RUE LOUIS FORT,17 RUE LOUIS FORT ,11,45.7749076,4.8873747,8,175,1214,3.1810971683709597
1181,RUE RUE LOUIS FORT,24 RUE RUE LOUIS FORT ,15,45.774652,4.8872578,9,117,1126,3.565627831263383
1182,RUE RUE PARET,1 RUE RUE PARET ,11,45.7741881,4.8873115,9,117,1126,2.6147937429264814
1183,RUE CH?TEAU GAILLARD,90 RUE CH?TEAU GAILLARD ,14,45.7750984,4.8881921,8,175,1214,4.048669123381221
1184,IMPASSE IMPASSE DES PEUPLIERS,15 IMPASSE IMPASSE DES PEUPLIERS ,1,45.7617182,4.8882767,53,162,1191,0.2810205052241596
1185,RUE DOCTEUR FRAPPAZ,  13 RUE DOCTEUR FRAPPAZ ,18,45.7601627,4.8915433,65,137,1146,3.4296327904353077
1186,BLD EUGENE REGUILLON,  1 BLD EUGENE REGUILLON ,1,45.7605245,4.8929112,65,137,1146,0.19053515502418375
1187,BLD EUGENE REGUILLON,  3 BLD EUGENE REGUILLON ,1,45.7606383,4.8929654,65,137,1146,0.19053515502418375
1188,RUE DU DOCTEUR FRAPPAZ,  2 RUE DU DOCTEUR FRAPPAZ ,1,45.7606383,4.8929654,65,137,1146,0.19053515502418375
1189,RUE DES FLEURS,  14 RUE DES FLEURS ,19,45.7544434,4.8951747,71,156,1263,4.810177507328622
1190,RUE BOURGCHANIN,17 RUE BOURGCHANIN ,1,45.7672874,4.902546,3,126,1020,0.2562719499238474
1191,RUE FRANCOIS MOLE,  30 RUE FRANCOIS MOLE ,1,45.7696115,4.9013054,3,126,1020,0.2562719499238474
1192,AVENUE DE LA RIZE,  15 AVENUE DE LA RIZE ,4,45.7692607,4.9095449,1,206,1020,2.1017378263268
1193,RUE FRANCIA,4 RUE FRANCIA ,7,45.7632219,4.9152381,79,139,816,1.9537045430092015
1194,AVENUE AMPERE,  20 AVENUE AMPERE ,1,45.764592,4.9179909,80,140,891,0.24340595940350584
1195,RUE DE LA POUDRETTE,  112 RUE DE LA POUDRETTE ,2,45.757949,4.920895,76,176,1037,0.5725430443948035
1196,RUE DE LA POUDRETTE,  112 RUE DE LA POUDRETTE ,1,45.757949,4.920895,76,176,1037,0.28627152219740176
1197,RUE DE LA POUDRETTE,"  16/18, RUE DE LA POUDRETTE ",1,45.7633654,4.9193688,79,139,816,0.27910064900131454
1198,RUE DE LA POUDRETTE,  4 RUE DE LA POUDRETTE ,41,45.7642634,4.9191158,80,140,891,9.979644335543739
1199,RUE WILLY BRANDT,  19 RUE WILLY BRANDT ,56,45.7635996,4.9184106,80,140,891,13.630733726596327
1200,RUE CHARLOTTE DELBO,  12 RUE CHARLOTTE DELBO ,1,45.7620984,4.9184576,79,139,816,0.27910064900131454
1201,RUE CHARLOTTE DELBO,  12 RUE CHARLOTTE DELBO ,1,45.7620984,4.9184576,79,139,816,0.27910064900131454
1202,RUE CHARLOTTE DELBO,  12 RUE CHARLOTTE DELBO ,1,45.7620984,4.9184576,79,139,816,0.27910064900131454
1203,RUE CHARLOTTE DELBO,  12 RUE CHARLOTTE DELBO ,23,45.7620984,4.9184576,79,139,816,6.419314927030234
1204,RUE DE LA SOIE,  33 RUE DE LA SOIE ,1,45.7618154,4.9179345,79,139,816,0.27910064900131454
1205,RUE DE LA SOIE,  33 RUE DE LA SOIE ,1,45.7618154,4.9179345,79,139,816,0.27910064900131454
1206,RUE DE LA SOIE,  33 RUE DE LA SOIE ,15,45.7618154,4.9179345,79,139,816,4.186509735019718
1207,RUE DE LA SOIE,  12 RUE DE LA SOIE ,3,45.7622085,4.9163509,79,139,816,0.8373019470039434
1208,RUE DE LA SOIE,  12 RUE DE LA SOIE ,9,45.7622085,4.9163509,79,139,816,2.511905841011831
1209,ALL GERDA TARO,4 ALL GERDA TARO ,1,45.7602644,4.9168438,79,139,816,0.27910064900131454
1210,ALL GERDA TARO,4 ALL GERDA TARO ,1,45.7602644,4.9168438,79,139,816,0.27910064900131454
1211,ALL GERDA TARO,4 ALL GERDA TARO ,1,45.7602644,4.9168438,79,139,816,0.27910064900131454
1212,ALL GERDA TARO,4 ALL GERDA TARO ,1,45.7602644,4.9168438,79,139,816,0.27910064900131454
1213,ALL GERDA TARO,4 ALL GERDA TARO ,1,45.7602644,4.9168438,79,139,816,0.27910064900131454
1214,ALL GERDA TARO,4 ALL GERDA TARO ,1,45.7602644,4.9168438,79,139,816,0.27910064900131454
1215,ALL GERDA TARO,4 ALL GERDA TARO ,2,45.7602644,4.9168438,79,139,816,0.5582012980026291
1216,ALL GERDA TARO,4 ALL GERDA TARO ,2,45.7602644,4.9168438,79,139,816,0.5582012980026291
1217,ALL GERDA TARO,4 ALL GERDA TARO ,1,45.7602644,4.9168438,79,139,816,0.27910064900131454
1218,ALL GERDA TARO,4 ALL GERDA TARO ,24,45.7602644,4.9168438,79,139,816,6.698415576031548
1219,ALL GERDA TARO,10 ALL GERDA TARO ,1,45.760432,4.9174272,79,139,816,0.27910064900131454
1220,ALL GERDA TARO,10 ALL GERDA TARO ,1,45.760432,4.9174272,79,139,816,0.27910064900131454
1221,ALL GERDA TARO,10 ALL GERDA TARO ,1,45.760432,4.9174272,79,139,816,0.27910064900131454
1222,ALL GERDA TARO,10 ALL GERDA TARO ,1,45.760432,4.9174272,79,139,816,0.27910064900131454
1223,ALL GERDA TARO,10 ALL GERDA TARO ,1,45.760432,4.9174272,79,139,816,0.27910064900131454
1224,ALL GERDA TARO,10 ALL GERDA TARO ,1,45.760432,4.9174272,79,139,816,0.27910064900131454
1225,ALL GERDA TARO,10 ALL GERDA TARO ,1,45.760432,4.9174272,79,139,816,0.27910064900131454
1226,ALL GERDA TARO,10 ALL GERDA TARO ,5,45.760432,4.9174272,79,139,816,1.3955032450065727
1227,ALL GERDA TARO,10 ALL GERDA TARO ,44,45.760432,4.9174272,79,139,816,12.280428556057839
1228,DECOMBEROUSSE,15  DECOMBEROUSSE ,1,45.7618188,4.9156286,79,139,816,0.27910064900131454
1229,RUE AMPERE,"  15, RUE AMPERE ",1,45.7660132,4.9176811,80,140,891,0.24340595940350584
1230,RUE AMPERE,"  13, RUE AMPERE ",1,45.7660704,4.9176548,80,140,891,0.24340595940350584
1231,RUE AMPERE,"  9, RUE AMPERE ",1,45.7661767,4.9176057,80,140,891,0.24340595940350584
1232,RUE AMPERE,"  11, RUE AMPERE ",1,45.7826114,4.8682885,25,163,1241,0.30569171972985687
1233,VICTOR JARA,  10 VICTOR JARA ,4,45.766134,4.9184717,80,140,891,0.9736238376140234
1234,RUE VICTOR JARA,  12 RUE VICTOR JARA ,3,45.7660428,4.9185367,80,140,891,0.7302178782105176
1235,RUE VALENTIN HAUY,22 RUE VALENTIN HAUY ,39,45.7594782,4.8835225,54,162,1143,10.23888388779168
1236,RUE RUE DE LORRAINE,7 RUE RUE DE LORRAINE ,12,45.7643144,4.8708589,41,118,1033,3.2127062529623265
1237,RUE RUE DE LORRAINE,5 RUE RUE DE LORRAINE ,10,45.7644754,4.8708682,41,118,1033,2.677255210801939
1238,RUE D'ALSACE,68  RUE D'ALSACE ,21,45.7656486,4.8698517,40,118,1169,3.7493568763426395
1239,RUE D'ALSACE,68B  RUE D'ALSACE ,2,45.7656486,4.8698517,40,118,1169,0.3570816072707276
1240,RUE DAMON,3  RUE DAMON ,1,45.766198,4.8703698,40,118,1169,0.1785408036353638
1241,RUE DAMON,5  RUE DAMON ,14,45.766267,4.8704762,40,118,1169,2.499571250895093
1242,RUE RUE ANATOLE FRANCE,10 RUE RUE ANATOLE FRANCE ,1,45.7666916,4.8694375,38,151,1413,0.1957757732902874
1243,RUE JEAN CLAUDE VIVANT,  79 RUE JEAN CLAUDE VIVANT ,12,45.7662668,4.8681025,38,151,1413,2.3493092794834483
1244,RUE JEAN CLAUDE VIVANT,"  19, RUE JEAN CLAUDE VIVANT ",9,45.7698282,4.8682269,37,141,1265,1.9705772839696136
1245,RUE JEAN CLAUDE VIVANT,  17 RUE JEAN CLAUDE VIVANT ,36,45.7699856,4.8682376,37,141,1265,7.8823091358784545
1246,RUE DES CHARMETTES,  91 RUE DES CHARMETTES ,16,45.7669218,4.8672856,38,151,1413,3.1324123726445983
1247,RUE DES CHARMETTES,  59 RUE DES CHARMETTES ,5,45.7684329,4.8673586,38,151,1413,0.978878866451437
1248,RUE DES CHARMETTES,"  29, RUE DES CHARMETTES ",12,45.770204,4.8674545,37,141,1265,2.627436378626151
1249,RUE RUE DES CHARMETTES,68 RUE RUE DES CHARMETTES ,11,45.7679283,4.8664967,38,151,1413,2.1535335061931615
1250,RUE RUE DES CHARMETTES,64 RUE RUE DES CHARMETTES ,25,45.7679423,4.8671798,38,151,1413,4.894394332257185
1251,RUE RUE DES CHARMETTES,66 RUE RUE DES CHARMETTES ,11,45.7679445,4.8667719,38,151,1413,2.1535335061931615
1252,RUE BIS RUE DES CHARMETTES,68 RUE BIS RUE DES CHARMETTES ,1,45.7679283,4.8664967,38,151,1413,0.1957757732902874
1253,RUE JEAN-CLAUDE VIVANT,34 RUE JEAN-CLAUDE VIVANT ,1,45.768801,4.8680313,38,151,1413,0.1957757732902874
1254,RUE JEAN-CLAUDE VIVANT,  29 RUE JEAN-CLAUDE VIVANT ,4,45.7691684,4.8681994,38,151,1413,0.7831030931611496
1255,RUE JC VIVANT,  26 RUE JC VIVANT ,4,45.7691535,4.8680467,38,151,1413,0.7831030931611496
1256,RUE DEDIEU,  38 RUE DEDIEU ,2,45.7693794,4.8661149,33,169,1356,0.4554994105478004
1257,RUE DEDIEU,  11 RUE DEDIEU ,8,45.7693985,4.8640345,33,169,1356,1.8219976421912016
1258,RUE DEDIEU,  11 RUE DEDIEU ,3,45.7693985,4.8640345,33,169,1356,0.6832491158217006
1259,RUE DEDIEU,"  15, RUE DEDIEU ",11,45.769409,4.864273,33,169,1356,2.5052467580129023
1260,RUE DEDIEU,  17 RUE DEDIEU ,8,45.7694135,4.8643812,33,169,1356,1.8219976421912016
1261,RUE DEDIEU,  58 RUE DEDIEU ,8,45.7694613,4.8679291,38,151,1413,1.5662061863222991
1262,RUE DEDIEU,73 RUE DEDIEU ,1,45.7696469,4.869536,37,141,1265,0.21895303155217927
1263,RUE ALEXANDRE BOUTIN,  24 RUE ALEXANDRE BOUTIN ,3,45.7692408,4.8687772,38,151,1413,0.5873273198708621
1264,RUE ALEXANDRE BOUTIN,  13 RUE ALEXANDRE BOUTIN ,1,45.770149,4.8689263,37,141,1265,0.21895303155217927
1265,RUE ALEXANDRE BOUTIN,  5 RUE ALEXANDRE BOUTIN ,14,45.7706129,4.8689253,37,141,1265,3.0653424417305097
1266,RUE RUE DES TEINTURIERS,8 RUE RUE DES TEINTURIERS ,15,45.7698331,4.8666233,33,169,1356,3.4162455791085033
1267,PLACE DES PASSEMENTIERS,2 PLACE DES PASSEMENTIERS ,1,45.7695957,4.8661901,33,169,1356,0.2277497052739002
1268,RUE D'INKERMANN,"  14, RUE D'INKERMANN ",11,45.769158,4.8656665,33,169,1356,2.5052467580129023
1269,RUE D'INKERMAN,  12 RUE D'INKERMAN ,3,45.7699251,4.8656673,33,169,1356,0.6832491158217006
1270,RUE D'INKERMAN,  12 RUE D'INKERMAN ,3,45.7699251,4.8656673,33,169,1356,0.6832491158217006
1271,RUE D'INKERMAN,  12 RUE D'INKERMAN ,1,45.7699251,4.8656673,33,169,1356,0.2277497052739002
1272,RUE D'INKERMAN,  12 RUE D'INKERMAN ,2,45.7699251,4.8656673,33,169,1356,0.4554994105478004
1273,RUE D INKERMANN,10 RUE D INKERMANN ,35,45.7701605,4.8656755,33,169,1356,7.971239684586508
1274,RUE RUE JULES VALLES,1 RUE RUE JULES VALLES ,3,45.7703568,4.8640965,33,169,1356,0.6832491158217006
1275,BIS RUE JULES VALLES,  9 BIS RUE JULES VALLES ,18,45.7699041,4.8643979,33,169,1356,4.099494694930204
1276,RUE JULES VALLES,  9 RUE JULES VALLES ,5,45.7699041,4.8643979,33,169,1356,1.1387485263695012
1277,RUE JULES VALLES,  9 RUE JULES VALLES ,9,45.7699041,4.8643979,33,169,1356,2.049747347465102
1278,RUE JULES VALLÈS.,"  32, RUE JULES VALLÈS. ",19,45.7688256,4.8646922,33,169,1356,4.327244400204104
1279,BELLECOMBE,11  BELLECOMBE ,1,45.7696551,4.8631165,33,169,1356,0.2277497052739002
1280,RUE RUE BELLECOMBE,7 RUE RUE BELLECOMBE ,2,45.7698627,4.8630887,33,169,1356,0.4554994105478004
1281,RUE GABRIEL PERI,"  21, RUE GABRIEL PERI ",5,45.7709272,4.8635893,32,198,1308,1.5021654636821304
1282,RUE GABRIEL PERI,"  23, RUE GABRIEL PERI ",28,45.7712442,4.8641431,32,198,1308,8.412126596619931
1283,RUE GABRIEL PERI,  53 RUE GABRIEL PERI ,12,45.7727972,4.8662563,30,189,1146,4.309816929108208
1284,RUE GABRIEL PERI,  58 RUE GABRIEL PERI ,3,45.7730993,4.8666693,30,189,1146,1.077454232277052
1285,RUE GABRIEL PERI,  58 RUE GABRIEL PERI ,7,45.7730993,4.8666693,30,189,1146,2.514059875313121
1286,RUE GABRIEL PERI,  58 RUE GABRIEL PERI ,1,45.7730993,4.8666693,30,189,1146,0.3591514107590173
1287,RUE RUE GABRIEL PERI,26 RUE RUE GABRIEL PERI ,23,45.7716041,4.8650897,32,198,1308,6.9099611329378
1288,RUE RUE GABRIEL PERI,28 RUE RUE GABRIEL PERI ,27,45.7716659,4.8652134,32,198,1308,8.111693503883505
1289,RUE RUE GABRIEL PERI,52 RUE RUE GABRIEL PERI ,2,45.7725878,4.8662865,30,189,1146,0.7183028215180346
1290,COURS ANDRE PHILIP RES. LE MARLENE DIETRICH,32  COURS ANDRE PHILIP RES. LE MARLENE DIETRICH ,32,45.7722898,4.8663807,30,189,1146,11.492845144288554
1291,COURS ANDRE PHILIP RES. LE MARLENE DIETRICH,38  COURS ANDRE PHILIP RES. LE MARLENE DIETRICH ,26,45.7723012,4.8668947,30,189,1146,9.33793667973445
1292,RUE GABRIEL P?RI,  56 RUE GABRIEL P?RI ,10,45.7729825,4.8665444,30,189,1146,3.591514107590173
1293,RUE F. DE PR?SSENS?,  15 RUE F. DE PR?SSENS? ,12,45.772601,4.8674969,30,189,1146,4.309816929108208
1294,RUE F. DE PRESSENS?,  17 RUE F. DE PRESSENS? ,15,45.7725515,4.8676625,30,189,1146,5.38727116138526
1295,A RUE PIERRE LAROUSSE,  8 A RUE PIERRE LAROUSSE ,13,45.7727575,4.8679643,24,169,1165,4.006901493443453
1296,B RUE PIERRE LAROUSSE,  8 B RUE PIERRE LAROUSSE ,13,45.7727575,4.8679643,24,169,1165,4.006901493443453
1297,RUE PIERRE LAROUSSE,"  4, RUE PIERRE LAROUSSE ",11,45.7729463,4.8682409,24,169,1165,3.3904551098367683
1298,RUE PIERRE LAROUSSE,"  2, RUE PIERRE LAROUSSE ",1,45.7730705,4.8682482,24,169,1165,0.30822319180334257
1299,PLACE WILSON,"  7, PLACE WILSON ",28,45.7732905,4.8682371,24,169,1165,8.63024937049359
1300,PLACE WILSON,2 PLACE WILSON ,4,45.7735094,4.8673628,24,169,1165,1.2328927672133703
1301,AVENUE PIATON,  11 AVENUE PIATON ,17,45.7742442,4.8674276,29,234,1187,6.303285452196078
1302,AVENUE PIATON,  9 AVENUE PIATON ,19,45.7742604,4.867105,29,234,1187,7.044848446572088
1303,AVENUE CONDORCET,  56 AVENUE CONDORCET ,26,45.774371,4.8677176,24,169,1165,8.013802986886907
1304,AVENUE CONDORCET,  57 AVENUE CONDORCET ,17,45.7745856,4.8679218,24,169,1165,5.239794260656823
1305,AVENUE CONDORCET,9 AVENUE CONDORCET ,1,45.7779214,4.8672442,27,135,1136,0.23044793945623063
1306,RUE LAKANAL,  51 RUE LAKANAL ,28,45.7743422,4.8667319,29,234,1187,10.38188192126413
1307,RUE LAKANAL,10  RUE LAKANAL ,27,45.7744568,4.8665028,29,234,1187,10.011100424076124
1308,RUE LAKANAL,8  RUE LAKANAL ,37,45.7747248,4.8663085,29,234,1187,13.718915395956172
1309,RUE LAKANAL,4  RUE LAKANAL ,2,45.7753395,4.8659611,29,234,1187,0.7415629943760093
1310,RUE LAKANAL,2  RUE LAKANAL ,41,45.7757309,4.8660928,29,234,1187,15.202041384708188
1311,AVENUE PIATON RESIDENCE JOSEPH MARTINET,1  AVENUE PIATON RESIDENCE JOSEPH MARTINET ,31,45.7744125,4.8656968,29,234,1187,11.494226412828143
1312,AVENUE PIATON RESIDENCE JOSEPH MARTINET,3  AVENUE PIATON RESIDENCE JOSEPH MARTINET ,31,45.7745249,4.8659272,29,234,1187,11.494226412828143
1313,AVENUE GALLINE,4  AVENUE GALLINE ,61,45.7759662,4.8657583,29,234,1187,22.617671328468283
1314,AVENUE GALLINE,  14 AVENUE GALLINE ,34,45.7759839,4.8667578,29,234,1187,12.606570904392155
1315,AVENUE GALLINE,  14 AVENUE GALLINE ,1,45.7759839,4.8667578,29,234,1187,0.3707814971880046
1316,AVENUE GALLINE,  12 AVENUE GALLINE ,26,45.7761886,4.866358,29,234,1187,9.640318926888119
1317,AVENUE GALLINE,  16 AVENUE GALLINE ,27,45.7761923,4.8670068,29,234,1187,10.011100424076124
1318,AVENUE GALLINE,2  AVENUE GALLINE ,36,45.7762622,4.8656113,29,234,1187,13.348133898768165
1319,RUE DU TONKIN,47  RUE DU TONKIN ,1,45.7754921,4.8652841,29,234,1187,0.3707814971880046
1320,RUE DU TONKIN,43  RUE DU TONKIN ,24,45.7759013,4.8652696,29,234,1187,8.89875593251211
1321,RUE DU TONKIN,1 RUE DU TONKIN ,1,45.7784103,4.8655718,27,135,1136,0.23044793945623063
1322,RUE DU TONKIN,  4  RUE DU TONKIN ,8,45.7784283,4.8649172,26,207,1166,3.0956904226931115
1323,RUE DU TONKIN,  2  RUE DU TONKIN ,8,45.7788104,4.8649584,26,207,1166,3.0956904226931115
1324,RUE DU TONKIN,  4 RUE DU TONKIN ,3,45.7789217,4.8648219,26,207,1166,1.1608839085099167
1325,RUE SALVADOR ALLENDE,18 RUE SALVADOR ALLENDE ,48,45.7753167,4.864586,28,156,1138,12.036936191114542
1326,RUE SALVADOR ALLENDE,13  RUE SALVADOR ALLENDE ,13,45.7753239,4.8648678,29,234,1187,4.820159463444059
1327,RUE SALVATORE ALLENDE,  20 RUE SALVATORE ALLENDE ,18,45.7745805,4.8645814,28,156,1138,4.513851071667954
1328,ALLEE ALLEE JACQUES BREL,4 ALLEE ALLEE JACQUES BREL ,17,45.7739767,4.8639335,30,189,1146,6.105573982903294
1329,ALLEE ALLEE JACQUES BREL,2 ALLEE ALLEE JACQUES BREL ,2,45.7740015,4.8635352,30,189,1146,0.7183028215180346
1330,ALLEE ALLEE JACQUES BREL,2 ALLEE ALLEE JACQUES BREL ,23,45.7740015,4.8635352,30,189,1146,8.260482447457399
1331,RUE RUE JACQUES BREL,6 RUE RUE JACQUES BREL ,3,45.7739604,4.8635654,30,189,1146,1.077454232277052
1332,RUE RUE JACQUES BREL,6 RUE RUE JACQUES BREL ,20,45.7739604,4.8635654,30,189,1146,7.183028215180346
1333,RUE RUE HENRI ROLLAND,8 RUE RUE HENRI ROLLAND ,13,45.771145,4.8629479,32,198,1308,3.905630205573539
1334,RUE RUE HENRI ROLLAND,3 RUE RUE HENRI ROLLAND ,27,45.7733049,4.8633876,30,189,1146,9.697088090493466
1335,RUE RUE HENRI ROLLAND,1 RUE RUE HENRI ROLLAND ,5,45.7737659,4.8635061,30,189,1146,1.7957570537950864
1336,RUE RUE HENRI ROLLAND,1 RUE RUE HENRI ROLLAND ,12,45.7737659,4.8635061,30,189,1146,4.309816929108208
1337,RUE HENRI ROLLAND,9  RUE HENRI ROLLAND ,22,45.7730129,4.8633996,30,189,1146,7.901331036698381
1338,COURS ANDRE PHILIP,41  COURS ANDRE PHILIP ,22,45.7727042,4.8642027,30,189,1146,7.901331036698381
1339,COURS ANDRE PHILIP,39  COURS ANDRE PHILIP ,9,45.7727268,4.863816,30,189,1146,3.2323626968311556
1340,COURS ANDRE PHILIP,37  COURS ANDRE PHILIP ,9,45.7727361,4.8636361,30,189,1146,3.2323626968311556
1341,COURS ANDRE PHILIP,35  COURS ANDRE PHILIP ,20,45.7727516,4.863461,30,189,1146,7.183028215180346
1342,COURS ANDRE PHILIP,"  15, COURS ANDRE PHILIP ",15,45.7728667,4.8615039,31,143,1166,3.945120070042595
1343,RUE BAT YAM,12  RUE BAT YAM ,22,45.7730833,4.8643172,30,189,1146,7.901331036698381
1344,RUE DE BAT. YAM.,  0010 RUE DE BAT. YAM. ,16,45.7732586,4.8643385,30,189,1146,5.746422572144277
1345,RUE DE BAT. YAM.,  0008 RUE DE BAT. YAM. ,13,45.7734123,4.8643579,30,189,1146,4.668968339867225
1346,RUE DE BAT. YAM.,  0004 RUE DE BAT. YAM. ,24,45.7734183,4.864142,30,189,1146,8.619633858216416
1347,RUE DE BAT. YAM.,  0006 RUE DE BAT. YAM. ,23,45.7735606,4.8643757,30,189,1146,8.260482447457399
1348,RUE DE BAT YAM,  7 RUE DE BAT YAM ,28,45.7734374,4.8646934,30,189,1146,10.056239501252485
1349,RUE BAT-YAM,9 RUE BAT-YAM ,24,45.7732581,4.8646938,30,189,1146,8.619633858216416
1350,RUE SON-TAY,3 RUE SON-TAY ,25,45.7731704,4.865095,30,189,1146,8.978785268975432
1351,RUE SON-TAY,"  1, RUE SON-TAY ",1,45.7731853,4.8648471,30,189,1146,0.3591514107590173
1352,RUE ETIENNE GAGNAIRE,2 RUE ETIENNE GAGNAIRE ,27,45.773279,4.8653586,30,189,1146,9.697088090493466
1353,RUE DE BAT-YAM,"  5, RUE DE BAT-YAM ",7,45.773619,4.8647137,30,189,1146,2.514059875313121
1354,RUE JACQUES BREL,"  3, RUE JACQUES BREL ",36,45.7743804,4.8637135,28,156,1138,9.027702143335908
1355,RUE JACQUES BREL,"  1, RUE JACQUES BREL ",58,45.7747929,4.8635562,28,156,1138,14.544631230930072
1356,AVENUE DUTRIEVOZ,"  10, AVENUE DUTRIEVOZ ",27,45.7730052,4.861793,31,143,1166,7.101216126076671
1357,AVENUE DUTRIEVOZ,"  8, AVENUE DUTRIEVOZ ",36,45.773207,4.8617908,31,143,1166,9.468288168102228
1358,AVENUE DUTRIEVOZ,"  6, AVENUE DUTRIEVOZ ",40,45.7734711,4.861725,31,143,1166,10.520320186780255
1359,AVENUE DUTRIEVOZ,"  4, AVENUE DUTRIEVOZ ",47,45.7736926,4.861784,31,143,1166,12.361376219466797
1360,AVENUE DUTRIEVOZ,"  2A, AVENUE DUTRIEVOZ ",33,45.7740006,4.8614451,31,143,1166,8.679264154093708
1361,AVENUE DUTRIEVOZ,"  2B, AVENUE DUTRIEVOZ ",32,45.7740006,4.8614451,31,143,1166,8.416256149424203
1362,ALLEE GENERAL DAYAN,"  15, ALLEE GENERAL DAYAN ",20,45.7733764,4.8613473,31,143,1166,5.260160093390128
1363,ALLEE MARCEL ACHARD RESIDENCE DEBUSSY,2  ALLEE MARCEL ACHARD RESIDENCE DEBUSSY ,37,45.7753127,4.8612568,28,156,1138,9.27847164731746
1364,ALLEE H.G. CLOUZOT,  4 ALLEE H.G. CLOUZOT ,84,45.7758026,4.8615029,28,156,1138,21.06463833445045
1365,ALLEE H.G. CLOUZOT,  2 ALLEE H.G. CLOUZOT ,112,45.7761473,4.8615539,28,156,1138,28.08618444593393
1366,ALL?E JULIEN DUVIVIER,  8 ALL?E JULIEN DUVIVIER ,8,45.7768521,4.8615802,26,207,1166,3.0956904226931115
1367,ALLEE JULIEN DUVIVIER,  4  ALLEE JULIEN DUVIVIER ,28,45.7773774,4.8619545,26,207,1166,10.83491647942589
1368,ALLEE JULIEN DUVIVIER,  2  ALLEE JULIEN DUVIVIER ,14,45.7775959,4.8619799,26,207,1166,5.417458239712945
1369,AV ROBERTO ROSSELLINI,  14 AV ROBERTO ROSSELLINI ,2,45.7778678,4.8618217,26,207,1166,0.7739226056732779
1370,AVENUE ROBERTO ROSSELLINI,6 AVENUE ROBERTO ROSSELLINI ,4,45.7785813,4.8623053,26,207,1166,1.5478452113465557
1371,AVENUE ROBERTO ROSSELLINI,4 AVENUE ROBERTO ROSSELLINI ,8,45.7787009,4.8623184,26,207,1166,3.0956904226931115
1372,AVENUE ROBERTO ROSSELLINI,2 AVENUE ROBERTO ROSSELLINI ,4,45.7789076,4.8623209,26,207,1166,1.5478452113465557
1373,BD DU 11 NOVEMBRE 1918,  46 BD DU 11 NOVEMBRE 1918 ,206,45.7785925,4.8640255,26,207,1166,79.71402838434761
1374,BD DU 11 NOVEMBRE 1918,  46 BD DU 11 NOVEMBRE 1918 ,2,45.7785925,4.8640255,26,207,1166,0.7739226056732779
1375,BD DU 11 NOVEMBRE 1918,  50 BD DU 11 NOVEMBRE 1918 ,3,45.7789217,4.8648219,26,207,1166,1.1608839085099167
1376,BD DU 11 NOVEMBRE 1918,  52 BD DU 11 NOVEMBRE 1918 ,3,45.7789217,4.8648219,26,207,1166,1.1608839085099167
1377,BD DU 11 NOVEMBRE 1918,  54 BD DU 11 NOVEMBRE 1918 ,7,45.7789217,4.8648219,26,207,1166,2.7087291198564727
1378,BD DU 11 NOVEMBRE 1918,  54 BD DU 11 NOVEMBRE 1918 ,2,45.7789217,4.8648219,26,207,1166,0.7739226056732779
1379,BD DU 11 NOVEMBRE 1918,  52 BD DU 11 NOVEMBRE 1918 ,9,45.7789343,4.8646009,26,207,1166,3.48265172552975
1380,BD DU 11 NOVEMBRE 1918,  50 BD DU 11 NOVEMBRE 1918 ,5,45.7789485,4.86434,26,207,1166,1.9348065141831945
1381,BD DU 11 NOVEMBRE 1918,  48 BD DU 11 NOVEMBRE 1918 ,15,45.7789549,4.8642257,26,207,1166,5.804419542549583
1382,BD DU 11 NOVEMBRE 1918,  14 BD DU 11 NOVEMBRE 1918 ,1,45.7790897,4.8615024,26,207,1166,0.38696130283663893
1383,BD DU 11 NOVEMBRE 1918,  24 BD DU 11 NOVEMBRE 1918 ,30,45.7791432,4.8620411,26,207,1166,11.608839085099167
1384,BD DU 11 NOVEMBRE 1918,  22 BD DU 11 NOVEMBRE 1918 ,27,45.7792053,4.8616922,26,207,1166,10.44795517658925
1385,BD DU 11 NOVEMBRE 1918,  22 BD DU 11 NOVEMBRE 1918 ,1,45.7792053,4.8616922,26,207,1166,0.38696130283663893
1386,BD DU 11 NOVEMBRE 1918,  18 BD DU 11 NOVEMBRE 1918 ,17,45.7792176,4.861463,26,207,1166,6.578342148222862
1387,BD DU 11 NOVEMBRE 1918,  16 BD DU 11 NOVEMBRE 1918 ,20,45.7792346,4.8612009,26,207,1166,7.739226056732778
1388,BD DU 11 NOVEMBRE 1918,  12 BD DU 11 NOVEMBRE 1918 ,10,45.7793375,4.8608568,26,207,1166,3.869613028366389
1389,BD DU 11 NOVEMBRE 1918,  12 BD DU 11 NOVEMBRE 1918 ,1,45.7793375,4.8608568,26,207,1166,0.38696130283663893
1390,RUE JOHN FORD,  15 RUE JOHN FORD ,82,45.7785843,4.8612578,26,207,1166,31.73082683260439
1391,RUE LOUIS GUERIN,31  RUE LOUIS GUERIN ,40,45.7771998,4.8603291,26,207,1166,15.478452113465556
1392,RUE LOUIS GUERIN,29  RUE LOUIS GUERIN ,43,45.7773271,4.8605252,26,207,1166,16.639336021975474
1393,BD 11 NOVEMBRE,  48 BD 11 NOVEMBRE ,3,45.7789217,4.8648219,26,207,1166,1.1608839085099167
1394,RUE DU BOULEVARD,14 RUE DU BOULEVARD ,1,45.777821,4.8684663,27,135,1136,0.23044793945623063
1395,RUE RUE GERVAIS BUSSIERE,14 RUE RUE GERVAIS BUSSIERE ,1,45.7747478,4.8699276,24,169,1165,0.30822319180334257
1396,RUE GERVAIS BUSSIERE,  36 RUE GERVAIS BUSSIERE ,10,45.772174,4.8695136,24,169,1165,3.0822319180334254
1397,RUE GERVAIS BUSSIERE,5 RUE GERVAIS BUSSIERE ,22,45.7751399,4.8701388,25,163,1241,6.725217834056852
1398,RUE GERVAIS BUSSIERE,5 RUE GERVAIS BUSSIERE ,3,45.7751399,4.8701388,25,163,1241,0.9170751591895707
1399,RUE HECTOR BERLIOZ,23 RUE HECTOR BERLIOZ ,30,45.7715158,4.8681939,34,163,1250,7.499380694713213
1400,RUE HECTOR BERLIOZ,  14 RUE HECTOR BERLIOZ ,8,45.7724834,4.8687286,24,169,1165,2.4657855344267405
1401,RUE JUBIN,8 RUE JUBIN ,5,45.7715473,4.8675449,32,198,1308,1.5021654636821304
1402,RUE JUBIN,"  10, RUE JUBIN ",16,45.7716648,4.8676287,32,198,1308,4.806929483782818
1403,RUE JUBIN,"  18, RUE JUBIN ",34,45.7721286,4.8679623,32,198,1308,10.214725153038486
1404,RUE RUE JUBIN,2 RUE RUE JUBIN ,8,45.7712378,4.8673054,32,198,1308,2.403464741891409
1405,RUE HENRI ROLLAND ALL A,"  4, RUE HENRI ROLLAND ALL A ",8,45.7719659,4.863011,31,143,1166,2.104064037356051
1406,RUE HENRI ROLLAND ALL B,"  4, RUE HENRI ROLLAND ALL B ",6,45.7719659,4.863011,31,143,1166,1.578048028017038
1407,RUE HENRI ROLLAND ALL C,"  4, RUE HENRI ROLLAND ALL C ",6,45.7719659,4.863011,31,143,1166,1.578048028017038
1408,RUE HENRI ROLLAND ALL D,"  4, RUE HENRI ROLLAND ALL D ",6,45.7719659,4.863011,31,143,1166,1.578048028017038
1409,RUE HENRI ROLLAND ALL E,"  4, RUE HENRI ROLLAND ALL E ",6,45.7719659,4.863011,31,143,1166,1.578048028017038
1410,RUE RUE D'HANOI,12 RUE RUE D'HANOI ,12,45.7713318,4.8628178,32,198,1308,3.6051971128371134
1411,RUE RUE D'HANOI,10 RUE RUE D'HANOI ,16,45.7713445,4.8625917,32,198,1308,4.806929483782818
